<?xml version="1.0" encoding="UTF-8"?>
<gpx version="1.1" creator="Rando toppturs" xmlns="http://www.topografix.com/GPX/1/1"><metadata><name>001 Unnamed 1417 m</name><desc>Generated 2026-09-13 17:42 from Kartverket 10 m terrain. Ascent lines are least-cost terrain paths under 35°, not verified routes. Not a snow-stability assessment.</desc></metadata><wpt lat="62.659299" lon="9.278770"><ele>598</ele><name>Car · Unnamed summit 1417 m</name></wpt><wpt lat="62.658375" lon="9.324548"><ele>1417</ele><name>Unnamed summit 1417 m</name></wpt><trk><name>Up · Unnamed summit 1417 m</name><desc>least-cost ascent: +847 m over 3266 m, max 35°, 1.2% on 30–35°, ≈2.93 h at 4 km/h + 400 m/h. Terrain possibility, not a checked route.</desc><trkseg><trkpt lat="62.659299" lon="9.278770"><ele>598</ele></trkpt><trkpt lat="62.659785" lon="9.279654"><ele>604</ele></trkpt><trkpt lat="62.660271" lon="9.280539"><ele>615</ele></trkpt><trkpt lat="62.660758" lon="9.281423"><ele>632</ele></trkpt><trkpt lat="62.661244" lon="9.282308"><ele>652</ele></trkpt><trkpt lat="62.661730" lon="9.283193"><ele>674</ele></trkpt><trkpt lat="62.662201" lon="9.283689"><ele>695</ele></trkpt><trkpt lat="62.662687" lon="9.284574"><ele>722</ele></trkpt><trkpt lat="62.663173" lon="9.285458"><ele>753</ele></trkpt><trkpt lat="62.663659" lon="9.286343"><ele>781</ele></trkpt><trkpt lat="62.664106" lon="9.286257"><ele>755</ele></trkpt><trkpt lat="62.664324" lon="9.287193"><ele>763</ele></trkpt><trkpt lat="62.664364" lon="9.288164"><ele>775</ele></trkpt><trkpt lat="62.664493" lon="9.289118"><ele>787</ele></trkpt><trkpt lat="62.664622" lon="9.290072"><ele>800</ele></trkpt><trkpt lat="62.664840" lon="9.291009"><ele>812</ele></trkpt><trkpt lat="62.664969" lon="9.291962"><ele>824</ele></trkpt><trkpt lat="62.665009" lon="9.292934"><ele>842</ele></trkpt><trkpt lat="62.665048" lon="9.293905"><ele>857</ele></trkpt><trkpt lat="62.665177" lon="9.294859"><ele>872</ele></trkpt><trkpt lat="62.665217" lon="9.295830"><ele>888</ele></trkpt><trkpt lat="62.665257" lon="9.296801"><ele>902</ele></trkpt><trkpt lat="62.665118" lon="9.297806"><ele>915</ele></trkpt><trkpt lat="62.665157" lon="9.298778"><ele>927</ele></trkpt><trkpt lat="62.665375" lon="9.299714"><ele>937</ele></trkpt><trkpt lat="62.665504" lon="9.300668"><ele>946</ele></trkpt><trkpt lat="62.665723" lon="9.301605"><ele>958</ele></trkpt><trkpt lat="62.665941" lon="9.302542"><ele>969</ele></trkpt><trkpt lat="62.666159" lon="9.303478"><ele>980</ele></trkpt><trkpt lat="62.666377" lon="9.304415"><ele>991</ele></trkpt><trkpt lat="62.666327" lon="9.305403"><ele>1011</ele></trkpt><trkpt lat="62.666010" lon="9.306443"><ele>1037</ele></trkpt><trkpt lat="62.665603" lon="9.307501"><ele>1072</ele></trkpt><trkpt lat="62.665188" lon="9.308364"><ele>1092</ele></trkpt><trkpt lat="62.664781" lon="9.309421"><ele>1122</ele></trkpt><trkpt lat="62.664374" lon="9.310478"><ele>1147</ele></trkpt><trkpt lat="62.663967" lon="9.311535"><ele>1175</ele></trkpt><trkpt lat="62.663552" lon="9.312398"><ele>1207</ele></trkpt><trkpt lat="62.663145" lon="9.313455"><ele>1232</ele></trkpt><trkpt lat="62.662737" lon="9.314512"><ele>1256</ele></trkpt><trkpt lat="62.662330" lon="9.315568"><ele>1283</ele></trkpt><trkpt lat="62.661923" lon="9.316625"><ele>1302</ele></trkpt><trkpt lat="62.661516" lon="9.317682"><ele>1322</ele></trkpt><trkpt lat="62.661109" lon="9.318739"><ele>1333</ele></trkpt><trkpt lat="62.660702" lon="9.319796"><ele>1337</ele></trkpt><trkpt lat="62.660295" lon="9.320853"><ele>1343</ele></trkpt><trkpt lat="62.659888" lon="9.321909"><ele>1353</ele></trkpt><trkpt lat="62.659465" lon="9.322578"><ele>1376</ele></trkpt><trkpt lat="62.659034" lon="9.323052"><ele>1393</ele></trkpt><trkpt lat="62.658619" lon="9.323914"><ele>1412</ele></trkpt><trkpt lat="62.658375" lon="9.324548"><ele>1417</ele></trkpt></trkseg></trk><wpt lat="62.664953" lon="9.291574"><ele>819</ele><name>Run end · Unnamed summit 1417 m</name></wpt><trk><name>Down · Unnamed summit 1417 m</name><desc>fall-line run: 1354 m of 20–30°, 492 m drop, aspect 295°, max 30°, 0.7% ≥30°; ends 0.91 km from the car.</desc><trkseg><trkpt lat="62.658375" lon="9.324548"><ele>1417</ele></trkpt><trkpt lat="62.661521" lon="9.313375"><ele>1311</ele></trkpt><trkpt lat="62.661789" lon="9.313324"><ele>1296</ele></trkpt><trkpt lat="62.662057" lon="9.313272"><ele>1279</ele></trkpt><trkpt lat="62.662325" lon="9.313221"><ele>1264</ele></trkpt><trkpt lat="62.662593" lon="9.313169"><ele>1251</ele></trkpt><trkpt lat="62.662861" lon="9.313118"><ele>1239</ele></trkpt><trkpt lat="62.663105" lon="9.312483"><ele>1225</ele></trkpt><trkpt lat="62.663373" lon="9.312432"><ele>1214</ele></trkpt><trkpt lat="62.663625" lon="9.311992"><ele>1199</ele></trkpt><trkpt lat="62.663885" lon="9.311746"><ele>1182</ele></trkpt><trkpt lat="62.664145" lon="9.311500"><ele>1167</ele></trkpt><trkpt lat="62.664397" lon="9.311060"><ele>1152</ele></trkpt><trkpt lat="62.664657" lon="9.310815"><ele>1140</ele></trkpt><trkpt lat="62.664902" lon="9.310180"><ele>1126</ele></trkpt><trkpt lat="62.665154" lon="9.309740"><ele>1110</ele></trkpt><trkpt lat="62.665398" lon="9.309106"><ele>1097</ele></trkpt><trkpt lat="62.665642" lon="9.308472"><ele>1082</ele></trkpt><trkpt lat="62.665886" lon="9.307837"><ele>1064</ele></trkpt><trkpt lat="62.666131" lon="9.307203"><ele>1046</ele></trkpt><trkpt lat="62.666375" lon="9.306569"><ele>1027</ele></trkpt><trkpt lat="62.666619" lon="9.305935"><ele>1009</ele></trkpt><trkpt lat="62.666506" lon="9.305369"><ele>1002</ele></trkpt><trkpt lat="62.666482" lon="9.304786"><ele>996</ele></trkpt><trkpt lat="62.666369" lon="9.304221"><ele>989</ele></trkpt><trkpt lat="62.666167" lon="9.303673"><ele>982</ele></trkpt><trkpt lat="62.666054" lon="9.303107"><ele>975</ele></trkpt><trkpt lat="62.665941" lon="9.302542"><ele>969</ele></trkpt><trkpt lat="62.665738" lon="9.301993"><ele>963</ele></trkpt><trkpt lat="62.665625" lon="9.301428"><ele>955</ele></trkpt><trkpt lat="62.665602" lon="9.300845"><ele>948</ele></trkpt><trkpt lat="62.665488" lon="9.300280"><ele>941</ele></trkpt><trkpt lat="62.665375" lon="9.299714"><ele>937</ele></trkpt><trkpt lat="62.665173" lon="9.299166"><ele>930</ele></trkpt><trkpt lat="62.665149" lon="9.298583"><ele>925</ele></trkpt><trkpt lat="62.665126" lon="9.298001"><ele>917</ele></trkpt><trkpt lat="62.665191" lon="9.297401"><ele>909</ele></trkpt><trkpt lat="62.665167" lon="9.296818"><ele>902</ele></trkpt><trkpt lat="62.665233" lon="9.296218"><ele>893</ele></trkpt><trkpt lat="62.665209" lon="9.295635"><ele>885</ele></trkpt><trkpt lat="62.665185" lon="9.295053"><ele>875</ele></trkpt><trkpt lat="62.665161" lon="9.294470"><ele>867</ele></trkpt><trkpt lat="62.665138" lon="9.293887"><ele>858</ele></trkpt><trkpt lat="62.665114" lon="9.293305"><ele>848</ele></trkpt><trkpt lat="62.665090" lon="9.292722"><ele>838</ele></trkpt><trkpt lat="62.665066" lon="9.292139"><ele>827</ele></trkpt><trkpt lat="62.664953" lon="9.291574"><ele>819</ele></trkpt><trkpt lat="62.664953" lon="9.291574"><ele>819</ele></trkpt></trkseg></trk></gpx>