<?xml version="1.0" encoding="UTF-8"?>
<gpx version="1.1" creator="Rando toppturs" xmlns="http://www.topografix.com/GPX/1/1"><metadata><name>002 Elghøa 1443 m</name><desc>This is an automatically generated list. I have not checked them all. Do not attempt these if you're a beginner. Generated 2026-09-13 17:42 from Kartverket 10 m terrain. Ascent lines are least-cost terrain paths under 35°, not verified routes. Not a snow-stability assessment.</desc></metadata><wpt lat="62.608644" lon="9.435273"><ele>677</ele><name>Car · Elghøa 1443 m</name></wpt><wpt lat="62.614554" lon="9.371636"><ele>1443</ele><name>Elghøa 1443 m</name></wpt><trk><name>Up · Elghøa 1443 m</name><desc>least-cost ascent: +769 m over 3694 m, max 29°, 0.0% on 30–35°, ≈2.85 h at 4 km/h + 400 m/h. Terrain possibility, not a checked route.</desc><trkseg><trkpt lat="62.608644" lon="9.435273"><ele>677</ele></trkpt><trkpt lat="62.608605" lon="9.434303"><ele>686</ele></trkpt><trkpt lat="62.608567" lon="9.433334"><ele>693</ele></trkpt><trkpt lat="62.608528" lon="9.432364"><ele>701</ele></trkpt><trkpt lat="62.608489" lon="9.431395"><ele>709</ele></trkpt><trkpt lat="62.608451" lon="9.430425"><ele>718</ele></trkpt><trkpt lat="62.608501" lon="9.429439"><ele>730</ele></trkpt><trkpt lat="62.608909" lon="9.428386"><ele>747</ele></trkpt><trkpt lat="62.609317" lon="9.427332"><ele>769</ele></trkpt><trkpt lat="62.609368" lon="9.426346"><ele>786</ele></trkpt><trkpt lat="62.609597" lon="9.425326"><ele>802</ele></trkpt><trkpt lat="62.610005" lon="9.424272"><ele>825</ele></trkpt><trkpt lat="62.609967" lon="9.423303"><ele>839</ele></trkpt><trkpt lat="62.609928" lon="9.422333"><ele>854</ele></trkpt><trkpt lat="62.609889" lon="9.421364"><ele>868</ele></trkpt><trkpt lat="62.610208" lon="9.420327"><ele>892</ele></trkpt><trkpt lat="62.610616" lon="9.419273"><ele>921</ele></trkpt><trkpt lat="62.611024" lon="9.418220"><ele>953</ele></trkpt><trkpt lat="62.611342" lon="9.417183"><ele>978</ele></trkpt><trkpt lat="62.611661" lon="9.416146"><ele>994</ele></trkpt><trkpt lat="62.612069" lon="9.415092"><ele>1013</ele></trkpt><trkpt lat="62.612208" lon="9.414089"><ele>1028</ele></trkpt><trkpt lat="62.612170" lon="9.413119"><ele>1042</ele></trkpt><trkpt lat="62.612131" lon="9.412150"><ele>1054</ele></trkpt><trkpt lat="62.612092" lon="9.411180"><ele>1064</ele></trkpt><trkpt lat="62.612053" lon="9.410210"><ele>1074</ele></trkpt><trkpt lat="62.612014" lon="9.409241"><ele>1085</ele></trkpt><trkpt lat="62.611976" lon="9.408271"><ele>1098</ele></trkpt><trkpt lat="62.612294" lon="9.407234"><ele>1120</ele></trkpt><trkpt lat="62.612345" lon="9.406248"><ele>1136</ele></trkpt><trkpt lat="62.612306" lon="9.405278"><ele>1148</ele></trkpt><trkpt lat="62.612267" lon="9.404309"><ele>1159</ele></trkpt><trkpt lat="62.612228" lon="9.403339"><ele>1170</ele></trkpt><trkpt lat="62.612189" lon="9.402370"><ele>1179</ele></trkpt><trkpt lat="62.612150" lon="9.401400"><ele>1187</ele></trkpt><trkpt lat="62.612111" lon="9.400430"><ele>1193</ele></trkpt><trkpt lat="62.612072" lon="9.399461"><ele>1197</ele></trkpt><trkpt lat="62.612034" lon="9.398491"><ele>1203</ele></trkpt><trkpt lat="62.611995" lon="9.397522"><ele>1207</ele></trkpt><trkpt lat="62.611956" lon="9.396552"><ele>1212</ele></trkpt><trkpt lat="62.611917" lon="9.395583"><ele>1217</ele></trkpt><trkpt lat="62.611878" lon="9.394613"><ele>1222</ele></trkpt><trkpt lat="62.611839" lon="9.393644"><ele>1226</ele></trkpt><trkpt lat="62.611800" lon="9.392674"><ele>1231</ele></trkpt><trkpt lat="62.611761" lon="9.391704"><ele>1233</ele></trkpt><trkpt lat="62.611722" lon="9.390735"><ele>1234</ele></trkpt><trkpt lat="62.611683" lon="9.389765"><ele>1238</ele></trkpt><trkpt lat="62.611644" lon="9.388796"><ele>1248</ele></trkpt><trkpt lat="62.611605" lon="9.387826"><ele>1259</ele></trkpt><trkpt lat="62.611924" lon="9.386789"><ele>1259</ele></trkpt><trkpt lat="62.612331" lon="9.385735"><ele>1261</ele></trkpt><trkpt lat="62.612739" lon="9.384681"><ele>1263</ele></trkpt><trkpt lat="62.612879" lon="9.383677"><ele>1276</ele></trkpt><trkpt lat="62.613108" lon="9.382657"><ele>1284</ele></trkpt><trkpt lat="62.613247" lon="9.381654"><ele>1294</ele></trkpt><trkpt lat="62.613208" lon="9.380684"><ele>1315</ele></trkpt><trkpt lat="62.613169" lon="9.379714"><ele>1335</ele></trkpt><trkpt lat="62.613220" lon="9.378728"><ele>1355</ele></trkpt><trkpt lat="62.613359" lon="9.377724"><ele>1373</ele></trkpt><trkpt lat="62.613499" lon="9.376721"><ele>1390</ele></trkpt><trkpt lat="62.613906" lon="9.375667"><ele>1413</ele></trkpt><trkpt lat="62.613957" lon="9.374680"><ele>1427</ele></trkpt><trkpt lat="62.613918" lon="9.373711"><ele>1433</ele></trkpt><trkpt lat="62.614146" lon="9.372690"><ele>1439</ele></trkpt><trkpt lat="62.614554" lon="9.371636"><ele>1443</ele></trkpt><trkpt lat="62.614554" lon="9.371636"><ele>1443</ele></trkpt></trkseg></trk><wpt lat="62.603715" lon="9.451628"><ele>460</ele><name>Run end · Elghøa 1443 m</name></wpt><trk><name>Down · Elghøa 1443 m</name><desc>fall-line run: 1339 m of 20–30°, 941 m drop, aspect 105°, max 30°, 0.0% ≥30°; ends 1.0 km from the car.</desc><trkseg><trkpt lat="62.614554" lon="9.371636"><ele>1443</ele></trkpt><trkpt lat="62.614035" lon="9.376619"><ele>1401</ele></trkpt><trkpt lat="62.613879" lon="9.377235"><ele>1386</ele></trkpt><trkpt lat="62.613903" lon="9.377817"><ele>1375</ele></trkpt><trkpt lat="62.613926" lon="9.378398"><ele>1365</ele></trkpt><trkpt lat="62.613950" lon="9.378980"><ele>1353</ele></trkpt><trkpt lat="62.613973" lon="9.379562"><ele>1339</ele></trkpt><trkpt lat="62.613997" lon="9.380144"><ele>1324</ele></trkpt><trkpt lat="62.614020" lon="9.380725"><ele>1312</ele></trkpt><trkpt lat="62.614043" lon="9.381307"><ele>1298</ele></trkpt><trkpt lat="62.614067" lon="9.381889"><ele>1287</ele></trkpt><trkpt lat="62.614090" lon="9.382471"><ele>1275</ele></trkpt><trkpt lat="62.614114" lon="9.383052"><ele>1265</ele></trkpt><trkpt lat="62.614137" lon="9.383634"><ele>1257</ele></trkpt><trkpt lat="62.614339" lon="9.384182"><ele>1248</ele></trkpt><trkpt lat="62.614362" lon="9.384764"><ele>1241</ele></trkpt><trkpt lat="62.614386" lon="9.385346"><ele>1235</ele></trkpt><trkpt lat="62.614409" lon="9.385927"><ele>1228</ele></trkpt><trkpt lat="62.614522" lon="9.386492"><ele>1223</ele></trkpt><trkpt lat="62.614635" lon="9.387057"><ele>1219</ele></trkpt><trkpt lat="62.614747" lon="9.387622"><ele>1214</ele></trkpt><trkpt lat="62.614771" lon="9.388204"><ele>1208</ele></trkpt><trkpt lat="62.614794" lon="9.388786"><ele>1202</ele></trkpt><trkpt lat="62.614818" lon="9.389367"><ele>1197</ele></trkpt><trkpt lat="62.614841" lon="9.389949"><ele>1192</ele></trkpt><trkpt lat="62.614954" lon="9.390514"><ele>1186</ele></trkpt><trkpt lat="62.615066" lon="9.391079"><ele>1179</ele></trkpt><trkpt lat="62.615179" lon="9.391644"><ele>1173</ele></trkpt><trkpt lat="62.615202" lon="9.392225"><ele>1169</ele></trkpt><trkpt lat="62.615315" lon="9.392790"><ele>1163</ele></trkpt><trkpt lat="62.615338" lon="9.393372"><ele>1158</ele></trkpt><trkpt lat="62.615362" lon="9.393954"><ele>1153</ele></trkpt><trkpt lat="62.615474" lon="9.394519"><ele>1147</ele></trkpt><trkpt lat="62.615587" lon="9.395084"><ele>1142</ele></trkpt><trkpt lat="62.615700" lon="9.395649"><ele>1135</ele></trkpt><trkpt lat="62.615812" lon="9.396214"><ele>1130</ele></trkpt><trkpt lat="62.615925" lon="9.396778"><ele>1125</ele></trkpt><trkpt lat="62.615949" lon="9.397360"><ele>1118</ele></trkpt><trkpt lat="62.616061" lon="9.397925"><ele>1112</ele></trkpt><trkpt lat="62.616263" lon="9.398473"><ele>1105</ele></trkpt><trkpt lat="62.616376" lon="9.399038"><ele>1098</ele></trkpt><trkpt lat="62.616489" lon="9.399603"><ele>1093</ele></trkpt><trkpt lat="62.616512" lon="9.400185"><ele>1088</ele></trkpt><trkpt lat="62.616625" lon="9.400750"><ele>1082</ele></trkpt><trkpt lat="62.616648" lon="9.401332"><ele>1078</ele></trkpt><trkpt lat="62.616850" lon="9.401880"><ele>1071</ele></trkpt><trkpt lat="62.616873" lon="9.402462"><ele>1066</ele></trkpt><trkpt lat="62.616896" lon="9.403043"><ele>1063</ele></trkpt><trkpt lat="62.617098" lon="9.403592"><ele>1058</ele></trkpt><trkpt lat="62.617211" lon="9.404156"><ele>1054</ele></trkpt><trkpt lat="62.617413" lon="9.404705"><ele>1049</ele></trkpt><trkpt lat="62.617526" lon="9.405270"><ele>1045</ele></trkpt><trkpt lat="62.617638" lon="9.405835"><ele>1041</ele></trkpt><trkpt lat="62.617840" lon="9.406383"><ele>1036</ele></trkpt><trkpt lat="62.617953" lon="9.406948"><ele>1033</ele></trkpt><trkpt lat="62.618066" lon="9.407513"><ele>1029</ele></trkpt><trkpt lat="62.618178" lon="9.408078"><ele>1025</ele></trkpt><trkpt lat="62.618291" lon="9.408643"><ele>1021</ele></trkpt><trkpt lat="62.618403" lon="9.409208"><ele>1017</ele></trkpt><trkpt lat="62.618516" lon="9.409773"><ele>1012</ele></trkpt><trkpt lat="62.618539" lon="9.410355"><ele>1007</ele></trkpt><trkpt lat="62.618652" lon="9.410920"><ele>1001</ele></trkpt><trkpt lat="62.618765" lon="9.411485"><ele>996</ele></trkpt><trkpt lat="62.618877" lon="9.412050"><ele>990</ele></trkpt><trkpt lat="62.618990" lon="9.412615"><ele>982</ele></trkpt><trkpt lat="62.619102" lon="9.413180"><ele>972</ele></trkpt><trkpt lat="62.619215" lon="9.413745"><ele>963</ele></trkpt><trkpt lat="62.619506" lon="9.414276"><ele>951</ele></trkpt><trkpt lat="62.619708" lon="9.414824"><ele>940</ele></trkpt><trkpt lat="62.619642" lon="9.415423"><ele>935</ele></trkpt><trkpt lat="62.619665" lon="9.416005"><ele>930</ele></trkpt><trkpt lat="62.619689" lon="9.416587"><ele>924</ele></trkpt><trkpt lat="62.619623" lon="9.417186"><ele>920</ele></trkpt><trkpt lat="62.619467" lon="9.417801"><ele>913</ele></trkpt><trkpt lat="62.619401" lon="9.418400"><ele>907</ele></trkpt><trkpt lat="62.619335" lon="9.418999"><ele>901</ele></trkpt><trkpt lat="62.619180" lon="9.419614"><ele>894</ele></trkpt><trkpt lat="62.619024" lon="9.420230"><ele>887</ele></trkpt><trkpt lat="62.618869" lon="9.420845"><ele>880</ele></trkpt><trkpt lat="62.618713" lon="9.421461"><ele>873</ele></trkpt><trkpt lat="62.618558" lon="9.422076"><ele>866</ele></trkpt><trkpt lat="62.618492" lon="9.422675"><ele>859</ele></trkpt><trkpt lat="62.618426" lon="9.423274"><ele>854</ele></trkpt><trkpt lat="62.618270" lon="9.423889"><ele>847</ele></trkpt><trkpt lat="62.618115" lon="9.424505"><ele>839</ele></trkpt><trkpt lat="62.617870" lon="9.425137"><ele>831</ele></trkpt><trkpt lat="62.617625" lon="9.425769"><ele>826</ele></trkpt><trkpt lat="62.617373" lon="9.426208"><ele>819</ele></trkpt><trkpt lat="62.617097" lon="9.426064"><ele>815</ele></trkpt><trkpt lat="62.616829" lon="9.426115"><ele>809</ele></trkpt><trkpt lat="62.616553" lon="9.425971"><ele>803</ele></trkpt><trkpt lat="62.616278" lon="9.425828"><ele>799</ele></trkpt><trkpt lat="62.616010" lon="9.425878"><ele>795</ele></trkpt><trkpt lat="62.615742" lon="9.425928"><ele>789</ele></trkpt><trkpt lat="62.615481" lon="9.426173"><ele>784</ele></trkpt><trkpt lat="62.615213" lon="9.426223"><ele>779</ele></trkpt><trkpt lat="62.614953" lon="9.426468"><ele>775</ele></trkpt><trkpt lat="62.614685" lon="9.426518"><ele>771</ele></trkpt><trkpt lat="62.614417" lon="9.426568"><ele>766</ele></trkpt><trkpt lat="62.614149" lon="9.426619"><ele>762</ele></trkpt><trkpt lat="62.613881" lon="9.426669"><ele>755</ele></trkpt><trkpt lat="62.613636" lon="9.427301"><ele>747</ele></trkpt><trkpt lat="62.613392" lon="9.427934"><ele>740</ele></trkpt><trkpt lat="62.613139" lon="9.428372"><ele>737</ele></trkpt><trkpt lat="62.612887" lon="9.428810"><ele>730</ele></trkpt><trkpt lat="62.612642" lon="9.429442"><ele>725</ele></trkpt><trkpt lat="62.612389" lon="9.429880"><ele>720</ele></trkpt><trkpt lat="62.612137" lon="9.430319"><ele>716</ele></trkpt><trkpt lat="62.612071" lon="9.430917"><ele>711</ele></trkpt><trkpt lat="62.611915" lon="9.431533"><ele>707</ele></trkpt><trkpt lat="62.611663" lon="9.431971"><ele>703</ele></trkpt><trkpt lat="62.611410" lon="9.432409"><ele>696</ele></trkpt><trkpt lat="62.611165" lon="9.433041"><ele>691</ele></trkpt><trkpt lat="62.611010" lon="9.433656"><ele>686</ele></trkpt><trkpt lat="62.610944" lon="9.434255"><ele>682</ele></trkpt><trkpt lat="62.610788" lon="9.434870"><ele>679</ele></trkpt><trkpt lat="62.610543" lon="9.435502"><ele>674</ele></trkpt><trkpt lat="62.610283" lon="9.435747"><ele>669</ele></trkpt><trkpt lat="62.610030" lon="9.436185"><ele>665</ele></trkpt><trkpt lat="62.609778" lon="9.436623"><ele>660</ele></trkpt><trkpt lat="62.609525" lon="9.437061"><ele>655</ele></trkpt><trkpt lat="62.609281" lon="9.437693"><ele>649</ele></trkpt><trkpt lat="62.609117" lon="9.438114"><ele>642</ele></trkpt><trkpt lat="62.608849" lon="9.438165"><ele>639</ele></trkpt><trkpt lat="62.608589" lon="9.438409"><ele>634</ele></trkpt><trkpt lat="62.608434" lon="9.439024"><ele>630</ele></trkpt><trkpt lat="62.608181" lon="9.439462"><ele>627</ele></trkpt><trkpt lat="62.608025" lon="9.440077"><ele>622</ele></trkpt><trkpt lat="62.607870" lon="9.440693"><ele>615</ele></trkpt><trkpt lat="62.607625" lon="9.441325"><ele>609</ele></trkpt><trkpt lat="62.607380" lon="9.441956"><ele>600</ele></trkpt><trkpt lat="62.607314" lon="9.442555"><ele>596</ele></trkpt><trkpt lat="62.607159" lon="9.443170"><ele>590</ele></trkpt><trkpt lat="62.607003" lon="9.443785"><ele>584</ele></trkpt><trkpt lat="62.606743" lon="9.444029"><ele>579</ele></trkpt><trkpt lat="62.606490" lon="9.444467"><ele>576</ele></trkpt><trkpt lat="62.606335" lon="9.445083"><ele>571</ele></trkpt><trkpt lat="62.606179" lon="9.445698"><ele>566</ele></trkpt><trkpt lat="62.606024" lon="9.446313"><ele>559</ele></trkpt><trkpt lat="62.605957" lon="9.446911"><ele>550</ele></trkpt><trkpt lat="62.605802" lon="9.447526"><ele>541</ele></trkpt><trkpt lat="62.605736" lon="9.448125"><ele>525</ele></trkpt><trkpt lat="62.605475" lon="9.448369"><ele>521</ele></trkpt><trkpt lat="62.605223" lon="9.448807"><ele>519</ele></trkpt><trkpt lat="62.604970" lon="9.449245"><ele>506</ele></trkpt><trkpt lat="62.604725" lon="9.449877"><ele>497</ele></trkpt><trkpt lat="62.604480" lon="9.450508"><ele>488</ele></trkpt><trkpt lat="62.604220" lon="9.450753"><ele>478</ele></trkpt><trkpt lat="62.603960" lon="9.450997"><ele>475</ele></trkpt><trkpt lat="62.603715" lon="9.451628"><ele>460</ele></trkpt><trkpt lat="62.603715" lon="9.451628"><ele>460</ele></trkpt></trkseg></trk></gpx>