<?xml version="1.0" encoding="UTF-8"?>
<gpx version="1.1" creator="Rando toppturs" xmlns="http://www.topografix.com/GPX/1/1"><metadata><name>003 Sæthøa 1416 m</name><desc>Generated 2026-09-13 17:42 from Kartverket 10 m terrain. Ascent lines are least-cost terrain paths under 35°, not verified routes. Not a snow-stability assessment.</desc></metadata><wpt lat="62.583028" lon="9.243119"><ele>529</ele><name>Car · Sæthøa 1416 m</name></wpt><wpt lat="62.608469" lon="9.242280"><ele>1416</ele><name>Sæthøa 1416 m</name></wpt><trk><name>Up · Sæthøa 1416 m</name><desc>least-cost ascent: +886 m over 3083 m, max 29°, 0.0% on 30–35°, ≈2.99 h at 4 km/h + 400 m/h. Terrain possibility, not a checked route.</desc><trkseg><trkpt lat="62.583028" lon="9.243119"><ele>529</ele></trkpt><trkpt lat="62.583474" lon="9.243032"><ele>540</ele></trkpt><trkpt lat="62.583921" lon="9.242946"><ele>551</ele></trkpt><trkpt lat="62.584367" lon="9.242859"><ele>565</ele></trkpt><trkpt lat="62.584814" lon="9.242772"><ele>580</ele></trkpt><trkpt lat="62.585260" lon="9.242686"><ele>594</ele></trkpt><trkpt lat="62.585707" lon="9.242599"><ele>612</ele></trkpt><trkpt lat="62.586153" lon="9.242512"><ele>634</ele></trkpt><trkpt lat="62.586600" lon="9.242426"><ele>656</ele></trkpt><trkpt lat="62.587055" lon="9.242533"><ele>679</ele></trkpt><trkpt lat="62.587509" lon="9.242640"><ele>701</ele></trkpt><trkpt lat="62.587964" lon="9.242747"><ele>719</ele></trkpt><trkpt lat="62.588410" lon="9.242660"><ele>738</ele></trkpt><trkpt lat="62.588865" lon="9.242767"><ele>762</ele></trkpt><trkpt lat="62.589311" lon="9.242680"><ele>784</ele></trkpt><trkpt lat="62.589758" lon="9.242594"><ele>806</ele></trkpt><trkpt lat="62.590204" lon="9.242507"><ele>827</ele></trkpt><trkpt lat="62.590651" lon="9.242420"><ele>848</ele></trkpt><trkpt lat="62.591097" lon="9.242334"><ele>867</ele></trkpt><trkpt lat="62.591536" lon="9.242053"><ele>890</ele></trkpt><trkpt lat="62.591990" lon="9.242160"><ele>914</ele></trkpt><trkpt lat="62.592437" lon="9.242073"><ele>936</ele></trkpt><trkpt lat="62.592883" lon="9.241987"><ele>957</ele></trkpt><trkpt lat="62.593330" lon="9.241900"><ele>975</ele></trkpt><trkpt lat="62.593784" lon="9.242007"><ele>994</ele></trkpt><trkpt lat="62.594231" lon="9.241920"><ele>1014</ele></trkpt><trkpt lat="62.594677" lon="9.241834"><ele>1029</ele></trkpt><trkpt lat="62.595132" lon="9.241941"><ele>1049</ele></trkpt><trkpt lat="62.595594" lon="9.242241"><ele>1065</ele></trkpt><trkpt lat="62.596057" lon="9.242542"><ele>1083</ele></trkpt><trkpt lat="62.596504" lon="9.242456"><ele>1093</ele></trkpt><trkpt lat="62.596950" lon="9.242369"><ele>1105</ele></trkpt><trkpt lat="62.597397" lon="9.242282"><ele>1119</ele></trkpt><trkpt lat="62.597843" lon="9.242195"><ele>1127</ele></trkpt><trkpt lat="62.598290" lon="9.242109"><ele>1134</ele></trkpt><trkpt lat="62.598736" lon="9.242022"><ele>1147</ele></trkpt><trkpt lat="62.599183" lon="9.241935"><ele>1161</ele></trkpt><trkpt lat="62.599629" lon="9.241848"><ele>1165</ele></trkpt><trkpt lat="62.600076" lon="9.241762"><ele>1174</ele></trkpt><trkpt lat="62.600522" lon="9.241675"><ele>1189</ele></trkpt><trkpt lat="62.600969" lon="9.241588"><ele>1200</ele></trkpt><trkpt lat="62.601415" lon="9.241501"><ele>1216</ele></trkpt><trkpt lat="62.601870" lon="9.241608"><ele>1234</ele></trkpt><trkpt lat="62.602324" lon="9.241715"><ele>1253</ele></trkpt><trkpt lat="62.602763" lon="9.241435"><ele>1275</ele></trkpt><trkpt lat="62.603209" lon="9.241348"><ele>1293</ele></trkpt><trkpt lat="62.603656" lon="9.241261"><ele>1313</ele></trkpt><trkpt lat="62.604102" lon="9.241175"><ele>1331</ele></trkpt><trkpt lat="62.604549" lon="9.241088"><ele>1342</ele></trkpt><trkpt lat="62.604995" lon="9.241001"><ele>1347</ele></trkpt><trkpt lat="62.605442" lon="9.240914"><ele>1356</ele></trkpt><trkpt lat="62.605889" lon="9.240828"><ele>1368</ele></trkpt><trkpt lat="62.606335" lon="9.240741"><ele>1375</ele></trkpt><trkpt lat="62.606782" lon="9.240654"><ele>1381</ele></trkpt><trkpt lat="62.607228" lon="9.240567"><ele>1390</ele></trkpt><trkpt lat="62.607691" lon="9.240868"><ele>1400</ele></trkpt><trkpt lat="62.608177" lon="9.241750"><ele>1411</ele></trkpt><trkpt lat="62.608469" lon="9.242280"><ele>1416</ele></trkpt></trkseg></trk><wpt lat="62.585568" lon="9.230521"><ele>603</ele><name>Run end · Sæthøa 1416 m</name></wpt><trk><name>Down · Sæthøa 1416 m</name><desc>fall-line run: 1236 m of 20–30°, 691 m drop, aspect 192°, max 30°, 0.0% ≥30°; ends 0.71 km from the car.</desc><trkseg><trkpt lat="62.608469" lon="9.242280"><ele>1416</ele></trkpt><trkpt lat="62.602402" lon="9.234863"><ele>1294</ele></trkpt><trkpt lat="62.602142" lon="9.235109"><ele>1279</ele></trkpt><trkpt lat="62.601866" lon="9.234967"><ele>1272</ele></trkpt><trkpt lat="62.601598" lon="9.235020"><ele>1259</ele></trkpt><trkpt lat="62.601338" lon="9.235265"><ele>1247</ele></trkpt><trkpt lat="62.601070" lon="9.235318"><ele>1239</ele></trkpt><trkpt lat="62.600802" lon="9.235370"><ele>1228</ele></trkpt><trkpt lat="62.600534" lon="9.235422"><ele>1216</ele></trkpt><trkpt lat="62.600266" lon="9.235474"><ele>1205</ele></trkpt><trkpt lat="62.599998" lon="9.235526"><ele>1193</ele></trkpt><trkpt lat="62.599730" lon="9.235578"><ele>1183</ele></trkpt><trkpt lat="62.599471" lon="9.235824"><ele>1173</ele></trkpt><trkpt lat="62.599195" lon="9.235682"><ele>1166</ele></trkpt><trkpt lat="62.598911" lon="9.235347"><ele>1160</ele></trkpt><trkpt lat="62.598643" lon="9.235399"><ele>1150</ele></trkpt><trkpt lat="62.598367" lon="9.235257"><ele>1143</ele></trkpt><trkpt lat="62.598075" lon="9.234728"><ele>1136</ele></trkpt><trkpt lat="62.597799" lon="9.234586"><ele>1130</ele></trkpt><trkpt lat="62.597531" lon="9.234639"><ele>1120</ele></trkpt><trkpt lat="62.597263" lon="9.234691"><ele>1109</ele></trkpt><trkpt lat="62.596995" lon="9.234743"><ele>1098</ele></trkpt><trkpt lat="62.596719" lon="9.234601"><ele>1089</ele></trkpt><trkpt lat="62.596443" lon="9.234459"><ele>1082</ele></trkpt><trkpt lat="62.596176" lon="9.234512"><ele>1069</ele></trkpt><trkpt lat="62.595981" lon="9.234159"><ele>1062</ele></trkpt><trkpt lat="62.595778" lon="9.233612"><ele>1057</ele></trkpt><trkpt lat="62.595494" lon="9.233277"><ele>1050</ele></trkpt><trkpt lat="62.595226" lon="9.233329"><ele>1046</ele></trkpt><trkpt lat="62.594951" lon="9.233187"><ele>1037</ele></trkpt><trkpt lat="62.594683" lon="9.233239"><ele>1028</ele></trkpt><trkpt lat="62.594415" lon="9.233292"><ele>1014</ele></trkpt><trkpt lat="62.594212" lon="9.232745"><ele>1010</ele></trkpt><trkpt lat="62.594099" lon="9.232181"><ele>1005</ele></trkpt><trkpt lat="62.593807" lon="9.231652"><ele>1001</ele></trkpt><trkpt lat="62.593531" lon="9.231511"><ele>992</ele></trkpt><trkpt lat="62.593263" lon="9.231563"><ele>978</ele></trkpt><trkpt lat="62.592995" lon="9.231615"><ele>963</ele></trkpt><trkpt lat="62.592727" lon="9.231667"><ele>953</ele></trkpt><trkpt lat="62.592459" lon="9.231719"><ele>938</ele></trkpt><trkpt lat="62.592191" lon="9.231771"><ele>924</ele></trkpt><trkpt lat="62.591923" lon="9.231823"><ele>909</ele></trkpt><trkpt lat="62.591656" lon="9.231875"><ele>896</ele></trkpt><trkpt lat="62.591388" lon="9.231927"><ele>884</ele></trkpt><trkpt lat="62.591120" lon="9.231980"><ele>869</ele></trkpt><trkpt lat="62.590852" lon="9.232032"><ele>852</ele></trkpt><trkpt lat="62.590584" lon="9.232084"><ele>836</ele></trkpt><trkpt lat="62.590316" lon="9.232136"><ele>822</ele></trkpt><trkpt lat="62.590048" lon="9.232188"><ele>810</ele></trkpt><trkpt lat="62.589780" lon="9.232240"><ele>798</ele></trkpt><trkpt lat="62.589512" lon="9.232292"><ele>787</ele></trkpt><trkpt lat="62.589244" lon="9.232344"><ele>774</ele></trkpt><trkpt lat="62.588976" lon="9.232396"><ele>763</ele></trkpt><trkpt lat="62.588709" lon="9.232449"><ele>750</ele></trkpt><trkpt lat="62.588441" lon="9.232501"><ele>737</ele></trkpt><trkpt lat="62.588165" lon="9.232359"><ele>722</ele></trkpt><trkpt lat="62.587873" lon="9.231830"><ele>703</ele></trkpt><trkpt lat="62.587759" lon="9.231266"><ele>691</ele></trkpt><trkpt lat="62.587476" lon="9.230931"><ele>685</ele></trkpt><trkpt lat="62.587208" lon="9.230983"><ele>676</ele></trkpt><trkpt lat="62.586940" lon="9.231035"><ele>664</ele></trkpt><trkpt lat="62.586664" lon="9.230894"><ele>652</ele></trkpt><trkpt lat="62.586396" lon="9.230946"><ele>642</ele></trkpt><trkpt lat="62.586120" lon="9.230804"><ele>630</ele></trkpt><trkpt lat="62.585844" lon="9.230663"><ele>618</ele></trkpt><trkpt lat="62.585568" lon="9.230521"><ele>603</ele></trkpt><trkpt lat="62.585568" lon="9.230521"><ele>603</ele></trkpt></trkseg></trk></gpx>