<?xml version="1.0" encoding="UTF-8"?>
<gpx version="1.1" creator="Rando toppturs" xmlns="http://www.topografix.com/GPX/1/1"><metadata><name>004 Gammalsæterhøa 1449 m</name><desc>This is an automatically generated list. I have not checked them all. Do not attempt these if you're a beginner. Generated 2026-09-13 17:42 from Kartverket 10 m terrain. Ascent lines are least-cost terrain paths under 35°, not verified routes. Not a snow-stability assessment.</desc></metadata><wpt lat="62.472253" lon="9.515972"><ele>695</ele><name>Car · Gammalsæterhøa 1449 m</name></wpt><wpt lat="62.483872" lon="9.432327"><ele>1449</ele><name>Gammalsæterhøa 1449 m</name></wpt><trk><name>Up · Gammalsæterhøa 1449 m</name><desc>least-cost ascent: +777 m over 5065 m, max 35°, 0.2% on 30–35°, ≈3.21 h at 4 km/h + 400 m/h. Terrain possibility, not a checked route.</desc><trkseg><trkpt lat="62.472253" lon="9.515972"><ele>695</ele></trkpt><trkpt lat="62.472215" lon="9.515006"><ele>695</ele></trkpt><trkpt lat="62.472355" lon="9.514008"><ele>698</ele></trkpt><trkpt lat="62.472317" lon="9.513043"><ele>698</ele></trkpt><trkpt lat="62.472368" lon="9.512062"><ele>702</ele></trkpt><trkpt lat="62.472509" lon="9.511063"><ele>713</ele></trkpt><trkpt lat="62.472828" lon="9.510032"><ele>729</ele></trkpt><trkpt lat="62.472790" lon="9.509067"><ele>734</ele></trkpt><trkpt lat="62.473020" lon="9.508053"><ele>747</ele></trkpt><trkpt lat="62.472982" lon="9.507087"><ele>761</ele></trkpt><trkpt lat="62.473220" lon="9.506266"><ele>766</ele></trkpt><trkpt lat="62.473644" lon="9.505604"><ele>798</ele></trkpt><trkpt lat="62.474067" lon="9.504943"><ele>818</ele></trkpt><trkpt lat="62.474491" lon="9.504281"><ele>839</ele></trkpt><trkpt lat="62.474915" lon="9.503620"><ele>860</ele></trkpt><trkpt lat="62.475234" lon="9.502589"><ele>869</ele></trkpt><trkpt lat="62.475464" lon="9.501574"><ele>895</ele></trkpt><trkpt lat="62.475784" lon="9.500543"><ele>920</ele></trkpt><trkpt lat="62.475835" lon="9.499561"><ele>929</ele></trkpt><trkpt lat="62.475886" lon="9.498579"><ele>937</ele></trkpt><trkpt lat="62.475848" lon="9.497614"><ele>937</ele></trkpt><trkpt lat="62.475631" lon="9.496681"><ele>929</ele></trkpt><trkpt lat="62.475682" lon="9.495700"><ele>939</ele></trkpt><trkpt lat="62.475912" lon="9.494685"><ele>962</ele></trkpt><trkpt lat="62.475874" lon="9.493720"><ele>970</ele></trkpt><trkpt lat="62.475925" lon="9.492738"><ele>980</ele></trkpt><trkpt lat="62.475887" lon="9.491772"><ele>983</ele></trkpt><trkpt lat="62.476117" lon="9.490758"><ele>1002</ele></trkpt><trkpt lat="62.476168" lon="9.489776"><ele>1010</ele></trkpt><trkpt lat="62.476487" lon="9.488744"><ele>1030</ele></trkpt><trkpt lat="62.476895" lon="9.487696"><ele>1066</ele></trkpt><trkpt lat="62.477304" lon="9.486649"><ele>1103</ele></trkpt><trkpt lat="62.477712" lon="9.485601"><ele>1141</ele></trkpt><trkpt lat="62.478121" lon="9.484553"><ele>1177</ele></trkpt><trkpt lat="62.478440" lon="9.483521"><ele>1208</ele></trkpt><trkpt lat="62.478491" lon="9.482539"><ele>1226</ele></trkpt><trkpt lat="62.478453" lon="9.481574"><ele>1233</ele></trkpt><trkpt lat="62.478504" lon="9.480592"><ele>1233</ele></trkpt><trkpt lat="62.478466" lon="9.479627"><ele>1242</ele></trkpt><trkpt lat="62.478427" lon="9.478661"><ele>1246</ele></trkpt><trkpt lat="62.478389" lon="9.477696"><ele>1249</ele></trkpt><trkpt lat="62.478351" lon="9.476730"><ele>1251</ele></trkpt><trkpt lat="62.478312" lon="9.475765"><ele>1254</ele></trkpt><trkpt lat="62.478274" lon="9.474800"><ele>1257</ele></trkpt><trkpt lat="62.478236" lon="9.473834"><ele>1261</ele></trkpt><trkpt lat="62.478197" lon="9.472869"><ele>1265</ele></trkpt><trkpt lat="62.478159" lon="9.471904"><ele>1269</ele></trkpt><trkpt lat="62.478121" lon="9.470938"><ele>1274</ele></trkpt><trkpt lat="62.478082" lon="9.469973"><ele>1277</ele></trkpt><trkpt lat="62.478044" lon="9.469008"><ele>1279</ele></trkpt><trkpt lat="62.478006" lon="9.468042"><ele>1278</ele></trkpt><trkpt lat="62.477967" lon="9.467077"><ele>1279</ele></trkpt><trkpt lat="62.477929" lon="9.466112"><ele>1277</ele></trkpt><trkpt lat="62.477890" lon="9.465147"><ele>1278</ele></trkpt><trkpt lat="62.477852" lon="9.464181"><ele>1283</ele></trkpt><trkpt lat="62.477814" lon="9.463216"><ele>1284</ele></trkpt><trkpt lat="62.477775" lon="9.462251"><ele>1290</ele></trkpt><trkpt lat="62.477737" lon="9.461285"><ele>1293</ele></trkpt><trkpt lat="62.477698" lon="9.460320"><ele>1297</ele></trkpt><trkpt lat="62.477660" lon="9.459355"><ele>1298</ele></trkpt><trkpt lat="62.477622" lon="9.458389"><ele>1299</ele></trkpt><trkpt lat="62.477583" lon="9.457424"><ele>1302</ele></trkpt><trkpt lat="62.477545" lon="9.456459"><ele>1303</ele></trkpt><trkpt lat="62.477506" lon="9.455494"><ele>1305</ele></trkpt><trkpt lat="62.477468" lon="9.454528"><ele>1308</ele></trkpt><trkpt lat="62.477429" lon="9.453563"><ele>1309</ele></trkpt><trkpt lat="62.477391" lon="9.452598"><ele>1309</ele></trkpt><trkpt lat="62.477352" lon="9.451632"><ele>1309</ele></trkpt><trkpt lat="62.477314" lon="9.450667"><ele>1313</ele></trkpt><trkpt lat="62.477275" lon="9.449702"><ele>1320</ele></trkpt><trkpt lat="62.477505" lon="9.448687"><ele>1328</ele></trkpt><trkpt lat="62.477913" lon="9.447638"><ele>1335</ele></trkpt><trkpt lat="62.478321" lon="9.446590"><ele>1346</ele></trkpt><trkpt lat="62.478729" lon="9.445541"><ele>1361</ele></trkpt><trkpt lat="62.479138" lon="9.444493"><ele>1367</ele></trkpt><trkpt lat="62.479546" lon="9.443444"><ele>1374</ele></trkpt><trkpt lat="62.479954" lon="9.442395"><ele>1382</ele></trkpt><trkpt lat="62.480362" lon="9.441347"><ele>1395</ele></trkpt><trkpt lat="62.480770" lon="9.440298"><ele>1406</ele></trkpt><trkpt lat="62.481178" lon="9.439249"><ele>1412</ele></trkpt><trkpt lat="62.481586" lon="9.438200"><ele>1420</ele></trkpt><trkpt lat="62.481995" lon="9.437152"><ele>1428</ele></trkpt><trkpt lat="62.482403" lon="9.436103"><ele>1435</ele></trkpt><trkpt lat="62.482811" lon="9.435054"><ele>1439</ele></trkpt><trkpt lat="62.483219" lon="9.434005"><ele>1444</ele></trkpt><trkpt lat="62.483627" lon="9.432956"><ele>1447</ele></trkpt><trkpt lat="62.483872" lon="9.432327"><ele>1449</ele></trkpt></trkseg></trk><wpt lat="62.465293" lon="9.449405"><ele>737</ele><name>Run end · Gammalsæterhøa 1449 m</name></wpt><trk><name>Down · Gammalsæterhøa 1449 m</name><desc>fall-line run: 1230 m of 20–30°, 604 m drop, aspect 160°, max 30°, 0.0% ≥30°; ends 3.52 km from the car.</desc><trkseg><trkpt lat="62.483872" lon="9.432327"><ele>1449</ele></trkpt><trkpt lat="62.476934" lon="9.434401"><ele>1341</ele></trkpt><trkpt lat="62.476659" lon="9.434258"><ele>1327</ele></trkpt><trkpt lat="62.476367" lon="9.433729"><ele>1309</ele></trkpt><trkpt lat="62.476076" lon="9.433200"><ele>1288</ele></trkpt><trkpt lat="62.475793" lon="9.432864"><ele>1272</ele></trkpt><trkpt lat="62.475525" lon="9.432914"><ele>1261</ele></trkpt><trkpt lat="62.475257" lon="9.432964"><ele>1247</ele></trkpt><trkpt lat="62.474981" lon="9.432821"><ele>1233</ele></trkpt><trkpt lat="62.474713" lon="9.432871"><ele>1220</ele></trkpt><trkpt lat="62.474445" lon="9.432921"><ele>1207</ele></trkpt><trkpt lat="62.474177" lon="9.432971"><ele>1194</ele></trkpt><trkpt lat="62.473909" lon="9.433021"><ele>1180</ele></trkpt><trkpt lat="62.473641" lon="9.433071"><ele>1166</ele></trkpt><trkpt lat="62.473373" lon="9.433121"><ele>1154</ele></trkpt><trkpt lat="62.473105" lon="9.433171"><ele>1141</ele></trkpt><trkpt lat="62.472837" lon="9.433221"><ele>1129</ele></trkpt><trkpt lat="62.472569" lon="9.433271"><ele>1117</ele></trkpt><trkpt lat="62.472301" lon="9.433321"><ele>1104</ele></trkpt><trkpt lat="62.472033" lon="9.433371"><ele>1092</ele></trkpt><trkpt lat="62.471765" lon="9.433421"><ele>1082</ele></trkpt><trkpt lat="62.471497" lon="9.433472"><ele>1069</ele></trkpt><trkpt lat="62.471229" lon="9.433522"><ele>1056</ele></trkpt><trkpt lat="62.470961" lon="9.433572"><ele>1045</ele></trkpt><trkpt lat="62.470693" lon="9.433622"><ele>1034</ele></trkpt><trkpt lat="62.470425" lon="9.433672"><ele>1023</ele></trkpt><trkpt lat="62.470157" lon="9.433722"><ele>1013</ele></trkpt><trkpt lat="62.469889" lon="9.433772"><ele>1003</ele></trkpt><trkpt lat="62.469621" lon="9.433822"><ele>991</ele></trkpt><trkpt lat="62.469353" lon="9.433872"><ele>980</ele></trkpt><trkpt lat="62.469085" lon="9.433922"><ele>968</ele></trkpt><trkpt lat="62.468817" lon="9.433972"><ele>953</ele></trkpt><trkpt lat="62.468549" lon="9.434022"><ele>939</ele></trkpt><trkpt lat="62.468281" lon="9.434072"><ele>927</ele></trkpt><trkpt lat="62.468013" lon="9.434122"><ele>914</ele></trkpt><trkpt lat="62.467745" lon="9.434172"><ele>900</ele></trkpt><trkpt lat="62.467477" lon="9.434222"><ele>888</ele></trkpt><trkpt lat="62.467209" lon="9.434272"><ele>876</ele></trkpt><trkpt lat="62.466949" lon="9.434515"><ele>864</ele></trkpt><trkpt lat="62.466681" lon="9.434565"><ele>856</ele></trkpt><trkpt lat="62.466428" lon="9.435001"><ele>850</ele></trkpt><trkpt lat="62.466362" lon="9.435597"><ele>845</ele></trkpt><trkpt lat="62.466564" lon="9.436142"><ele>842</ele></trkpt><trkpt lat="62.466497" lon="9.436738"><ele>837</ele></trkpt><trkpt lat="62.466334" lon="9.437157"><ele>832</ele></trkpt><trkpt lat="62.466089" lon="9.437786"><ele>823</ele></trkpt><trkpt lat="62.466112" lon="9.438365"><ele>820</ele></trkpt><trkpt lat="62.466046" lon="9.438961"><ele>815</ele></trkpt><trkpt lat="62.465980" lon="9.439556"><ele>811</ele></trkpt><trkpt lat="62.465914" lon="9.440152"><ele>807</ele></trkpt><trkpt lat="62.465669" lon="9.440781"><ele>800</ele></trkpt><trkpt lat="62.465424" lon="9.441410"><ele>795</ele></trkpt><trkpt lat="62.465358" lon="9.442005"><ele>792</ele></trkpt><trkpt lat="62.465381" lon="9.442584"><ele>789</ele></trkpt><trkpt lat="62.465315" lon="9.443180"><ele>782</ele></trkpt><trkpt lat="62.465159" lon="9.443792"><ele>773</ele></trkpt><trkpt lat="62.465004" lon="9.444404"><ele>769</ele></trkpt><trkpt lat="62.465027" lon="9.444983"><ele>767</ele></trkpt><trkpt lat="62.465050" lon="9.445562"><ele>764</ele></trkpt><trkpt lat="62.465073" lon="9.446141"><ele>761</ele></trkpt><trkpt lat="62.465096" lon="9.446720"><ele>758</ele></trkpt><trkpt lat="62.465119" lon="9.447299"><ele>753</ele></trkpt><trkpt lat="62.464964" lon="9.447911"><ele>751</ele></trkpt><trkpt lat="62.465076" lon="9.448473"><ele>748</ele></trkpt><trkpt lat="62.465278" lon="9.449019"><ele>744</ele></trkpt><trkpt lat="62.465293" lon="9.449405"><ele>737</ele></trkpt></trkseg></trk></gpx>