<?xml version="1.0" encoding="UTF-8"?>
<gpx version="1.1" creator="Rando toppturs" xmlns="http://www.topografix.com/GPX/1/1"><metadata><name>008 Hornet 1383 m</name><desc>This is an automatically generated list. I have not checked them all. Do not attempt these if you're a beginner. Generated 2026-09-13 17:42 from Kartverket 10 m terrain. Ascent lines are least-cost terrain paths under 35°, not verified routes. Not a snow-stability assessment.</desc></metadata><wpt lat="62.534351" lon="9.592006"><ele>640</ele><name>Car · Hornet 1383 m</name></wpt><wpt lat="62.553703" lon="9.552805"><ele>1383</ele><name>Hornet 1383 m</name></wpt><trk><name>Up · Hornet 1383 m</name><desc>least-cost ascent: +742 m over 3192 m, max 28°, 0.0% on 30–35°, ≈2.65 h at 4 km/h + 400 m/h. Terrain possibility, not a checked route.</desc><trkseg><trkpt lat="62.534351" lon="9.592006"><ele>640</ele></trkpt><trkpt lat="62.534760" lon="9.590957"><ele>663</ele></trkpt><trkpt lat="62.535170" lon="9.589909"><ele>693</ele></trkpt><trkpt lat="62.535579" lon="9.588860"><ele>714</ele></trkpt><trkpt lat="62.535809" lon="9.587844"><ele>735</ele></trkpt><trkpt lat="62.536219" lon="9.586795"><ele>757</ele></trkpt><trkpt lat="62.536628" lon="9.585746"><ele>783</ele></trkpt><trkpt lat="62.537045" lon="9.584891"><ele>805</ele></trkpt><trkpt lat="62.537454" lon="9.583842"><ele>824</ele></trkpt><trkpt lat="62.537863" lon="9.582793"><ele>844</ele></trkpt><trkpt lat="62.538272" lon="9.581745"><ele>870</ele></trkpt><trkpt lat="62.538681" lon="9.580696"><ele>896</ele></trkpt><trkpt lat="62.539090" lon="9.579647"><ele>919</ele></trkpt><trkpt lat="62.539522" lon="9.579178"><ele>938</ele></trkpt><trkpt lat="62.539954" lon="9.578710"><ele>955</ele></trkpt><trkpt lat="62.540363" lon="9.577661"><ele>972</ele></trkpt><trkpt lat="62.540772" lon="9.576612"><ele>989</ele></trkpt><trkpt lat="62.541181" lon="9.575563"><ele>1012</ele></trkpt><trkpt lat="62.541621" lon="9.575288"><ele>1029</ele></trkpt><trkpt lat="62.542060" lon="9.575013"><ele>1044</ele></trkpt><trkpt lat="62.542469" lon="9.573964"><ele>1058</ele></trkpt><trkpt lat="62.542878" lon="9.572914"><ele>1065</ele></trkpt><trkpt lat="62.543287" lon="9.571865"><ele>1077</ele></trkpt><trkpt lat="62.543696" lon="9.570816"><ele>1089</ele></trkpt><trkpt lat="62.544105" lon="9.569767"><ele>1101</ele></trkpt><trkpt lat="62.544515" lon="9.568718"><ele>1117</ele></trkpt><trkpt lat="62.544924" lon="9.567668"><ele>1130</ele></trkpt><trkpt lat="62.545333" lon="9.566619"><ele>1145</ele></trkpt><trkpt lat="62.545742" lon="9.565570"><ele>1161</ele></trkpt><trkpt lat="62.546151" lon="9.564520"><ele>1176</ele></trkpt><trkpt lat="62.546560" lon="9.563471"><ele>1196</ele></trkpt><trkpt lat="62.546969" lon="9.562421"><ele>1217</ele></trkpt><trkpt lat="62.547393" lon="9.561759"><ele>1235</ele></trkpt><trkpt lat="62.547840" lon="9.561677"><ele>1247</ele></trkpt><trkpt lat="62.548287" lon="9.561595"><ele>1256</ele></trkpt><trkpt lat="62.548733" lon="9.561514"><ele>1265</ele></trkpt><trkpt lat="62.549157" lon="9.560851"><ele>1284</ele></trkpt><trkpt lat="62.549604" lon="9.560769"><ele>1289</ele></trkpt><trkpt lat="62.550051" lon="9.560688"><ele>1292</ele></trkpt><trkpt lat="62.550498" lon="9.560606"><ele>1295</ele></trkpt><trkpt lat="62.550922" lon="9.559943"><ele>1301</ele></trkpt><trkpt lat="62.551331" lon="9.558894"><ele>1310</ele></trkpt><trkpt lat="62.551740" lon="9.557844"><ele>1320</ele></trkpt><trkpt lat="62.552149" lon="9.556794"><ele>1333</ele></trkpt><trkpt lat="62.552558" lon="9.555745"><ele>1349</ele></trkpt><trkpt lat="62.552967" lon="9.554695"><ele>1366</ele></trkpt><trkpt lat="62.553376" lon="9.553645"><ele>1378</ele></trkpt><trkpt lat="62.553703" lon="9.552805"><ele>1383</ele></trkpt></trkseg></trk><wpt lat="62.564392" lon="9.573079"><ele>780</ele><name>Run end · Hornet 1383 m</name></wpt><trk><name>Down · Hornet 1383 m</name><desc>fall-line run: 1100 m of 20–30°, 574 m drop, aspect 44°, max 31°, 0.9% ≥30°; ends 3.49 km from the car.</desc><trkseg><trkpt lat="62.553703" lon="9.552805"><ele>1383</ele></trkpt><trkpt lat="62.554412" lon="9.554820"><ele>1354</ele></trkpt><trkpt lat="62.554434" lon="9.555401"><ele>1342</ele></trkpt><trkpt lat="62.554546" lon="9.555965"><ele>1333</ele></trkpt><trkpt lat="62.554837" lon="9.556497"><ele>1326</ele></trkpt><trkpt lat="62.555128" lon="9.557029"><ele>1317</ele></trkpt><trkpt lat="62.555419" lon="9.557560"><ele>1304</ele></trkpt><trkpt lat="62.555709" lon="9.558092"><ele>1291</ele></trkpt><trkpt lat="62.556000" lon="9.558624"><ele>1274</ele></trkpt><trkpt lat="62.556291" lon="9.559155"><ele>1259</ele></trkpt><trkpt lat="62.556581" lon="9.559687"><ele>1241</ele></trkpt><trkpt lat="62.556872" lon="9.560219"><ele>1221</ele></trkpt><trkpt lat="62.557163" lon="9.560751"><ele>1201</ele></trkpt><trkpt lat="62.557454" lon="9.561282"><ele>1181</ele></trkpt><trkpt lat="62.557655" lon="9.561830"><ele>1161</ele></trkpt><trkpt lat="62.557946" lon="9.562362"><ele>1141</ele></trkpt><trkpt lat="62.558236" lon="9.562894"><ele>1121</ele></trkpt><trkpt lat="62.558527" lon="9.563426"><ele>1107</ele></trkpt><trkpt lat="62.558818" lon="9.563957"><ele>1088</ele></trkpt><trkpt lat="62.559108" lon="9.564489"><ele>1072</ele></trkpt><trkpt lat="62.559399" lon="9.565021"><ele>1057</ele></trkpt><trkpt lat="62.559690" lon="9.565553"><ele>1044</ele></trkpt><trkpt lat="62.559981" lon="9.566085"><ele>1025</ele></trkpt><trkpt lat="62.560271" lon="9.566617"><ele>1004</ele></trkpt><trkpt lat="62.560562" lon="9.567148"><ele>985</ele></trkpt><trkpt lat="62.560853" lon="9.567680"><ele>966</ele></trkpt><trkpt lat="62.561136" lon="9.568019"><ele>948</ele></trkpt><trkpt lat="62.561419" lon="9.568357"><ele>932</ele></trkpt><trkpt lat="62.561702" lon="9.568695"><ele>917</ele></trkpt><trkpt lat="62.561993" lon="9.569227"><ele>901</ele></trkpt><trkpt lat="62.562283" lon="9.569759"><ele>882</ele></trkpt><trkpt lat="62.562574" lon="9.570291"><ele>868</ele></trkpt><trkpt lat="62.562865" lon="9.570823"><ele>856</ele></trkpt><trkpt lat="62.563155" lon="9.571355"><ele>840</ele></trkpt><trkpt lat="62.563439" lon="9.571693"><ele>828</ele></trkpt><trkpt lat="62.563729" lon="9.572225"><ele>810</ele></trkpt><trkpt lat="62.564020" lon="9.572757"><ele>797</ele></trkpt><trkpt lat="62.564296" lon="9.572902"><ele>785</ele></trkpt><trkpt lat="62.564392" lon="9.573079"><ele>780</ele></trkpt></trkseg></trk></gpx>