<?xml version="1.0" encoding="UTF-8"?>
<gpx version="1.1" creator="Rando toppturs" xmlns="http://www.topografix.com/GPX/1/1"><metadata><name>009 Nonsfjellet 1412 m</name><desc>This is an automatically generated list. I have not checked them all. Do not attempt these if you're a beginner. Generated 2026-09-13 17:42 from Kartverket 10 m terrain. Ascent lines are least-cost terrain paths under 35°, not verified routes. Not a snow-stability assessment.</desc></metadata><wpt lat="62.683147" lon="9.389712"><ele>721</ele><name>Car · Nonsfjellet 1412 m</name></wpt><wpt lat="62.664329" lon="9.340435"><ele>1412</ele><name>Nonsfjellet 1412 m</name></wpt><trk><name>Up · Nonsfjellet 1412 m</name><desc>least-cost ascent: +691 m over 3590 m, max 27°, 0.0% on 30–35°, ≈2.62 h at 4 km/h + 400 m/h. Terrain possibility, not a checked route.</desc><trkseg><trkpt lat="62.683147" lon="9.389712"><ele>721</ele></trkpt><trkpt lat="62.682929" lon="9.388774"><ele>729</ele></trkpt><trkpt lat="62.682533" lon="9.387870"><ele>739</ele></trkpt><trkpt lat="62.682047" lon="9.386983"><ele>750</ele></trkpt><trkpt lat="62.681562" lon="9.386096"><ele>761</ele></trkpt><trkpt lat="62.681076" lon="9.385209"><ele>774</ele></trkpt><trkpt lat="62.680590" lon="9.384322"><ele>786</ele></trkpt><trkpt lat="62.680105" lon="9.383435"><ele>798</ele></trkpt><trkpt lat="62.679619" lon="9.382548"><ele>808</ele></trkpt><trkpt lat="62.679312" lon="9.381628"><ele>827</ele></trkpt><trkpt lat="62.679184" lon="9.380673"><ele>843</ele></trkpt><trkpt lat="62.679145" lon="9.379701"><ele>855</ele></trkpt><trkpt lat="62.679016" lon="9.378746"><ele>871</ele></trkpt><trkpt lat="62.678977" lon="9.377775"><ele>885</ele></trkpt><trkpt lat="62.678760" lon="9.376837"><ele>903</ele></trkpt><trkpt lat="62.678631" lon="9.375882"><ele>917</ele></trkpt><trkpt lat="62.678592" lon="9.374911"><ele>930</ele></trkpt><trkpt lat="62.678553" lon="9.373939"><ele>946</ele></trkpt><trkpt lat="62.678514" lon="9.372967"><ele>958</ele></trkpt><trkpt lat="62.678118" lon="9.372064"><ele>982</ele></trkpt><trkpt lat="62.677989" lon="9.371109"><ele>997</ele></trkpt><trkpt lat="62.677682" lon="9.370188"><ele>1014</ele></trkpt><trkpt lat="62.677643" lon="9.369217"><ele>1025</ele></trkpt><trkpt lat="62.677604" lon="9.368245"><ele>1037</ele></trkpt><trkpt lat="62.677565" lon="9.367273"><ele>1049</ele></trkpt><trkpt lat="62.677525" lon="9.366302"><ele>1059</ele></trkpt><trkpt lat="62.677397" lon="9.365347"><ele>1070</ele></trkpt><trkpt lat="62.677358" lon="9.364376"><ele>1079</ele></trkpt><trkpt lat="62.677319" lon="9.363404"><ele>1092</ele></trkpt><trkpt lat="62.676922" lon="9.362500"><ele>1105</ele></trkpt><trkpt lat="62.676436" lon="9.361614"><ele>1122</ele></trkpt><trkpt lat="62.675951" lon="9.360728"><ele>1132</ele></trkpt><trkpt lat="62.675465" lon="9.359841"><ele>1145</ele></trkpt><trkpt lat="62.674979" lon="9.358955"><ele>1155</ele></trkpt><trkpt lat="62.674493" lon="9.358069"><ele>1165</ele></trkpt><trkpt lat="62.674007" lon="9.357183"><ele>1176</ele></trkpt><trkpt lat="62.673522" lon="9.356296"><ele>1193</ele></trkpt><trkpt lat="62.673036" lon="9.355410"><ele>1212</ele></trkpt><trkpt lat="62.672639" lon="9.354507"><ele>1233</ele></trkpt><trkpt lat="62.672153" lon="9.353621"><ele>1248</ele></trkpt><trkpt lat="62.671668" lon="9.352735"><ele>1254</ele></trkpt><trkpt lat="62.671182" lon="9.351849"><ele>1259</ele></trkpt><trkpt lat="62.670696" lon="9.350962"><ele>1265</ele></trkpt><trkpt lat="62.670210" lon="9.350076"><ele>1278</ele></trkpt><trkpt lat="62.669724" lon="9.349190"><ele>1288</ele></trkpt><trkpt lat="62.669238" lon="9.348305"><ele>1301</ele></trkpt><trkpt lat="62.668753" lon="9.347419"><ele>1315</ele></trkpt><trkpt lat="62.668290" lon="9.347115"><ele>1334</ele></trkpt><trkpt lat="62.667828" lon="9.346812"><ele>1345</ele></trkpt><trkpt lat="62.667342" lon="9.345926"><ele>1347</ele></trkpt><trkpt lat="62.666856" lon="9.345041"><ele>1351</ele></trkpt><trkpt lat="62.666370" lon="9.344155"><ele>1354</ele></trkpt><trkpt lat="62.665884" lon="9.343269"><ele>1366</ele></trkpt><trkpt lat="62.665398" lon="9.342383"><ele>1380</ele></trkpt><trkpt lat="62.664913" lon="9.341498"><ele>1396</ele></trkpt><trkpt lat="62.664427" lon="9.340612"><ele>1411</ele></trkpt><trkpt lat="62.664329" lon="9.340435"><ele>1412</ele></trkpt></trkseg></trk><wpt lat="62.664953" lon="9.291574"><ele>819</ele><name>Run end · Nonsfjellet 1412 m</name></wpt><trk><name>Down · Nonsfjellet 1412 m</name><desc>fall-line run: 1086 m of 20–30°, 522 m drop, aspect 275°, max 31°, 0.6% ≥30°; ends 5.43 km from the car.</desc><trkseg><trkpt lat="62.664329" lon="9.340435"><ele>1412</ele></trkpt><trkpt lat="62.663618" lon="9.325108"><ele>1341</ele></trkpt><trkpt lat="62.663862" lon="9.324474"><ele>1325</ele></trkpt><trkpt lat="62.663839" lon="9.323891"><ele>1320</ele></trkpt><trkpt lat="62.663815" lon="9.323308"><ele>1314</ele></trkpt><trkpt lat="62.663791" lon="9.322726"><ele>1309</ele></trkpt><trkpt lat="62.663768" lon="9.322143"><ele>1303</ele></trkpt><trkpt lat="62.664012" lon="9.321509"><ele>1294</ele></trkpt><trkpt lat="62.664256" lon="9.320875"><ele>1281</ele></trkpt><trkpt lat="62.664501" lon="9.320241"><ele>1263</ele></trkpt><trkpt lat="62.664769" lon="9.320189"><ele>1248</ele></trkpt><trkpt lat="62.665029" lon="9.319943"><ele>1232</ele></trkpt><trkpt lat="62.665281" lon="9.319503"><ele>1214</ele></trkpt><trkpt lat="62.665533" lon="9.319063"><ele>1203</ele></trkpt><trkpt lat="62.665777" lon="9.318429"><ele>1192</ele></trkpt><trkpt lat="62.666021" lon="9.317795"><ele>1178</ele></trkpt><trkpt lat="62.666266" lon="9.317161"><ele>1163</ele></trkpt><trkpt lat="62.666510" lon="9.316527"><ele>1154</ele></trkpt><trkpt lat="62.666754" lon="9.315892"><ele>1145</ele></trkpt><trkpt lat="62.666999" lon="9.315258"><ele>1137</ele></trkpt><trkpt lat="62.667243" lon="9.314624"><ele>1124</ele></trkpt><trkpt lat="62.667487" lon="9.313990"><ele>1112</ele></trkpt><trkpt lat="62.667553" lon="9.313390"><ele>1104</ele></trkpt><trkpt lat="62.667529" lon="9.312807"><ele>1096</ele></trkpt><trkpt lat="62.667416" lon="9.312241"><ele>1089</ele></trkpt><trkpt lat="62.667392" lon="9.311659"><ele>1079</ele></trkpt><trkpt lat="62.667279" lon="9.311093"><ele>1071</ele></trkpt><trkpt lat="62.667255" lon="9.310510"><ele>1064</ele></trkpt><trkpt lat="62.667232" lon="9.309928"><ele>1058</ele></trkpt><trkpt lat="62.667119" lon="9.309362"><ele>1051</ele></trkpt><trkpt lat="62.667095" lon="9.308779"><ele>1044</ele></trkpt><trkpt lat="62.666982" lon="9.308214"><ele>1036</ele></trkpt><trkpt lat="62.666869" lon="9.307648"><ele>1028</ele></trkpt><trkpt lat="62.666845" lon="9.307066"><ele>1022</ele></trkpt><trkpt lat="62.666732" lon="9.306500"><ele>1015</ele></trkpt><trkpt lat="62.666619" lon="9.305935"><ele>1009</ele></trkpt><trkpt lat="62.666506" lon="9.305369"><ele>1002</ele></trkpt><trkpt lat="62.666482" lon="9.304786"><ele>996</ele></trkpt><trkpt lat="62.666369" lon="9.304221"><ele>989</ele></trkpt><trkpt lat="62.666167" lon="9.303673"><ele>982</ele></trkpt><trkpt lat="62.666054" lon="9.303107"><ele>975</ele></trkpt><trkpt lat="62.665941" lon="9.302542"><ele>969</ele></trkpt><trkpt lat="62.665738" lon="9.301993"><ele>963</ele></trkpt><trkpt lat="62.665625" lon="9.301428"><ele>955</ele></trkpt><trkpt lat="62.665602" lon="9.300845"><ele>948</ele></trkpt><trkpt lat="62.665488" lon="9.300280"><ele>941</ele></trkpt><trkpt lat="62.665375" lon="9.299714"><ele>937</ele></trkpt><trkpt lat="62.665173" lon="9.299166"><ele>930</ele></trkpt><trkpt lat="62.665149" lon="9.298583"><ele>925</ele></trkpt><trkpt lat="62.665126" lon="9.298001"><ele>917</ele></trkpt><trkpt lat="62.665191" lon="9.297401"><ele>909</ele></trkpt><trkpt lat="62.665167" lon="9.296818"><ele>902</ele></trkpt><trkpt lat="62.665233" lon="9.296218"><ele>893</ele></trkpt><trkpt lat="62.665209" lon="9.295635"><ele>885</ele></trkpt><trkpt lat="62.665185" lon="9.295053"><ele>875</ele></trkpt><trkpt lat="62.665161" lon="9.294470"><ele>867</ele></trkpt><trkpt lat="62.665138" lon="9.293887"><ele>858</ele></trkpt><trkpt lat="62.665114" lon="9.293305"><ele>848</ele></trkpt><trkpt lat="62.665090" lon="9.292722"><ele>838</ele></trkpt><trkpt lat="62.665066" lon="9.292139"><ele>827</ele></trkpt><trkpt lat="62.664953" lon="9.291574"><ele>819</ele></trkpt><trkpt lat="62.664953" lon="9.291574"><ele>819</ele></trkpt></trkseg></trk></gpx>