<?xml version="1.0" encoding="UTF-8"?>
<gpx version="1.1" creator="Rando toppturs" xmlns="http://www.topografix.com/GPX/1/1"><metadata><name>010 Langfjellet 1264 m</name><desc>Generated 2026-09-13 17:42 from Kartverket 10 m terrain. Ascent lines are least-cost terrain paths under 35°, not verified routes. Not a snow-stability assessment.</desc></metadata><wpt lat="62.796879" lon="9.578768"><ele>782</ele><name>Car · Langfjellet 1264 m</name></wpt><wpt lat="62.859601" lon="9.422372"><ele>1264</ele><name>Langfjellet 1264 m</name></wpt><trk><name>Up · Langfjellet 1264 m</name><desc>least-cost ascent: +1095 m over 11156 m, max 30°, 0.0% on 30–35°, ≈5.53 h at 4 km/h + 400 m/h. Terrain possibility, not a checked route.</desc><trkseg><trkpt lat="62.796879" lon="9.578768"><ele>782</ele></trkpt><trkpt lat="62.797288" lon="9.577710"><ele>779</ele></trkpt><trkpt lat="62.797698" lon="9.576652"><ele>780</ele></trkpt><trkpt lat="62.798107" lon="9.575593"><ele>783</ele></trkpt><trkpt lat="62.798516" lon="9.574535"><ele>789</ele></trkpt><trkpt lat="62.798925" lon="9.573476"><ele>798</ele></trkpt><trkpt lat="62.799334" lon="9.572418"><ele>808</ele></trkpt><trkpt lat="62.799743" lon="9.571360"><ele>817</ele></trkpt><trkpt lat="62.800152" lon="9.570301"><ele>829</ele></trkpt><trkpt lat="62.800561" lon="9.569242"><ele>838</ele></trkpt><trkpt lat="62.800970" lon="9.568184"><ele>844</ele></trkpt><trkpt lat="62.801379" lon="9.567125"><ele>851</ele></trkpt><trkpt lat="62.801788" lon="9.566067"><ele>862</ele></trkpt><trkpt lat="62.802197" lon="9.565008"><ele>871</ele></trkpt><trkpt lat="62.802605" lon="9.563949"><ele>880</ele></trkpt><trkpt lat="62.803014" lon="9.562891"><ele>890</ele></trkpt><trkpt lat="62.803423" lon="9.561832"><ele>899</ele></trkpt><trkpt lat="62.803832" lon="9.560773"><ele>907</ele></trkpt><trkpt lat="62.804241" lon="9.559714"><ele>917</ele></trkpt><trkpt lat="62.804650" lon="9.558655"><ele>926</ele></trkpt><trkpt lat="62.805059" lon="9.557596"><ele>938</ele></trkpt><trkpt lat="62.805468" lon="9.556538"><ele>941</ele></trkpt><trkpt lat="62.805877" lon="9.555479"><ele>942</ele></trkpt><trkpt lat="62.806286" lon="9.554420"><ele>943</ele></trkpt><trkpt lat="62.806694" lon="9.553361"><ele>943</ele></trkpt><trkpt lat="62.807103" lon="9.552302"><ele>944</ele></trkpt><trkpt lat="62.807512" lon="9.551243"><ele>953</ele></trkpt><trkpt lat="62.807929" lon="9.550379"><ele>966</ele></trkpt><trkpt lat="62.808337" lon="9.549320"><ele>972</ele></trkpt><trkpt lat="62.808746" lon="9.548261"><ele>981</ele></trkpt><trkpt lat="62.809155" lon="9.547201"><ele>983</ele></trkpt><trkpt lat="62.809564" lon="9.546142"><ele>990</ele></trkpt><trkpt lat="62.809973" lon="9.545083"><ele>1004</ele></trkpt><trkpt lat="62.810381" lon="9.544024"><ele>1015</ele></trkpt><trkpt lat="62.810790" lon="9.542964"><ele>1020</ele></trkpt><trkpt lat="62.811207" lon="9.542100"><ele>1023</ele></trkpt><trkpt lat="62.811615" lon="9.541041"><ele>1020</ele></trkpt><trkpt lat="62.812024" lon="9.539982"><ele>1008</ele></trkpt><trkpt lat="62.812433" lon="9.538922"><ele>1006</ele></trkpt><trkpt lat="62.812849" lon="9.538058"><ele>1001</ele></trkpt><trkpt lat="62.813273" lon="9.537389"><ele>1006</ele></trkpt><trkpt lat="62.813690" lon="9.536525"><ele>1005</ele></trkpt><trkpt lat="62.814129" lon="9.536247"><ele>1014</ele></trkpt><trkpt lat="62.814568" lon="9.535968"><ele>1024</ele></trkpt><trkpt lat="62.814977" lon="9.534909"><ele>1030</ele></trkpt><trkpt lat="62.815385" lon="9.533849"><ele>1025</ele></trkpt><trkpt lat="62.815817" lon="9.533376"><ele>1012</ele></trkpt><trkpt lat="62.816233" lon="9.532511"><ele>1000</ele></trkpt><trkpt lat="62.816642" lon="9.531452"><ele>1005</ele></trkpt><trkpt lat="62.817050" lon="9.530392"><ele>1009</ele></trkpt><trkpt lat="62.817459" lon="9.529332"><ele>1006</ele></trkpt><trkpt lat="62.817868" lon="9.528272"><ele>1009</ele></trkpt><trkpt lat="62.818276" lon="9.527213"><ele>1019</ele></trkpt><trkpt lat="62.818685" lon="9.526153"><ele>1026</ele></trkpt><trkpt lat="62.819101" lon="9.525288"><ele>1039</ele></trkpt><trkpt lat="62.819548" lon="9.525205"><ele>1047</ele></trkpt><trkpt lat="62.819964" lon="9.524341"><ele>1050</ele></trkpt><trkpt lat="62.820373" lon="9.523281"><ele>1049</ele></trkpt><trkpt lat="62.820782" lon="9.522221"><ele>1051</ele></trkpt><trkpt lat="62.821190" lon="9.521161"><ele>1056</ele></trkpt><trkpt lat="62.821614" lon="9.520491"><ele>1066</ele></trkpt><trkpt lat="62.822061" lon="9.520408"><ele>1078</ele></trkpt><trkpt lat="62.822469" lon="9.519348"><ele>1084</ele></trkpt><trkpt lat="62.822878" lon="9.518288"><ele>1088</ele></trkpt><trkpt lat="62.823287" lon="9.517228"><ele>1098</ele></trkpt><trkpt lat="62.823695" lon="9.516168"><ele>1103</ele></trkpt><trkpt lat="62.824127" lon="9.515694"><ele>1112</ele></trkpt><trkpt lat="62.824550" lon="9.515024"><ele>1119</ele></trkpt><trkpt lat="62.824959" lon="9.513964"><ele>1125</ele></trkpt><trkpt lat="62.825368" lon="9.512904"><ele>1136</ele></trkpt><trkpt lat="62.825776" lon="9.511844"><ele>1141</ele></trkpt><trkpt lat="62.826185" lon="9.510783"><ele>1138</ele></trkpt><trkpt lat="62.826593" lon="9.509723"><ele>1131</ele></trkpt><trkpt lat="62.827002" lon="9.508663"><ele>1123</ele></trkpt><trkpt lat="62.827410" lon="9.507602"><ele>1116</ele></trkpt><trkpt lat="62.827640" lon="9.506575"><ele>1102</ele></trkpt><trkpt lat="62.827780" lon="9.505565"><ele>1087</ele></trkpt><trkpt lat="62.828010" lon="9.504538"><ele>1063</ele></trkpt><trkpt lat="62.828457" lon="9.504455"><ele>1042</ele></trkpt><trkpt lat="62.828904" lon="9.504371"><ele>1029</ele></trkpt><trkpt lat="62.829327" lon="9.503701"><ele>1014</ele></trkpt><trkpt lat="62.829736" lon="9.502641"><ele>993</ele></trkpt><trkpt lat="62.830152" lon="9.501775"><ele>975</ele></trkpt><trkpt lat="62.830576" lon="9.501106"><ele>960</ele></trkpt><trkpt lat="62.831022" lon="9.501022"><ele>955</ele></trkpt><trkpt lat="62.831431" lon="9.499961"><ele>941</ele></trkpt><trkpt lat="62.831839" lon="9.498901"><ele>929</ele></trkpt><trkpt lat="62.832248" lon="9.497840"><ele>922</ele></trkpt><trkpt lat="62.832656" lon="9.496779"><ele>912</ele></trkpt><trkpt lat="62.833065" lon="9.495719"><ele>903</ele></trkpt><trkpt lat="62.833473" lon="9.494658"><ele>903</ele></trkpt><trkpt lat="62.833881" lon="9.493597"><ele>900</ele></trkpt><trkpt lat="62.834297" lon="9.492732"><ele>893</ele></trkpt><trkpt lat="62.834713" lon="9.491866"><ele>894</ele></trkpt><trkpt lat="62.835122" lon="9.490805"><ele>905</ele></trkpt><trkpt lat="62.835546" lon="9.490135"><ele>907</ele></trkpt><trkpt lat="62.835977" lon="9.489661"><ele>916</ele></trkpt><trkpt lat="62.836401" lon="9.488990"><ele>914</ele></trkpt><trkpt lat="62.836809" lon="9.487929"><ele>915</ele></trkpt><trkpt lat="62.837217" lon="9.486868"><ele>915</ele></trkpt><trkpt lat="62.837626" lon="9.485807"><ele>916</ele></trkpt><trkpt lat="62.838034" lon="9.484746"><ele>927</ele></trkpt><trkpt lat="62.838442" lon="9.483685"><ele>927</ele></trkpt><trkpt lat="62.838851" lon="9.482624"><ele>932</ele></trkpt><trkpt lat="62.839259" lon="9.481563"><ele>937</ele></trkpt><trkpt lat="62.839667" lon="9.480502"><ele>941</ele></trkpt><trkpt lat="62.840075" lon="9.479441"><ele>943</ele></trkpt><trkpt lat="62.840484" lon="9.478379"><ele>938</ele></trkpt><trkpt lat="62.840892" lon="9.477318"><ele>937</ele></trkpt><trkpt lat="62.841300" lon="9.476257"><ele>937</ele></trkpt><trkpt lat="62.841708" lon="9.475195"><ele>930</ele></trkpt><trkpt lat="62.842132" lon="9.474525"><ele>916</ele></trkpt><trkpt lat="62.842548" lon="9.473659"><ele>894</ele></trkpt><trkpt lat="62.842956" lon="9.472598"><ele>871</ele></trkpt><trkpt lat="62.843364" lon="9.471536"><ele>840</ele></trkpt><trkpt lat="62.843773" lon="9.470475"><ele>817</ele></trkpt><trkpt lat="62.844181" lon="9.469413"><ele>799</ele></trkpt><trkpt lat="62.844589" lon="9.468352"><ele>785</ele></trkpt><trkpt lat="62.844997" lon="9.467290"><ele>779</ele></trkpt><trkpt lat="62.845405" lon="9.466228"><ele>773</ele></trkpt><trkpt lat="62.845814" lon="9.465167"><ele>770</ele></trkpt><trkpt lat="62.846222" lon="9.464105"><ele>765</ele></trkpt><trkpt lat="62.846630" lon="9.463044"><ele>762</ele></trkpt><trkpt lat="62.847038" lon="9.461982"><ele>756</ele></trkpt><trkpt lat="62.847357" lon="9.460937"><ele>739</ele></trkpt><trkpt lat="62.847676" lon="9.459892"><ele>717</ele></trkpt><trkpt lat="62.847637" lon="9.458915"><ele>710</ele></trkpt><trkpt lat="62.847777" lon="9.457904"><ele>699</ele></trkpt><trkpt lat="62.848185" lon="9.456842"><ele>695</ele></trkpt><trkpt lat="62.848504" lon="9.455797"><ele>711</ele></trkpt><trkpt lat="62.848912" lon="9.454735"><ele>713</ele></trkpt><trkpt lat="62.849320" lon="9.453673"><ele>719</ele></trkpt><trkpt lat="62.849728" lon="9.452611"><ele>735</ele></trkpt><trkpt lat="62.850136" lon="9.451549"><ele>751</ele></trkpt><trkpt lat="62.850544" lon="9.450487"><ele>771</ele></trkpt><trkpt lat="62.850685" lon="9.449476"><ele>785</ele></trkpt><trkpt lat="62.850646" lon="9.448498"><ele>791</ele></trkpt><trkpt lat="62.851054" lon="9.447436"><ele>806</ele></trkpt><trkpt lat="62.851462" lon="9.446374"><ele>823</ele></trkpt><trkpt lat="62.851602" lon="9.445363"><ele>834</ele></trkpt><trkpt lat="62.851831" lon="9.444334"><ele>848</ele></trkpt><trkpt lat="62.851971" lon="9.443323"><ele>860</ele></trkpt><trkpt lat="62.852022" lon="9.442329"><ele>871</ele></trkpt><trkpt lat="62.852430" lon="9.441266"><ele>892</ele></trkpt><trkpt lat="62.852838" lon="9.440204"><ele>915</ele></trkpt><trkpt lat="62.853246" lon="9.439142"><ele>935</ele></trkpt><trkpt lat="62.853654" lon="9.438080"><ele>955</ele></trkpt><trkpt lat="62.854062" lon="9.437017"><ele>977</ele></trkpt><trkpt lat="62.854470" lon="9.435955"><ele>996</ele></trkpt><trkpt lat="62.854878" lon="9.434893"><ele>1018</ele></trkpt><trkpt lat="62.854839" lon="9.433915"><ele>1034</ele></trkpt><trkpt lat="62.855158" lon="9.432870"><ele>1055</ele></trkpt><trkpt lat="62.855565" lon="9.431807"><ele>1085</ele></trkpt><trkpt lat="62.855973" lon="9.430745"><ele>1114</ele></trkpt><trkpt lat="62.856381" lon="9.429682"><ele>1143</ele></trkpt><trkpt lat="62.856700" lon="9.428637"><ele>1163</ele></trkpt><trkpt lat="62.857115" lon="9.427770"><ele>1190</ele></trkpt><trkpt lat="62.857562" lon="9.427685"><ele>1205</ele></trkpt><trkpt lat="62.857970" lon="9.426622"><ele>1221</ele></trkpt><trkpt lat="62.858378" lon="9.425560"><ele>1237</ele></trkpt><trkpt lat="62.858786" lon="9.424497"><ele>1250</ele></trkpt><trkpt lat="62.859194" lon="9.423434"><ele>1256</ele></trkpt><trkpt lat="62.859601" lon="9.422372"><ele>1264</ele></trkpt><trkpt lat="62.859601" lon="9.422372"><ele>1264</ele></trkpt></trkseg></trk><wpt lat="62.845083" lon="9.423950"><ele>711</ele><name>Run end · Langfjellet 1264 m</name></wpt><trk><name>Down · Langfjellet 1264 m</name><desc>fall-line run: 1046 m of 20–30°, 482 m drop, aspect 167°, max 30°, 0.8% ≥30°; ends 9.55 km from the car.</desc><trkseg><trkpt lat="62.859601" lon="9.422372"><ele>1264</ele></trkpt><trkpt lat="62.855325" lon="9.416684"><ele>1193</ele></trkpt><trkpt lat="62.855057" lon="9.416735"><ele>1176</ele></trkpt><trkpt lat="62.854789" lon="9.416786"><ele>1161</ele></trkpt><trkpt lat="62.854521" lon="9.416837"><ele>1147</ele></trkpt><trkpt lat="62.854253" lon="9.416888"><ele>1134</ele></trkpt><trkpt lat="62.854001" lon="9.417330"><ele>1120</ele></trkpt><trkpt lat="62.853733" lon="9.417381"><ele>1110</ele></trkpt><trkpt lat="62.853480" lon="9.417823"><ele>1096</ele></trkpt><trkpt lat="62.853212" lon="9.417874"><ele>1086</ele></trkpt><trkpt lat="62.852968" lon="9.418512"><ele>1071</ele></trkpt><trkpt lat="62.852723" lon="9.419149"><ele>1056</ele></trkpt><trkpt lat="62.852455" lon="9.419200"><ele>1044</ele></trkpt><trkpt lat="62.852203" lon="9.419642"><ele>1030</ele></trkpt><trkpt lat="62.851935" lon="9.419693"><ele>1020</ele></trkpt><trkpt lat="62.851667" lon="9.419744"><ele>1009</ele></trkpt><trkpt lat="62.851406" lon="9.419991"><ele>996</ele></trkpt><trkpt lat="62.851162" lon="9.420628"><ele>983</ele></trkpt><trkpt lat="62.850917" lon="9.421266"><ele>972</ele></trkpt><trkpt lat="62.850665" lon="9.421708"><ele>962</ele></trkpt><trkpt lat="62.850397" lon="9.421759"><ele>953</ele></trkpt><trkpt lat="62.850129" lon="9.421810"><ele>943</ele></trkpt><trkpt lat="62.849861" lon="9.421861"><ele>935</ele></trkpt><trkpt lat="62.849593" lon="9.421911"><ele>928</ele></trkpt><trkpt lat="62.849325" lon="9.421962"><ele>917</ele></trkpt><trkpt lat="62.849057" lon="9.422013"><ele>906</ele></trkpt><trkpt lat="62.848789" lon="9.422064"><ele>893</ele></trkpt><trkpt lat="62.848521" lon="9.422115"><ele>883</ele></trkpt><trkpt lat="62.848253" lon="9.422166"><ele>869</ele></trkpt><trkpt lat="62.847985" lon="9.422217"><ele>855</ele></trkpt><trkpt lat="62.847717" lon="9.422268"><ele>841</ele></trkpt><trkpt lat="62.847449" lon="9.422319"><ele>828</ele></trkpt><trkpt lat="62.847181" lon="9.422370"><ele>817</ele></trkpt><trkpt lat="62.846913" lon="9.422421"><ele>804</ele></trkpt><trkpt lat="62.846645" lon="9.422472"><ele>791</ele></trkpt><trkpt lat="62.846377" lon="9.422523"><ele>775</ele></trkpt><trkpt lat="62.846109" lon="9.422574"><ele>763</ele></trkpt><trkpt lat="62.845841" lon="9.422625"><ele>753</ele></trkpt><trkpt lat="62.845581" lon="9.422871"><ele>742</ele></trkpt><trkpt lat="62.845328" lon="9.423313"><ele>728</ele></trkpt><trkpt lat="62.845083" lon="9.423950"><ele>711</ele></trkpt><trkpt lat="62.845083" lon="9.423950"><ele>711</ele></trkpt></trkseg></trk></gpx>