<?xml version="1.0" encoding="UTF-8"?>
<gpx version="1.1" creator="Rando toppturs" xmlns="http://www.topografix.com/GPX/1/1"><metadata><name>011 Storsomrungnebba 1799 m</name><desc>This is an automatically generated list. I have not checked them all. Do not attempt these if you're a beginner. Generated 2026-09-13 17:42 from Kartverket 10 m terrain. Ascent lines are least-cost terrain paths under 35°, not verified routes. Not a snow-stability assessment.</desc></metadata><wpt lat="62.701555" lon="8.987710"><ele>758</ele><name>Car · Storsomrungnebba 1799 m</name></wpt><wpt lat="62.666690" lon="8.900022"><ele>1799</ele><name>Storsomrungnebba 1799 m</name></wpt><trk><name>Up · Storsomrungnebba 1799 m</name><desc>least-cost ascent: +1569 m over 11246 m, max 35°, 0.7% on 30–35°, ≈6.73 h at 4 km/h + 400 m/h. Terrain possibility, not a checked route.</desc><trkseg><trkpt lat="62.701555" lon="8.987710"><ele>758</ele></trkpt><trkpt lat="62.701513" lon="8.986739"><ele>756</ele></trkpt><trkpt lat="62.701293" lon="8.985803"><ele>756</ele></trkpt><trkpt lat="62.701162" lon="8.984850"><ele>756</ele></trkpt><trkpt lat="62.700674" lon="8.983969"><ele>756</ele></trkpt><trkpt lat="62.700186" lon="8.983088"><ele>756</ele></trkpt><trkpt lat="62.699698" lon="8.982207"><ele>757</ele></trkpt><trkpt lat="62.699388" lon="8.981290"><ele>773</ele></trkpt><trkpt lat="62.698900" lon="8.980410"><ele>782</ele></trkpt><trkpt lat="62.698501" lon="8.979511"><ele>792</ele></trkpt><trkpt lat="62.698281" lon="8.978576"><ele>802</ele></trkpt><trkpt lat="62.698239" lon="8.977604"><ele>817</ele></trkpt><trkpt lat="62.698197" lon="8.976632"><ele>825</ele></trkpt><trkpt lat="62.698155" lon="8.975661"><ele>833</ele></trkpt><trkpt lat="62.698113" lon="8.974689"><ele>840</ele></trkpt><trkpt lat="62.697804" lon="8.973772"><ele>844</ele></trkpt><trkpt lat="62.697583" lon="8.972837"><ele>853</ele></trkpt><trkpt lat="62.697541" lon="8.971865"><ele>862</ele></trkpt><trkpt lat="62.697410" lon="8.970912"><ele>869</ele></trkpt><trkpt lat="62.697190" lon="8.969977"><ele>875</ele></trkpt><trkpt lat="62.696702" lon="8.969096"><ele>877</ele></trkpt><trkpt lat="62.696213" lon="8.968216"><ele>877</ele></trkpt><trkpt lat="62.696082" lon="8.967263"><ele>875</ele></trkpt><trkpt lat="62.696040" lon="8.966291"><ele>878</ele></trkpt><trkpt lat="62.695998" lon="8.965320"><ele>888</ele></trkpt><trkpt lat="62.695957" lon="8.964348"><ele>894</ele></trkpt><trkpt lat="62.695915" lon="8.963376"><ele>897</ele></trkpt><trkpt lat="62.695873" lon="8.962405"><ele>901</ele></trkpt><trkpt lat="62.695831" lon="8.961433"><ele>910</ele></trkpt><trkpt lat="62.695789" lon="8.960462"><ele>914</ele></trkpt><trkpt lat="62.695747" lon="8.959490"><ele>919</ele></trkpt><trkpt lat="62.695705" lon="8.958519"><ele>921</ele></trkpt><trkpt lat="62.695663" lon="8.957547"><ele>917</ele></trkpt><trkpt lat="62.695621" lon="8.956576"><ele>924</ele></trkpt><trkpt lat="62.695579" lon="8.955604"><ele>937</ele></trkpt><trkpt lat="62.695537" lon="8.954633"><ele>948</ele></trkpt><trkpt lat="62.695495" lon="8.953661"><ele>951</ele></trkpt><trkpt lat="62.695453" lon="8.952690"><ele>957</ele></trkpt><trkpt lat="62.695411" lon="8.951718"><ele>963</ele></trkpt><trkpt lat="62.695190" lon="8.950783"><ele>966</ele></trkpt><trkpt lat="62.694791" lon="8.949885"><ele>967</ele></trkpt><trkpt lat="62.694749" lon="8.948913"><ele>979</ele></trkpt><trkpt lat="62.694707" lon="8.947942"><ele>993</ele></trkpt><trkpt lat="62.694665" lon="8.946970"><ele>1004</ele></trkpt><trkpt lat="62.694177" lon="8.946091"><ele>1028</ele></trkpt><trkpt lat="62.693778" lon="8.945192"><ele>1048</ele></trkpt><trkpt lat="62.693736" lon="8.944221"><ele>1063</ele></trkpt><trkpt lat="62.693694" lon="8.943249"><ele>1065</ele></trkpt><trkpt lat="62.693651" lon="8.942278"><ele>1067</ele></trkpt><trkpt lat="62.693609" lon="8.941307"><ele>1060</ele></trkpt><trkpt lat="62.693567" lon="8.940335"><ele>1060</ele></trkpt><trkpt lat="62.693525" lon="8.939364"><ele>1063</ele></trkpt><trkpt lat="62.693483" lon="8.938392"><ele>1068</ele></trkpt><trkpt lat="62.693173" lon="8.937476"><ele>1068</ele></trkpt><trkpt lat="62.692685" lon="8.936596"><ele>1068</ele></trkpt><trkpt lat="62.692196" lon="8.935716"><ele>1063</ele></trkpt><trkpt lat="62.691708" lon="8.934837"><ele>1059</ele></trkpt><trkpt lat="62.691220" lon="8.933957"><ele>1058</ele></trkpt><trkpt lat="62.690731" lon="8.933077"><ele>1051</ele></trkpt><trkpt lat="62.690243" lon="8.932198"><ele>1049</ele></trkpt><trkpt lat="62.689754" lon="8.931318"><ele>1044</ele></trkpt><trkpt lat="62.689266" lon="8.930439"><ele>1032</ele></trkpt><trkpt lat="62.688867" lon="8.929541"><ele>1013</ele></trkpt><trkpt lat="62.688825" lon="8.928570"><ele>1000</ele></trkpt><trkpt lat="62.688782" lon="8.927598"><ele>996</ele></trkpt><trkpt lat="62.688829" lon="8.926609"><ele>985</ele></trkpt><trkpt lat="62.688787" lon="8.925638"><ele>975</ele></trkpt><trkpt lat="62.688745" lon="8.924666"><ele>963</ele></trkpt><trkpt lat="62.688881" lon="8.923658"><ele>952</ele></trkpt><trkpt lat="62.689196" lon="8.922614"><ele>934</ele></trkpt><trkpt lat="62.689154" lon="8.921642"><ele>917</ele></trkpt><trkpt lat="62.689290" lon="8.920634"><ele>899</ele></trkpt><trkpt lat="62.689427" lon="8.919626"><ele>885</ele></trkpt><trkpt lat="62.689652" lon="8.918600"><ele>868</ele></trkpt><trkpt lat="62.689878" lon="8.917573"><ele>859</ele></trkpt><trkpt lat="62.690282" lon="8.916510"><ele>847</ele></trkpt><trkpt lat="62.690061" lon="8.915576"><ele>822</ele></trkpt><trkpt lat="62.690019" lon="8.914604"><ele>818</ele></trkpt><trkpt lat="62.690065" lon="8.913615"><ele>812</ele></trkpt><trkpt lat="62.690112" lon="8.912625"><ele>802</ele></trkpt><trkpt lat="62.690159" lon="8.911635"><ele>792</ele></trkpt><trkpt lat="62.690117" lon="8.910664"><ele>783</ele></trkpt><trkpt lat="62.690075" lon="8.909693"><ele>772</ele></trkpt><trkpt lat="62.690032" lon="8.908722"><ele>762</ele></trkpt><trkpt lat="62.689990" lon="8.907750"><ele>757</ele></trkpt><trkpt lat="62.689948" lon="8.906779"><ele>754</ele></trkpt><trkpt lat="62.689906" lon="8.905808"><ele>751</ele></trkpt><trkpt lat="62.689863" lon="8.904837"><ele>749</ele></trkpt><trkpt lat="62.689821" lon="8.903865"><ele>747</ele></trkpt><trkpt lat="62.689778" lon="8.902894"><ele>745</ele></trkpt><trkpt lat="62.689736" lon="8.901923"><ele>742</ele></trkpt><trkpt lat="62.689694" lon="8.900952"><ele>740</ele></trkpt><trkpt lat="62.689651" lon="8.899980"><ele>738</ele></trkpt><trkpt lat="62.689609" lon="8.899009"><ele>737</ele></trkpt><trkpt lat="62.689567" lon="8.898038"><ele>735</ele></trkpt><trkpt lat="62.689524" lon="8.897067"><ele>734</ele></trkpt><trkpt lat="62.689482" lon="8.896096"><ele>732</ele></trkpt><trkpt lat="62.689439" lon="8.895124"><ele>734</ele></trkpt><trkpt lat="62.689397" lon="8.894153"><ele>739</ele></trkpt><trkpt lat="62.689355" lon="8.893182"><ele>742</ele></trkpt><trkpt lat="62.689312" lon="8.892211"><ele>743</ele></trkpt><trkpt lat="62.689270" lon="8.891240"><ele>738</ele></trkpt><trkpt lat="62.689227" lon="8.890268"><ele>731</ele></trkpt><trkpt lat="62.689185" lon="8.889297"><ele>728</ele></trkpt><trkpt lat="62.689142" lon="8.888326"><ele>728</ele></trkpt><trkpt lat="62.689100" lon="8.887355"><ele>727</ele></trkpt><trkpt lat="62.689058" lon="8.886384"><ele>727</ele></trkpt><trkpt lat="62.689015" lon="8.885412"><ele>723</ele></trkpt><trkpt lat="62.688973" lon="8.884441"><ele>719</ele></trkpt><trkpt lat="62.688930" lon="8.883470"><ele>714</ele></trkpt><trkpt lat="62.688888" lon="8.882499"><ele>704</ele></trkpt><trkpt lat="62.688845" lon="8.881528"><ele>697</ele></trkpt><trkpt lat="62.688803" lon="8.880556"><ele>687</ele></trkpt><trkpt lat="62.688760" lon="8.879585"><ele>679</ele></trkpt><trkpt lat="62.688718" lon="8.878614"><ele>671</ele></trkpt><trkpt lat="62.688675" lon="8.877643"><ele>668</ele></trkpt><trkpt lat="62.688632" lon="8.876672"><ele>663</ele></trkpt><trkpt lat="62.688501" lon="8.875719"><ele>662</ele></trkpt><trkpt lat="62.688369" lon="8.874767"><ele>661</ele></trkpt><trkpt lat="62.688326" lon="8.873795"><ele>652</ele></trkpt><trkpt lat="62.688195" lon="8.872843"><ele>643</ele></trkpt><trkpt lat="62.688152" lon="8.871872"><ele>632</ele></trkpt><trkpt lat="62.688109" lon="8.870901"><ele>631</ele></trkpt><trkpt lat="62.688067" lon="8.869929"><ele>629</ele></trkpt><trkpt lat="62.687935" lon="8.868977"><ele>629</ele></trkpt><trkpt lat="62.687446" lon="8.868098"><ele>649</ele></trkpt><trkpt lat="62.687136" lon="8.867183"><ele>666</ele></trkpt><trkpt lat="62.686826" lon="8.866268"><ele>688</ele></trkpt><trkpt lat="62.686426" lon="8.865371"><ele>720</ele></trkpt><trkpt lat="62.685946" lon="8.864687"><ele>752</ele></trkpt><trkpt lat="62.685814" lon="8.863734"><ele>776</ele></trkpt><trkpt lat="62.685503" lon="8.862819"><ele>805</ele></trkpt><trkpt lat="62.685023" lon="8.862135"><ele>839</ele></trkpt><trkpt lat="62.684560" lon="8.861839"><ele>859</ele></trkpt><trkpt lat="62.684105" lon="8.861738"><ele>875</ele></trkpt><trkpt lat="62.683659" lon="8.861830"><ele>893</ele></trkpt><trkpt lat="62.683213" lon="8.861923"><ele>909</ele></trkpt><trkpt lat="62.682767" lon="8.862016"><ele>930</ele></trkpt><trkpt lat="62.682329" lon="8.862303"><ele>949</ele></trkpt><trkpt lat="62.681883" lon="8.862396"><ele>963</ele></trkpt><trkpt lat="62.681436" lon="8.862488"><ele>974</ele></trkpt><trkpt lat="62.680990" lon="8.862581"><ele>991</ele></trkpt><trkpt lat="62.680544" lon="8.862674"><ele>1004</ele></trkpt><trkpt lat="62.680098" lon="8.862767"><ele>1015</ele></trkpt><trkpt lat="62.679652" lon="8.862859"><ele>1020</ele></trkpt><trkpt lat="62.679205" lon="8.862952"><ele>1020</ele></trkpt><trkpt lat="62.678759" lon="8.863045"><ele>1022</ele></trkpt><trkpt lat="62.678313" lon="8.863138"><ele>1024</ele></trkpt><trkpt lat="62.677867" lon="8.863230"><ele>1026</ele></trkpt><trkpt lat="62.677420" lon="8.863323"><ele>1029</ele></trkpt><trkpt lat="62.676974" lon="8.863416"><ele>1021</ele></trkpt><trkpt lat="62.676528" lon="8.863509"><ele>1015</ele></trkpt><trkpt lat="62.676082" lon="8.863601"><ele>1019</ele></trkpt><trkpt lat="62.675627" lon="8.863500"><ele>1017</ele></trkpt><trkpt lat="62.675181" lon="8.863593"><ele>1017</ele></trkpt><trkpt lat="62.674735" lon="8.863685"><ele>1019</ele></trkpt><trkpt lat="62.674288" lon="8.863778"><ele>1023</ele></trkpt><trkpt lat="62.673834" lon="8.863677"><ele>1025</ele></trkpt><trkpt lat="62.673379" lon="8.863575"><ele>1026</ele></trkpt><trkpt lat="62.672933" lon="8.863668"><ele>1030</ele></trkpt><trkpt lat="62.672512" lon="8.864343"><ele>1045</ele></trkpt><trkpt lat="62.672109" lon="8.865406"><ele>1069</ele></trkpt><trkpt lat="62.671705" lon="8.866469"><ele>1095</ele></trkpt><trkpt lat="62.671569" lon="8.867477"><ele>1116</ele></trkpt><trkpt lat="62.671344" lon="8.868503"><ele>1136</ele></trkpt><trkpt lat="62.671297" lon="8.869492"><ele>1155</ele></trkpt><trkpt lat="62.671340" lon="8.870463"><ele>1178</ele></trkpt><trkpt lat="62.671382" lon="8.871433"><ele>1200</ele></trkpt><trkpt lat="62.671425" lon="8.872404"><ele>1216</ele></trkpt><trkpt lat="62.671378" lon="8.873393"><ele>1235</ele></trkpt><trkpt lat="62.671332" lon="8.874382"><ele>1256</ele></trkpt><trkpt lat="62.671196" lon="8.875390"><ele>1276</ele></trkpt><trkpt lat="62.671238" lon="8.876360"><ele>1289</ele></trkpt><trkpt lat="62.671281" lon="8.877331"><ele>1306</ele></trkpt><trkpt lat="62.671323" lon="8.878302"><ele>1321</ele></trkpt><trkpt lat="62.671276" lon="8.879291"><ele>1331</ele></trkpt><trkpt lat="62.671319" lon="8.880261"><ele>1348</ele></trkpt><trkpt lat="62.671361" lon="8.881232"><ele>1364</ele></trkpt><trkpt lat="62.671404" lon="8.882202"><ele>1379</ele></trkpt><trkpt lat="62.671446" lon="8.883173"><ele>1392</ele></trkpt><trkpt lat="62.671489" lon="8.884144"><ele>1409</ele></trkpt><trkpt lat="62.671531" lon="8.885114"><ele>1426</ele></trkpt><trkpt lat="62.671574" lon="8.886085"><ele>1445</ele></trkpt><trkpt lat="62.671616" lon="8.887056"><ele>1467</ele></trkpt><trkpt lat="62.671480" lon="8.888063"><ele>1497</ele></trkpt><trkpt lat="62.671255" lon="8.889089"><ele>1534</ele></trkpt><trkpt lat="62.671297" lon="8.890060"><ele>1556</ele></trkpt><trkpt lat="62.671340" lon="8.891030"><ele>1579</ele></trkpt><trkpt lat="62.670919" lon="8.891705"><ele>1608</ele></trkpt><trkpt lat="62.670498" lon="8.892380"><ele>1631</ele></trkpt><trkpt lat="62.670094" lon="8.893442"><ele>1652</ele></trkpt><trkpt lat="62.669691" lon="8.894505"><ele>1677</ele></trkpt><trkpt lat="62.669278" lon="8.895374"><ele>1699</ele></trkpt><trkpt lat="62.668841" lon="8.895660"><ele>1717</ele></trkpt><trkpt lat="62.668411" lon="8.896141"><ele>1740</ele></trkpt><trkpt lat="62.667990" lon="8.896815"><ele>1762</ele></trkpt><trkpt lat="62.667578" lon="8.897684"><ele>1784</ele></trkpt><trkpt lat="62.667174" lon="8.898746"><ele>1794</ele></trkpt><trkpt lat="62.666770" lon="8.899809"><ele>1799</ele></trkpt><trkpt lat="62.666690" lon="8.900022"><ele>1799</ele></trkpt></trkseg></trk><wpt lat="62.666257" lon="8.869559"><ele>1277</ele><name>Run end · Storsomrungnebba 1799 m</name></wpt><trk><name>Down · Storsomrungnebba 1799 m</name><desc>fall-line run: 1041 m of 20–30°, 445 m drop, aspect 280°, max 30°, 0.0% ≥30°; ends 7.22 km from the car.</desc><trkseg><trkpt lat="62.666690" lon="8.900022"><ele>1799</ele></trkpt><trkpt lat="62.665479" lon="8.890871"><ele>1722</ele></trkpt><trkpt lat="62.665722" lon="8.890234"><ele>1705</ele></trkpt><trkpt lat="62.665964" lon="8.889596"><ele>1687</ele></trkpt><trkpt lat="62.666206" lon="8.888958"><ele>1669</ele></trkpt><trkpt lat="62.666449" lon="8.888321"><ele>1651</ele></trkpt><trkpt lat="62.666691" lon="8.887683"><ele>1634</ele></trkpt><trkpt lat="62.666933" lon="8.887045"><ele>1617</ele></trkpt><trkpt lat="62.667175" lon="8.886408"><ele>1601</ele></trkpt><trkpt lat="62.667150" lon="8.885825"><ele>1590</ele></trkpt><trkpt lat="62.667124" lon="8.885243"><ele>1578</ele></trkpt><trkpt lat="62.667099" lon="8.884661"><ele>1564</ele></trkpt><trkpt lat="62.667073" lon="8.884079"><ele>1551</ele></trkpt><trkpt lat="62.667137" lon="8.883478"><ele>1538</ele></trkpt><trkpt lat="62.667112" lon="8.882895"><ele>1528</ele></trkpt><trkpt lat="62.667086" lon="8.882313"><ele>1516</ele></trkpt><trkpt lat="62.667061" lon="8.881731"><ele>1502</ele></trkpt><trkpt lat="62.667035" lon="8.881149"><ele>1488</ele></trkpt><trkpt lat="62.667010" lon="8.880566"><ele>1474</ele></trkpt><trkpt lat="62.666984" lon="8.879984"><ele>1461</ele></trkpt><trkpt lat="62.666959" lon="8.879402"><ele>1449</ele></trkpt><trkpt lat="62.666933" lon="8.878820"><ele>1437</ele></trkpt><trkpt lat="62.666908" lon="8.878237"><ele>1425</ele></trkpt><trkpt lat="62.666882" lon="8.877655"><ele>1414</ele></trkpt><trkpt lat="62.666857" lon="8.877073"><ele>1402</ele></trkpt><trkpt lat="62.666831" lon="8.876491"><ele>1391</ele></trkpt><trkpt lat="62.666806" lon="8.875908"><ele>1379</ele></trkpt><trkpt lat="62.666780" lon="8.875326"><ele>1367</ele></trkpt><trkpt lat="62.666755" lon="8.874744"><ele>1354</ele></trkpt><trkpt lat="62.666640" lon="8.874180"><ele>1340</ele></trkpt><trkpt lat="62.666525" lon="8.873616"><ele>1329</ele></trkpt><trkpt lat="62.666410" lon="8.873052"><ele>1322</ele></trkpt><trkpt lat="62.666385" lon="8.872470"><ele>1314</ele></trkpt><trkpt lat="62.666359" lon="8.871888"><ele>1306</ele></trkpt><trkpt lat="62.666334" lon="8.871306"><ele>1300</ele></trkpt><trkpt lat="62.666219" lon="8.870742"><ele>1296</ele></trkpt><trkpt lat="62.666193" lon="8.870160"><ele>1289</ele></trkpt><trkpt lat="62.666257" lon="8.869559"><ele>1277</ele></trkpt><trkpt lat="62.666257" lon="8.869559"><ele>1277</ele></trkpt></trkseg></trk></gpx>