<?xml version="1.0" encoding="UTF-8"?>
<gpx version="1.1" creator="Rando toppturs" xmlns="http://www.topografix.com/GPX/1/1"><metadata><name>013 Blakhaugen 1422 m</name><desc>This is an automatically generated list. I have not checked them all. Do not attempt these if you're a beginner. Generated 2026-09-13 17:42 from Kartverket 10 m terrain. Ascent lines are least-cost terrain paths under 35°, not verified routes. Not a snow-stability assessment.</desc></metadata><wpt lat="62.500760" lon="9.577478"><ele>699</ele><name>Car · Blakhaugen 1422 m</name></wpt><wpt lat="62.497064" lon="9.533588"><ele>1422</ele><name>Blakhaugen 1422 m</name></wpt><trk><name>Up · Blakhaugen 1422 m</name><desc>least-cost ascent: +736 m over 2622 m, max 30°, 0.0% on 30–35°, ≈2.5 h at 4 km/h + 400 m/h. Terrain possibility, not a checked route.</desc><trkseg><trkpt lat="62.500760" lon="9.577478"><ele>699</ele></trkpt><trkpt lat="62.500722" lon="9.576512"><ele>709</ele></trkpt><trkpt lat="62.500685" lon="9.575545"><ele>722</ele></trkpt><trkpt lat="62.500647" lon="9.574579"><ele>730</ele></trkpt><trkpt lat="62.500609" lon="9.573613"><ele>720</ele></trkpt><trkpt lat="62.500572" lon="9.572647"><ele>727</ele></trkpt><trkpt lat="62.500534" lon="9.571681"><ele>733</ele></trkpt><trkpt lat="62.500496" lon="9.570714"><ele>747</ele></trkpt><trkpt lat="62.500459" lon="9.569748"><ele>761</ele></trkpt><trkpt lat="62.500600" lon="9.568749"><ele>775</ele></trkpt><trkpt lat="62.500651" lon="9.567767"><ele>780</ele></trkpt><trkpt lat="62.500614" lon="9.566801"><ele>786</ele></trkpt><trkpt lat="62.500576" lon="9.565834"><ele>799</ele></trkpt><trkpt lat="62.500628" lon="9.564852"><ele>818</ele></trkpt><trkpt lat="62.500679" lon="9.563869"><ele>834</ele></trkpt><trkpt lat="62.500642" lon="9.562903"><ele>851</ele></trkpt><trkpt lat="62.500604" lon="9.561937"><ele>867</ele></trkpt><trkpt lat="62.500656" lon="9.560954"><ele>883</ele></trkpt><trkpt lat="62.500618" lon="9.559988"><ele>899</ele></trkpt><trkpt lat="62.500580" lon="9.559022"><ele>919</ele></trkpt><trkpt lat="62.500542" lon="9.558056"><ele>941</ele></trkpt><trkpt lat="62.500683" lon="9.557057"><ele>964</ele></trkpt><trkpt lat="62.500824" lon="9.556058"><ele>994</ele></trkpt><trkpt lat="62.500876" lon="9.555076"><ele>1019</ele></trkpt><trkpt lat="62.500927" lon="9.554093"><ele>1040</ele></trkpt><trkpt lat="62.500890" lon="9.553127"><ele>1056</ele></trkpt><trkpt lat="62.500852" lon="9.552161"><ele>1074</ele></trkpt><trkpt lat="62.500814" lon="9.551194"><ele>1096</ele></trkpt><trkpt lat="62.500866" lon="9.550212"><ele>1115</ele></trkpt><trkpt lat="62.500738" lon="9.549262"><ele>1135</ele></trkpt><trkpt lat="62.500701" lon="9.548296"><ele>1161</ele></trkpt><trkpt lat="62.500663" lon="9.547330"><ele>1189</ele></trkpt><trkpt lat="62.500625" lon="9.546363"><ele>1210</ele></trkpt><trkpt lat="62.500587" lon="9.545397"><ele>1227</ele></trkpt><trkpt lat="62.500460" lon="9.544447"><ele>1246</ele></trkpt><trkpt lat="62.500333" lon="9.543498"><ele>1265</ele></trkpt><trkpt lat="62.500116" lon="9.542564"><ele>1288</ele></trkpt><trkpt lat="62.499632" lon="9.541680"><ele>1323</ele></trkpt><trkpt lat="62.499326" lon="9.540763"><ele>1352</ele></trkpt><trkpt lat="62.499198" lon="9.539813"><ele>1375</ele></trkpt><trkpt lat="62.499160" lon="9.538847"><ele>1386</ele></trkpt><trkpt lat="62.499123" lon="9.537881"><ele>1395</ele></trkpt><trkpt lat="62.498906" lon="9.536948"><ele>1400</ele></trkpt><trkpt lat="62.498421" lon="9.536064"><ele>1403</ele></trkpt><trkpt lat="62.497937" lon="9.535179"><ele>1406</ele></trkpt><trkpt lat="62.497452" lon="9.534295"><ele>1418</ele></trkpt><trkpt lat="62.497064" lon="9.533588"><ele>1422</ele></trkpt></trkseg></trk><wpt lat="62.492925" lon="9.575013"><ele>649</ele><name>Run end · Blakhaugen 1422 m</name></wpt><trk><name>Down · Blakhaugen 1422 m</name><desc>fall-line run: 993 m of 20–30°, 583 m drop, aspect 121°, max 30°, 1.2% ≥30°; ends 0.88 km from the car.</desc><trkseg><trkpt lat="62.497064" lon="9.533588"><ele>1422</ele></trkpt><trkpt lat="62.499232" lon="9.545256"><ele>1232</ele></trkpt><trkpt lat="62.499254" lon="9.545836"><ele>1217</ele></trkpt><trkpt lat="62.499188" lon="9.546432"><ele>1198</ele></trkpt><trkpt lat="62.499121" lon="9.547028"><ele>1181</ele></trkpt><trkpt lat="62.498965" lon="9.547640"><ele>1164</ele></trkpt><trkpt lat="62.498898" lon="9.548237"><ele>1152</ele></trkpt><trkpt lat="62.498921" lon="9.548816"><ele>1136</ele></trkpt><trkpt lat="62.498765" lon="9.549429"><ele>1122</ele></trkpt><trkpt lat="62.498520" lon="9.550057"><ele>1105</ele></trkpt><trkpt lat="62.498542" lon="9.550637"><ele>1094</ele></trkpt><trkpt lat="62.498565" lon="9.551217"><ele>1083</ele></trkpt><trkpt lat="62.498588" lon="9.551796"><ele>1072</ele></trkpt><trkpt lat="62.498610" lon="9.552376"><ele>1057</ele></trkpt><trkpt lat="62.498633" lon="9.552956"><ele>1043</ele></trkpt><trkpt lat="62.498656" lon="9.553535"><ele>1027</ele></trkpt><trkpt lat="62.498678" lon="9.554115"><ele>1011</ele></trkpt><trkpt lat="62.498701" lon="9.554695"><ele>995</ele></trkpt><trkpt lat="62.498634" lon="9.555291"><ele>980</ele></trkpt><trkpt lat="62.498389" lon="9.555919"><ele>963</ele></trkpt><trkpt lat="62.498322" lon="9.556515"><ele>947</ele></trkpt><trkpt lat="62.498345" lon="9.557095"><ele>935</ele></trkpt><trkpt lat="62.498368" lon="9.557675"><ele>923</ele></trkpt><trkpt lat="62.498390" lon="9.558254"><ele>912</ele></trkpt><trkpt lat="62.498413" lon="9.558834"><ele>901</ele></trkpt><trkpt lat="62.498436" lon="9.559414"><ele>888</ele></trkpt><trkpt lat="62.498280" lon="9.560026"><ele>874</ele></trkpt><trkpt lat="62.498302" lon="9.560606"><ele>863</ele></trkpt><trkpt lat="62.498057" lon="9.561234"><ele>849</ele></trkpt><trkpt lat="62.497901" lon="9.561847"><ele>839</ele></trkpt><trkpt lat="62.497655" lon="9.562475"><ele>832</ele></trkpt><trkpt lat="62.497410" lon="9.563104"><ele>824</ele></trkpt><trkpt lat="62.497164" lon="9.563733"><ele>812</ele></trkpt><trkpt lat="62.497098" lon="9.564329"><ele>804</ele></trkpt><trkpt lat="62.496852" lon="9.564957"><ele>799</ele></trkpt><trkpt lat="62.496607" lon="9.565586"><ele>788</ele></trkpt><trkpt lat="62.496361" lon="9.566214"><ele>779</ele></trkpt><trkpt lat="62.496093" lon="9.566263"><ele>775</ele></trkpt><trkpt lat="62.495833" lon="9.566505"><ele>771</ele></trkpt><trkpt lat="62.495572" lon="9.566747"><ele>765</ele></trkpt><trkpt lat="62.495327" lon="9.567376"><ele>756</ele></trkpt><trkpt lat="62.495081" lon="9.568004"><ele>747</ele></trkpt><trkpt lat="62.494925" lon="9.568617"><ele>742</ele></trkpt><trkpt lat="62.494948" lon="9.569196"><ele>739</ele></trkpt><trkpt lat="62.494970" lon="9.569776"><ele>737</ele></trkpt><trkpt lat="62.494993" lon="9.570355"><ele>735</ele></trkpt><trkpt lat="62.494837" lon="9.570968"><ele>731</ele></trkpt><trkpt lat="62.494681" lon="9.571580"><ele>727</ele></trkpt><trkpt lat="62.494420" lon="9.571822"><ele>722</ele></trkpt><trkpt lat="62.494160" lon="9.572064"><ele>714</ele></trkpt><trkpt lat="62.493914" lon="9.572692"><ele>702</ele></trkpt><trkpt lat="62.493661" lon="9.573128"><ele>691</ele></trkpt><trkpt lat="62.493416" lon="9.573756"><ele>677</ele></trkpt><trkpt lat="62.493170" lon="9.574384"><ele>664</ele></trkpt><trkpt lat="62.492925" lon="9.575013"><ele>649</ele></trkpt><trkpt lat="62.492925" lon="9.575013"><ele>649</ele></trkpt></trkseg></trk></gpx>