<?xml version="1.0" encoding="UTF-8"?>
<gpx version="1.1" creator="Rando toppturs" xmlns="http://www.topografix.com/GPX/1/1"><metadata><name>014 Saudalshøa 1288 m</name><desc>Generated 2026-09-13 17:42 from Kartverket 10 m terrain. Ascent lines are least-cost terrain paths under 35°, not verified routes. Not a snow-stability assessment.</desc></metadata><wpt lat="62.523183" lon="9.023421"><ele>695</ele><name>Car · Saudalshøa 1288 m</name></wpt><wpt lat="62.540037" lon="9.036410"><ele>1288</ele><name>Saudalshøa 1288 m</name></wpt><trk><name>Up · Saudalshøa 1288 m</name><desc>least-cost ascent: +593 m over 2291 m, max 29°, 0.0% on 30–35°, ≈2.05 h at 4 km/h + 400 m/h. Terrain possibility, not a checked route.</desc><trkseg><trkpt lat="62.523183" lon="9.023421"><ele>695</ele></trkpt><trkpt lat="62.523630" lon="9.023331"><ele>697</ele></trkpt><trkpt lat="62.524092" lon="9.023628"><ele>701</ele></trkpt><trkpt lat="62.524539" lon="9.023538"><ele>706</ele></trkpt><trkpt lat="62.524993" lon="9.023642"><ele>712</ele></trkpt><trkpt lat="62.525448" lon="9.023745"><ele>720</ele></trkpt><trkpt lat="62.525936" lon="9.024622"><ele>739</ele></trkpt><trkpt lat="62.526424" lon="9.025498"><ele>758</ele></trkpt><trkpt lat="62.526895" lon="9.025988"><ele>777</ele></trkpt><trkpt lat="62.527366" lon="9.026478"><ele>800</ele></trkpt><trkpt lat="62.527854" lon="9.027355"><ele>829</ele></trkpt><trkpt lat="62.528342" lon="9.028231"><ele>856</ele></trkpt><trkpt lat="62.528821" lon="9.028914"><ele>885</ele></trkpt><trkpt lat="62.529301" lon="9.029598"><ele>916</ele></trkpt><trkpt lat="62.529789" lon="9.030474"><ele>950</ele></trkpt><trkpt lat="62.530187" lon="9.031369"><ele>979</ele></trkpt><trkpt lat="62.530675" lon="9.032246"><ele>1013</ele></trkpt><trkpt lat="62.530984" lon="9.033158"><ele>1033</ele></trkpt><trkpt lat="62.531472" lon="9.034035"><ele>1056</ele></trkpt><trkpt lat="62.531935" lon="9.034332"><ele>1079</ele></trkpt><trkpt lat="62.532381" lon="9.034242"><ele>1095</ele></trkpt><trkpt lat="62.532844" lon="9.034539"><ele>1111</ele></trkpt><trkpt lat="62.533290" lon="9.034450"><ele>1131</ele></trkpt><trkpt lat="62.533737" lon="9.034360"><ele>1146</ele></trkpt><trkpt lat="62.534175" lon="9.034077"><ele>1167</ele></trkpt><trkpt lat="62.534629" lon="9.034181"><ele>1184</ele></trkpt><trkpt lat="62.535117" lon="9.035058"><ele>1198</ele></trkpt><trkpt lat="62.535605" lon="9.035934"><ele>1210</ele></trkpt><trkpt lat="62.536084" lon="9.036618"><ele>1218</ele></trkpt><trkpt lat="62.536564" lon="9.037302"><ele>1227</ele></trkpt><trkpt lat="62.537010" lon="9.037212"><ele>1244</ele></trkpt><trkpt lat="62.537457" lon="9.037122"><ele>1249</ele></trkpt><trkpt lat="62.537903" lon="9.037033"><ele>1251</ele></trkpt><trkpt lat="62.538349" lon="9.036943"><ele>1253</ele></trkpt><trkpt lat="62.538796" lon="9.036854"><ele>1258</ele></trkpt><trkpt lat="62.539242" lon="9.036764"><ele>1269</ele></trkpt><trkpt lat="62.539688" lon="9.036675"><ele>1280</ele></trkpt><trkpt lat="62.540037" lon="9.036410"><ele>1288</ele></trkpt></trkseg></trk><wpt lat="62.527032" lon="9.024986"><ele>768</ele><name>Run end · Saudalshøa 1288 m</name></wpt><trk><name>Down · Saudalshøa 1288 m</name><desc>fall-line run: 984 m of 20–30°, 409 m drop, aspect 203°, max 30°, 1.3% ≥30°; ends 0.44 km from the car.</desc><trkseg><trkpt lat="62.540037" lon="9.036410"><ele>1288</ele></trkpt><trkpt lat="62.533978" lon="9.031582"><ele>1177</ele></trkpt><trkpt lat="62.533710" lon="9.031636"><ele>1164</ele></trkpt><trkpt lat="62.533442" lon="9.031690"><ele>1149</ele></trkpt><trkpt lat="62.533174" lon="9.031744"><ele>1137</ele></trkpt><trkpt lat="62.532907" lon="9.031797"><ele>1124</ele></trkpt><trkpt lat="62.532639" lon="9.031851"><ele>1113</ele></trkpt><trkpt lat="62.532371" lon="9.031905"><ele>1100</ele></trkpt><trkpt lat="62.532103" lon="9.031959"><ele>1084</ele></trkpt><trkpt lat="62.531835" lon="9.032013"><ele>1069</ele></trkpt><trkpt lat="62.531568" lon="9.032066"><ele>1055</ele></trkpt><trkpt lat="62.531300" lon="9.032120"><ele>1041</ele></trkpt><trkpt lat="62.531032" lon="9.032174"><ele>1026</ele></trkpt><trkpt lat="62.530739" lon="9.031648"><ele>1008</ele></trkpt><trkpt lat="62.530447" lon="9.031122"><ele>987</ele></trkpt><trkpt lat="62.530154" lon="9.030596"><ele>966</ele></trkpt><trkpt lat="62.529861" lon="9.030070"><ele>945</ele></trkpt><trkpt lat="62.529569" lon="9.029544"><ele>927</ele></trkpt><trkpt lat="62.529276" lon="9.029018"><ele>905</ele></trkpt><trkpt lat="62.528983" lon="9.028492"><ele>885</ele></trkpt><trkpt lat="62.528691" lon="9.027966"><ele>865</ele></trkpt><trkpt lat="62.528398" lon="9.027440"><ele>848</ele></trkpt><trkpt lat="62.528105" lon="9.026914"><ele>831</ele></trkpt><trkpt lat="62.527813" lon="9.026388"><ele>812</ele></trkpt><trkpt lat="62.527520" lon="9.025863"><ele>797</ele></trkpt><trkpt lat="62.527227" lon="9.025337"><ele>781</ele></trkpt><trkpt lat="62.527032" lon="9.024986"><ele>768</ele></trkpt></trkseg></trk></gpx>