<?xml version="1.0" encoding="UTF-8"?>
<gpx version="1.1" creator="Rando toppturs" xmlns="http://www.topografix.com/GPX/1/1"><metadata><name>015 Storhornet 1589 m</name><desc>This is an automatically generated list. I have not checked them all. Do not attempt these if you're a beginner. Generated 2026-09-13 17:42 from Kartverket 10 m terrain. Ascent lines are least-cost terrain paths under 35°, not verified routes. Not a snow-stability assessment.</desc></metadata><wpt lat="62.668338" lon="9.422277"><ele>704</ele><name>Car · Storhornet 1589 m</name></wpt><wpt lat="62.645699" lon="9.394075"><ele>1589</ele><name>Storhornet 1589 m</name></wpt><trk><name>Up · Storhornet 1589 m</name><desc>least-cost ascent: +885 m over 3232 m, max 30°, 0.0% on 30–35°, ≈3.02 h at 4 km/h + 400 m/h. Terrain possibility, not a checked route.</desc><trkseg><trkpt lat="62.668338" lon="9.422277"><ele>704</ele></trkpt><trkpt lat="62.667853" lon="9.421390"><ele>719</ele></trkpt><trkpt lat="62.667368" lon="9.420503"><ele>734</ele></trkpt><trkpt lat="62.666882" lon="9.419616"><ele>748</ele></trkpt><trkpt lat="62.666397" lon="9.418729"><ele>766</ele></trkpt><trkpt lat="62.665919" lon="9.418036"><ele>787</ele></trkpt><trkpt lat="62.665434" lon="9.417149"><ele>807</ele></trkpt><trkpt lat="62.664948" lon="9.416262"><ele>831</ele></trkpt><trkpt lat="62.664463" lon="9.415375"><ele>862</ele></trkpt><trkpt lat="62.663977" lon="9.414488"><ele>893</ele></trkpt><trkpt lat="62.663581" lon="9.413584"><ele>916</ele></trkpt><trkpt lat="62.663096" lon="9.412697"><ele>939</ele></trkpt><trkpt lat="62.662700" lon="9.411794"><ele>958</ele></trkpt><trkpt lat="62.662214" lon="9.410907"><ele>979</ele></trkpt><trkpt lat="62.661729" lon="9.410020"><ele>1000</ele></trkpt><trkpt lat="62.661243" lon="9.409133"><ele>1018</ele></trkpt><trkpt lat="62.660758" lon="9.408247"><ele>1036</ele></trkpt><trkpt lat="62.660272" lon="9.407360"><ele>1054</ele></trkpt><trkpt lat="62.659787" lon="9.406473"><ele>1073</ele></trkpt><trkpt lat="62.659301" lon="9.405587"><ele>1091</ele></trkpt><trkpt lat="62.658816" lon="9.404700"><ele>1111</ele></trkpt><trkpt lat="62.658330" lon="9.403813"><ele>1132</ele></trkpt><trkpt lat="62.657845" lon="9.402927"><ele>1156</ele></trkpt><trkpt lat="62.657359" lon="9.402040"><ele>1179</ele></trkpt><trkpt lat="62.656874" lon="9.401154"><ele>1203</ele></trkpt><trkpt lat="62.656396" lon="9.400462"><ele>1231</ele></trkpt><trkpt lat="62.655910" lon="9.399575"><ele>1255</ele></trkpt><trkpt lat="62.655514" lon="9.398672"><ele>1280</ele></trkpt><trkpt lat="62.655052" lon="9.398368"><ele>1306</ele></trkpt><trkpt lat="62.654597" lon="9.398258"><ele>1326</ele></trkpt><trkpt lat="62.654112" lon="9.397372"><ele>1345</ele></trkpt><trkpt lat="62.653642" lon="9.396874"><ele>1367</ele></trkpt><trkpt lat="62.653187" lon="9.396765"><ele>1385</ele></trkpt><trkpt lat="62.652710" lon="9.396073"><ele>1407</ele></trkpt><trkpt lat="62.652247" lon="9.395769"><ele>1426</ele></trkpt><trkpt lat="62.651793" lon="9.395659"><ele>1435</ele></trkpt><trkpt lat="62.651346" lon="9.395744"><ele>1444</ele></trkpt><trkpt lat="62.650861" lon="9.394858"><ele>1452</ele></trkpt><trkpt lat="62.650375" lon="9.393971"><ele>1456</ele></trkpt><trkpt lat="62.649921" lon="9.393862"><ele>1468</ele></trkpt><trkpt lat="62.649474" lon="9.393947"><ele>1482</ele></trkpt><trkpt lat="62.649012" lon="9.393643"><ele>1494</ele></trkpt><trkpt lat="62.648565" lon="9.393728"><ele>1513</ele></trkpt><trkpt lat="62.648119" lon="9.393812"><ele>1533</ele></trkpt><trkpt lat="62.647672" lon="9.393897"><ele>1545</ele></trkpt><trkpt lat="62.647225" lon="9.393981"><ele>1556</ele></trkpt><trkpt lat="62.646779" lon="9.394066"><ele>1567</ele></trkpt><trkpt lat="62.646332" lon="9.394151"><ele>1578</ele></trkpt><trkpt lat="62.645885" lon="9.394235"><ele>1587</ele></trkpt><trkpt lat="62.645699" lon="9.394075"><ele>1589</ele></trkpt></trkseg></trk><wpt lat="62.670328" lon="9.404479"><ele>793</ele><name>Run end · Storhornet 1589 m</name></wpt><trk><name>Down · Storhornet 1589 m</name><desc>fall-line run: 984 m of 20–30°, 620 m drop, aspect 25°, max 28°, 0.0% ≥30°; ends 0.94 km from the car.</desc><trkseg><trkpt lat="62.645699" lon="9.394075"><ele>1589</ele></trkpt><trkpt lat="62.652655" lon="9.394713"><ele>1413</ele></trkpt><trkpt lat="62.652923" lon="9.394663"><ele>1402</ele></trkpt><trkpt lat="62.653191" lon="9.394612"><ele>1391</ele></trkpt><trkpt lat="62.653467" lon="9.394755"><ele>1380</ele></trkpt><trkpt lat="62.653750" lon="9.395093"><ele>1370</ele></trkpt><trkpt lat="62.654018" lon="9.395042"><ele>1356</ele></trkpt><trkpt lat="62.654286" lon="9.394991"><ele>1341</ele></trkpt><trkpt lat="62.654554" lon="9.394940"><ele>1330</ele></trkpt><trkpt lat="62.654822" lon="9.394890"><ele>1317</ele></trkpt><trkpt lat="62.655090" lon="9.394839"><ele>1308</ele></trkpt><trkpt lat="62.655358" lon="9.394788"><ele>1298</ele></trkpt><trkpt lat="62.655626" lon="9.394737"><ele>1287</ele></trkpt><trkpt lat="62.655894" lon="9.394686"><ele>1275</ele></trkpt><trkpt lat="62.656162" lon="9.394636"><ele>1266</ele></trkpt><trkpt lat="62.656430" lon="9.394585"><ele>1256</ele></trkpt><trkpt lat="62.656698" lon="9.394534"><ele>1248</ele></trkpt><trkpt lat="62.656974" lon="9.394677"><ele>1236</ele></trkpt><trkpt lat="62.657250" lon="9.394821"><ele>1224</ele></trkpt><trkpt lat="62.657526" lon="9.394964"><ele>1212</ele></trkpt><trkpt lat="62.657794" lon="9.394914"><ele>1201</ele></trkpt><trkpt lat="62.658062" lon="9.394863"><ele>1194</ele></trkpt><trkpt lat="62.658337" lon="9.395006"><ele>1184</ele></trkpt><trkpt lat="62.658605" lon="9.394955"><ele>1175</ele></trkpt><trkpt lat="62.658873" lon="9.394905"><ele>1167</ele></trkpt><trkpt lat="62.659141" lon="9.394854"><ele>1158</ele></trkpt><trkpt lat="62.659409" lon="9.394803"><ele>1149</ele></trkpt><trkpt lat="62.659677" lon="9.394752"><ele>1140</ele></trkpt><trkpt lat="62.659945" lon="9.394701"><ele>1131</ele></trkpt><trkpt lat="62.660213" lon="9.394651"><ele>1125</ele></trkpt><trkpt lat="62.660481" lon="9.394600"><ele>1118</ele></trkpt><trkpt lat="62.660749" lon="9.394549"><ele>1111</ele></trkpt><trkpt lat="62.661025" lon="9.394692"><ele>1105</ele></trkpt><trkpt lat="62.661293" lon="9.394642"><ele>1100</ele></trkpt><trkpt lat="62.661576" lon="9.394979"><ele>1094</ele></trkpt><trkpt lat="62.661868" lon="9.395511"><ele>1088</ele></trkpt><trkpt lat="62.662144" lon="9.395655"><ele>1082</ele></trkpt><trkpt lat="62.662412" lon="9.395604"><ele>1077</ele></trkpt><trkpt lat="62.662695" lon="9.395941"><ele>1071</ele></trkpt><trkpt lat="62.662979" lon="9.396279"><ele>1062</ele></trkpt><trkpt lat="62.663247" lon="9.396228"><ele>1056</ele></trkpt><trkpt lat="62.663515" lon="9.396178"><ele>1050</ele></trkpt><trkpt lat="62.663783" lon="9.396127"><ele>1042</ele></trkpt><trkpt lat="62.664051" lon="9.396076"><ele>1035</ele></trkpt><trkpt lat="62.664319" lon="9.396025"><ele>1027</ele></trkpt><trkpt lat="62.664587" lon="9.395974"><ele>1020</ele></trkpt><trkpt lat="62.664855" lon="9.395924"><ele>1013</ele></trkpt><trkpt lat="62.665123" lon="9.395873"><ele>1008</ele></trkpt><trkpt lat="62.665391" lon="9.395822"><ele>1000</ele></trkpt><trkpt lat="62.665658" lon="9.395771"><ele>993</ele></trkpt><trkpt lat="62.665926" lon="9.395720"><ele>986</ele></trkpt><trkpt lat="62.666194" lon="9.395670"><ele>977</ele></trkpt><trkpt lat="62.666462" lon="9.395619"><ele>967</ele></trkpt><trkpt lat="62.666746" lon="9.395957"><ele>954</ele></trkpt><trkpt lat="62.666948" lon="9.396506"><ele>945</ele></trkpt><trkpt lat="62.667061" lon="9.397071"><ele>937</ele></trkpt><trkpt lat="62.667263" lon="9.397620"><ele>926</ele></trkpt><trkpt lat="62.667465" lon="9.398169"><ele>916</ele></trkpt><trkpt lat="62.667756" lon="9.398701"><ele>904</ele></trkpt><trkpt lat="62.667958" lon="9.399250"><ele>892</ele></trkpt><trkpt lat="62.668071" lon="9.399816"><ele>884</ele></trkpt><trkpt lat="62.668273" lon="9.400365"><ele>874</ele></trkpt><trkpt lat="62.668475" lon="9.400914"><ele>864</ele></trkpt><trkpt lat="62.668677" lon="9.401463"><ele>855</ele></trkpt><trkpt lat="62.668879" lon="9.402012"><ele>846</ele></trkpt><trkpt lat="62.669081" lon="9.402561"><ele>837</ele></trkpt><trkpt lat="62.669364" lon="9.402899"><ele>829</ele></trkpt><trkpt lat="62.669648" lon="9.403237"><ele>821</ele></trkpt><trkpt lat="62.669931" lon="9.403575"><ele>811</ele></trkpt><trkpt lat="62.670133" lon="9.404124"><ele>800</ele></trkpt><trkpt lat="62.670328" lon="9.404479"><ele>793</ele></trkpt></trkseg></trk></gpx>