<?xml version="1.0" encoding="UTF-8"?>
<gpx version="1.1" creator="Rando toppturs" xmlns="http://www.topografix.com/GPX/1/1"><metadata><name>016 Unnamed 1362 m</name><desc>This is an automatically generated list. I have not checked them all. Do not attempt these if you're a beginner. Generated 2026-09-13 17:42 from Kartverket 10 m terrain. Ascent lines are least-cost terrain paths under 35°, not verified routes. Not a snow-stability assessment.</desc></metadata><wpt lat="62.613982" lon="9.647807"><ele>777</ele><name>Car · Unnamed summit 1362 m</name></wpt><wpt lat="62.629367" lon="9.652454"><ele>1362</ele><name>Unnamed summit 1362 m</name></wpt><trk><name>Up · Unnamed summit 1362 m</name><desc>least-cost ascent: +585 m over 2046 m, max 30°, 0.0% on 30–35°, ≈1.97 h at 4 km/h + 400 m/h. Terrain possibility, not a checked route.</desc><trkseg><trkpt lat="62.613982" lon="9.647807"><ele>777</ele></trkpt><trkpt lat="62.614428" lon="9.647727"><ele>786</ele></trkpt><trkpt lat="62.614875" lon="9.647646"><ele>796</ele></trkpt><trkpt lat="62.615322" lon="9.647565"><ele>808</ele></trkpt><trkpt lat="62.615769" lon="9.647485"><ele>818</ele></trkpt><trkpt lat="62.616216" lon="9.647404"><ele>828</ele></trkpt><trkpt lat="62.616663" lon="9.647323"><ele>842</ele></trkpt><trkpt lat="62.617109" lon="9.647242"><ele>852</ele></trkpt><trkpt lat="62.617556" lon="9.647162"><ele>865</ele></trkpt><trkpt lat="62.618003" lon="9.647081"><ele>879</ele></trkpt><trkpt lat="62.618480" lon="9.647776"><ele>897</ele></trkpt><trkpt lat="62.618934" lon="9.647890"><ele>914</ele></trkpt><trkpt lat="62.619381" lon="9.647809"><ele>928</ele></trkpt><trkpt lat="62.619828" lon="9.647728"><ele>947</ele></trkpt><trkpt lat="62.620274" lon="9.647648"><ele>963</ele></trkpt><trkpt lat="62.620721" lon="9.647567"><ele>978</ele></trkpt><trkpt lat="62.621161" lon="9.647292"><ele>997</ele></trkpt><trkpt lat="62.621608" lon="9.647211"><ele>1024</ele></trkpt><trkpt lat="62.622062" lon="9.647325"><ele>1051</ele></trkpt><trkpt lat="62.622509" lon="9.647244"><ele>1074</ele></trkpt><trkpt lat="62.622955" lon="9.647163"><ele>1100</ele></trkpt><trkpt lat="62.623402" lon="9.647083"><ele>1124</ele></trkpt><trkpt lat="62.623849" lon="9.647002"><ele>1147</ele></trkpt><trkpt lat="62.624288" lon="9.646727"><ele>1165</ele></trkpt><trkpt lat="62.624720" lon="9.646258"><ele>1184</ele></trkpt><trkpt lat="62.625167" lon="9.646177"><ele>1199</ele></trkpt><trkpt lat="62.625614" lon="9.646097"><ele>1211</ele></trkpt><trkpt lat="62.626061" lon="9.646016"><ele>1222</ele></trkpt><trkpt lat="62.626508" lon="9.645935"><ele>1234</ele></trkpt><trkpt lat="62.626969" lon="9.646242"><ele>1248</ele></trkpt><trkpt lat="62.627439" lon="9.646744"><ele>1267</ele></trkpt><trkpt lat="62.627923" lon="9.647634"><ele>1287</ele></trkpt><trkpt lat="62.628407" lon="9.648523"><ele>1308</ele></trkpt><trkpt lat="62.628801" lon="9.649429"><ele>1328</ele></trkpt><trkpt lat="62.629017" lon="9.650368"><ele>1343</ele></trkpt><trkpt lat="62.629054" lon="9.651338"><ele>1351</ele></trkpt><trkpt lat="62.629270" lon="9.652276"><ele>1360</ele></trkpt><trkpt lat="62.629367" lon="9.652454"><ele>1362</ele></trkpt></trkseg></trk><wpt lat="62.613564" lon="9.658041"><ele>729</ele><name>Run end · Unnamed summit 1362 m</name></wpt><trk><name>Down · Unnamed summit 1362 m</name><desc>fall-line run: 956 m of 20–30°, 478 m drop, aspect 184°, max 29°, 0.0% ≥30°; ends 0.53 km from the car.</desc><trkseg><trkpt lat="62.629367" lon="9.652454"><ele>1362</ele></trkpt><trkpt lat="62.626894" lon="9.660718"><ele>1207</ele></trkpt><trkpt lat="62.626625" lon="9.660766"><ele>1196</ele></trkpt><trkpt lat="62.626357" lon="9.660815"><ele>1185</ele></trkpt><trkpt lat="62.626089" lon="9.660863"><ele>1173</ele></trkpt><trkpt lat="62.625843" lon="9.661494"><ele>1154</ele></trkpt><trkpt lat="62.625597" lon="9.662124"><ele>1136</ele></trkpt><trkpt lat="62.625352" lon="9.662755"><ele>1118</ele></trkpt><trkpt lat="62.625106" lon="9.663385"><ele>1103</ele></trkpt><trkpt lat="62.624838" lon="9.663434"><ele>1093</ele></trkpt><trkpt lat="62.624570" lon="9.663482"><ele>1081</ele></trkpt><trkpt lat="62.624324" lon="9.664113"><ele>1064</ele></trkpt><trkpt lat="62.624056" lon="9.664161"><ele>1052</ele></trkpt><trkpt lat="62.623787" lon="9.664209"><ele>1038</ele></trkpt><trkpt lat="62.623519" lon="9.664257"><ele>1024</ele></trkpt><trkpt lat="62.623251" lon="9.664306"><ele>1012</ele></trkpt><trkpt lat="62.622983" lon="9.664354"><ele>1003</ele></trkpt><trkpt lat="62.622730" lon="9.664790"><ele>993</ele></trkpt><trkpt lat="62.622484" lon="9.665421"><ele>980</ele></trkpt><trkpt lat="62.622231" lon="9.665857"><ele>970</ele></trkpt><trkpt lat="62.621963" lon="9.665906"><ele>959</ele></trkpt><trkpt lat="62.621702" lon="9.666148"><ele>948</ele></trkpt><trkpt lat="62.621449" lon="9.666584"><ele>935</ele></trkpt><trkpt lat="62.621188" lon="9.666827"><ele>923</ele></trkpt><trkpt lat="62.620935" lon="9.667263"><ele>909</ele></trkpt><trkpt lat="62.620674" lon="9.667505"><ele>895</ele></trkpt><trkpt lat="62.620413" lon="9.667748"><ele>885</ele></trkpt><trkpt lat="62.620153" lon="9.667990"><ele>872</ele></trkpt><trkpt lat="62.619884" lon="9.668038"><ele>861</ele></trkpt><trkpt lat="62.619616" lon="9.668086"><ele>845</ele></trkpt><trkpt lat="62.619333" lon="9.667747"><ele>840</ele></trkpt><trkpt lat="62.619050" lon="9.667407"><ele>837</ele></trkpt><trkpt lat="62.618775" lon="9.667261"><ele>833</ele></trkpt><trkpt lat="62.618499" lon="9.667115"><ele>828</ele></trkpt><trkpt lat="62.618388" lon="9.666549"><ele>824</ele></trkpt><trkpt lat="62.618276" lon="9.665983"><ele>819</ele></trkpt><trkpt lat="62.617986" lon="9.665449"><ele>812</ele></trkpt><trkpt lat="62.617874" lon="9.664883"><ele>807</ele></trkpt><trkpt lat="62.617763" lon="9.664317"><ele>801</ele></trkpt><trkpt lat="62.617480" lon="9.663977"><ele>796</ele></trkpt><trkpt lat="62.617197" lon="9.663638"><ele>791</ele></trkpt><trkpt lat="62.616907" lon="9.663104"><ele>784</ele></trkpt><trkpt lat="62.616616" lon="9.662570"><ele>780</ele></trkpt><trkpt lat="62.616415" lon="9.662020"><ele>775</ele></trkpt><trkpt lat="62.616214" lon="9.661470"><ele>772</ele></trkpt><trkpt lat="62.615924" lon="9.660936"><ele>765</ele></trkpt><trkpt lat="62.615633" lon="9.660403"><ele>761</ele></trkpt><trkpt lat="62.615343" lon="9.659869"><ele>755</ele></trkpt><trkpt lat="62.615060" lon="9.659529"><ele>750</ele></trkpt><trkpt lat="62.614770" lon="9.658995"><ele>745</ele></trkpt><trkpt lat="62.614502" lon="9.659044"><ele>741</ele></trkpt><trkpt lat="62.614211" lon="9.658510"><ele>737</ele></trkpt><trkpt lat="62.613928" lon="9.658170"><ele>733</ele></trkpt><trkpt lat="62.613653" lon="9.658025"><ele>730</ele></trkpt><trkpt lat="62.613564" lon="9.658041"><ele>729</ele></trkpt></trkseg></trk></gpx>