<?xml version="1.0" encoding="UTF-8"?>
<gpx version="1.1" creator="Rando toppturs" xmlns="http://www.topografix.com/GPX/1/1"><metadata><name>018 Trondfjellet 1501 m</name><desc>Generated 2026-09-13 17:42 from Kartverket 10 m terrain. Ascent lines are least-cost terrain paths under 35°, not verified routes. Not a snow-stability assessment.</desc></metadata><wpt lat="62.502860" lon="9.578263"><ele>674</ele><name>Car · Trondfjellet 1501 m</name></wpt><wpt lat="62.518974" lon="9.525474"><ele>1501</ele><name>Trondfjellet 1501 m</name></wpt><trk><name>Up · Trondfjellet 1501 m</name><desc>least-cost ascent: +839 m over 3645 m, max 35°, 3.3% on 30–35°, ≈3.01 h at 4 km/h + 400 m/h. Terrain possibility, not a checked route.</desc><trkseg><trkpt lat="62.502860" lon="9.578263"><ele>674</ele></trkpt><trkpt lat="62.503001" lon="9.577264"><ele>687</ele></trkpt><trkpt lat="62.503142" lon="9.576265"><ele>677</ele></trkpt><trkpt lat="62.503105" lon="9.575299"><ele>685</ele></trkpt><trkpt lat="62.503067" lon="9.574333"><ele>699</ele></trkpt><trkpt lat="62.503030" lon="9.573367"><ele>713</ele></trkpt><trkpt lat="62.502992" lon="9.572400"><ele>723</ele></trkpt><trkpt lat="62.503133" lon="9.571401"><ele>734</ele></trkpt><trkpt lat="62.503542" lon="9.570354"><ele>748</ele></trkpt><trkpt lat="62.503951" lon="9.569306"><ele>767</ele></trkpt><trkpt lat="62.504182" lon="9.568291"><ele>787</ele></trkpt><trkpt lat="62.504412" lon="9.567275"><ele>809</ele></trkpt><trkpt lat="62.504553" lon="9.566276"><ele>829</ele></trkpt><trkpt lat="62.504605" lon="9.565294"><ele>848</ele></trkpt><trkpt lat="62.504567" lon="9.564327"><ele>869</ele></trkpt><trkpt lat="62.504619" lon="9.563345"><ele>885</ele></trkpt><trkpt lat="62.504938" lon="9.562313"><ele>906</ele></trkpt><trkpt lat="62.505258" lon="9.561282"><ele>934</ele></trkpt><trkpt lat="62.505667" lon="9.560234"><ele>965</ele></trkpt><trkpt lat="62.506084" lon="9.559379"><ele>996</ele></trkpt><trkpt lat="62.506493" lon="9.558331"><ele>1027</ele></trkpt><trkpt lat="62.506812" lon="9.557299"><ele>1046</ele></trkpt><trkpt lat="62.507132" lon="9.556267"><ele>1061</ele></trkpt><trkpt lat="62.507452" lon="9.555236"><ele>1079</ele></trkpt><trkpt lat="62.507771" lon="9.554204"><ele>1103</ele></trkpt><trkpt lat="62.507912" lon="9.553205"><ele>1124</ele></trkpt><trkpt lat="62.507964" lon="9.552222"><ele>1149</ele></trkpt><trkpt lat="62.508015" lon="9.551239"><ele>1176</ele></trkpt><trkpt lat="62.508067" lon="9.550256"><ele>1202</ele></trkpt><trkpt lat="62.508215" lon="9.549450"><ele>1233</ele></trkpt><trkpt lat="62.508632" lon="9.548595"><ele>1258</ele></trkpt><trkpt lat="62.509041" lon="9.547547"><ele>1297</ele></trkpt><trkpt lat="62.509480" lon="9.547272"><ele>1317</ele></trkpt><trkpt lat="62.509927" lon="9.547190"><ele>1324</ele></trkpt><trkpt lat="62.510373" lon="9.547108"><ele>1333</ele></trkpt><trkpt lat="62.510797" lon="9.546447"><ele>1342</ele></trkpt><trkpt lat="62.511206" lon="9.545398"><ele>1350</ele></trkpt><trkpt lat="62.511615" lon="9.544350"><ele>1361</ele></trkpt><trkpt lat="62.512024" lon="9.543301"><ele>1365</ele></trkpt><trkpt lat="62.512433" lon="9.542253"><ele>1371</ele></trkpt><trkpt lat="62.512842" lon="9.541204"><ele>1375</ele></trkpt><trkpt lat="62.513251" lon="9.540156"><ele>1383</ele></trkpt><trkpt lat="62.513660" lon="9.539107"><ele>1390</ele></trkpt><trkpt lat="62.514069" lon="9.538059"><ele>1398</ele></trkpt><trkpt lat="62.514477" lon="9.537010"><ele>1407</ele></trkpt><trkpt lat="62.514886" lon="9.535961"><ele>1417</ele></trkpt><trkpt lat="62.515295" lon="9.534913"><ele>1427</ele></trkpt><trkpt lat="62.515704" lon="9.533864"><ele>1435</ele></trkpt><trkpt lat="62.516113" lon="9.532815"><ele>1446</ele></trkpt><trkpt lat="62.516522" lon="9.531767"><ele>1457</ele></trkpt><trkpt lat="62.516930" lon="9.530718"><ele>1466</ele></trkpt><trkpt lat="62.517339" lon="9.529669"><ele>1475</ele></trkpt><trkpt lat="62.517748" lon="9.528620"><ele>1483</ele></trkpt><trkpt lat="62.518157" lon="9.527571"><ele>1491</ele></trkpt><trkpt lat="62.518566" lon="9.526522"><ele>1497</ele></trkpt><trkpt lat="62.518974" lon="9.525474"><ele>1501</ele></trkpt><trkpt lat="62.518974" lon="9.525474"><ele>1501</ele></trkpt></trkseg></trk><wpt lat="62.533786" lon="9.575158"><ele>759</ele><name>Run end · Trondfjellet 1501 m</name></wpt><trk><name>Down · Trondfjellet 1501 m</name><desc>fall-line run: 830 m of 20–30°, 672 m drop, aspect 65°, max 29°, 0.0% ≥30°; ends 3.45 km from the car.</desc><trkseg><trkpt lat="62.518974" lon="9.525474"><ele>1501</ele></trkpt><trkpt lat="62.522375" lon="9.531859"><ele>1431</ele></trkpt><trkpt lat="62.522666" lon="9.532390"><ele>1413</ele></trkpt><trkpt lat="62.522957" lon="9.532921"><ele>1394</ele></trkpt><trkpt lat="62.523247" lon="9.533452"><ele>1373</ele></trkpt><trkpt lat="62.523538" lon="9.533983"><ele>1352</ele></trkpt><trkpt lat="62.523829" lon="9.534514"><ele>1335</ele></trkpt><trkpt lat="62.524112" lon="9.534851"><ele>1320</ele></trkpt><trkpt lat="62.524403" lon="9.535382"><ele>1306</ele></trkpt><trkpt lat="62.524694" lon="9.535913"><ele>1291</ele></trkpt><trkpt lat="62.524977" lon="9.536251"><ele>1275</ele></trkpt><trkpt lat="62.525260" lon="9.536588"><ele>1259</ele></trkpt><trkpt lat="62.525551" lon="9.537119"><ele>1243</ele></trkpt><trkpt lat="62.525842" lon="9.537650"><ele>1226</ele></trkpt><trkpt lat="62.526118" lon="9.537794"><ele>1220</ele></trkpt><trkpt lat="62.526408" lon="9.538325"><ele>1207</ele></trkpt><trkpt lat="62.526699" lon="9.538856"><ele>1198</ele></trkpt><trkpt lat="62.526990" lon="9.539387"><ele>1187</ele></trkpt><trkpt lat="62.527281" lon="9.539918"><ele>1175</ele></trkpt><trkpt lat="62.527571" lon="9.540449"><ele>1166</ele></trkpt><trkpt lat="62.527862" lon="9.540980"><ele>1153</ele></trkpt><trkpt lat="62.528153" lon="9.541511"><ele>1141</ele></trkpt><trkpt lat="62.528444" lon="9.542042"><ele>1133</ele></trkpt><trkpt lat="62.528645" lon="9.542590"><ele>1123</ele></trkpt><trkpt lat="62.528936" lon="9.543121"><ele>1113</ele></trkpt><trkpt lat="62.529137" lon="9.543668"><ele>1103</ele></trkpt><trkpt lat="62.529250" lon="9.544232"><ele>1095</ele></trkpt><trkpt lat="62.529540" lon="9.544763"><ele>1085</ele></trkpt><trkpt lat="62.529742" lon="9.545311"><ele>1076</ele></trkpt><trkpt lat="62.530032" lon="9.545842"><ele>1064</ele></trkpt><trkpt lat="62.530234" lon="9.546389"><ele>1054</ele></trkpt><trkpt lat="62.530435" lon="9.546937"><ele>1042</ele></trkpt><trkpt lat="62.530637" lon="9.547485"><ele>1032</ele></trkpt><trkpt lat="62.530838" lon="9.548032"><ele>1021</ele></trkpt><trkpt lat="62.531129" lon="9.548563"><ele>1006</ele></trkpt><trkpt lat="62.531241" lon="9.549127"><ele>996</ele></trkpt><trkpt lat="62.531532" lon="9.549658"><ele>986</ele></trkpt><trkpt lat="62.531822" lon="9.550190"><ele>976</ele></trkpt><trkpt lat="62.532106" lon="9.550527"><ele>967</ele></trkpt><trkpt lat="62.532389" lon="9.550865"><ele>956</ele></trkpt><trkpt lat="62.532664" lon="9.551009"><ele>945</ele></trkpt><trkpt lat="62.532940" lon="9.551154"><ele>931</ele></trkpt><trkpt lat="62.533223" lon="9.551491"><ele>916</ele></trkpt><trkpt lat="62.533328" lon="9.551862"><ele>911</ele></trkpt><trkpt lat="62.533440" lon="9.552426"><ele>910</ele></trkpt><trkpt lat="62.533462" lon="9.553006"><ele>908</ele></trkpt><trkpt lat="62.533485" lon="9.553587"><ele>905</ele></trkpt><trkpt lat="62.533597" lon="9.554151"><ele>904</ele></trkpt><trkpt lat="62.533709" lon="9.554715"><ele>900</ele></trkpt><trkpt lat="62.533821" lon="9.555279"><ele>898</ele></trkpt><trkpt lat="62.533844" lon="9.555859"><ele>896</ele></trkpt><trkpt lat="62.533777" lon="9.556456"><ele>893</ele></trkpt><trkpt lat="62.533621" lon="9.557069"><ele>890</ele></trkpt><trkpt lat="62.533644" lon="9.557649"><ele>888</ele></trkpt><trkpt lat="62.533756" lon="9.558213"><ele>886</ele></trkpt><trkpt lat="62.533778" lon="9.558794"><ele>883</ele></trkpt><trkpt lat="62.533890" lon="9.559358"><ele>879</ele></trkpt><trkpt lat="62.533824" lon="9.559954"><ele>875</ele></trkpt><trkpt lat="62.533757" lon="9.560551"><ele>871</ele></trkpt><trkpt lat="62.533780" lon="9.561131"><ele>868</ele></trkpt><trkpt lat="62.533892" lon="9.561695"><ele>864</ele></trkpt><trkpt lat="62.534004" lon="9.562259"><ele>860</ele></trkpt><trkpt lat="62.534116" lon="9.562823"><ele>856</ele></trkpt><trkpt lat="62.534228" lon="9.563388"><ele>851</ele></trkpt><trkpt lat="62.534429" lon="9.563935"><ele>846</ele></trkpt><trkpt lat="62.534452" lon="9.564516"><ele>841</ele></trkpt><trkpt lat="62.534474" lon="9.565096"><ele>837</ele></trkpt><trkpt lat="62.534586" lon="9.565660"><ele>830</ele></trkpt><trkpt lat="62.534609" lon="9.566240"><ele>826</ele></trkpt><trkpt lat="62.534453" lon="9.566853"><ele>821</ele></trkpt><trkpt lat="62.534475" lon="9.567434"><ele>817</ele></trkpt><trkpt lat="62.534498" lon="9.568014"><ele>811</ele></trkpt><trkpt lat="62.534431" lon="9.568611"><ele>807</ele></trkpt><trkpt lat="62.534454" lon="9.569191"><ele>801</ele></trkpt><trkpt lat="62.534477" lon="9.569772"><ele>796</ele></trkpt><trkpt lat="62.534499" lon="9.570352"><ele>793</ele></trkpt><trkpt lat="62.534522" lon="9.570933"><ele>789</ele></trkpt><trkpt lat="62.534455" lon="9.571529"><ele>786</ele></trkpt><trkpt lat="62.534388" lon="9.572126"><ele>781</ele></trkpt><trkpt lat="62.534411" lon="9.572706"><ele>778</ele></trkpt><trkpt lat="62.534433" lon="9.573287"><ele>774</ele></trkpt><trkpt lat="62.534188" lon="9.573916"><ele>770</ele></trkpt><trkpt lat="62.533935" lon="9.574352"><ele>766</ele></trkpt><trkpt lat="62.533868" lon="9.574949"><ele>761</ele></trkpt><trkpt lat="62.533786" lon="9.575158"><ele>759</ele></trkpt></trkseg></trk></gpx>