<?xml version="1.0" encoding="UTF-8"?>
<gpx version="1.1" creator="Rando toppturs" xmlns="http://www.topografix.com/GPX/1/1"><metadata><name>019 Sprikltjønnknubben 1173 m</name><desc>Generated 2026-09-13 17:42 from Kartverket 10 m terrain. Ascent lines are least-cost terrain paths under 35°, not verified routes. Not a snow-stability assessment.</desc></metadata><wpt lat="62.693514" lon="9.101260"><ele>651</ele><name>Car · Sprikltjønnknubben 1173 m</name></wpt><wpt lat="62.765725" lon="9.124903"><ele>1173</ele><name>Sprikltjønnknubben 1173 m</name></wpt><trk><name>Up · Sprikltjønnknubben 1173 m</name><desc>least-cost ascent: +934 m over 9021 m, max 33°, 0.4% on 30–35°, ≈4.59 h at 4 km/h + 400 m/h. Terrain possibility, not a checked route.</desc><trkseg><trkpt lat="62.693514" lon="9.101260"><ele>651</ele></trkpt><trkpt lat="62.693961" lon="9.101171"><ele>648</ele></trkpt><trkpt lat="62.694407" lon="9.101082"><ele>657</ele></trkpt><trkpt lat="62.694854" lon="9.100993"><ele>666</ele></trkpt><trkpt lat="62.695300" lon="9.100903"><ele>691</ele></trkpt><trkpt lat="62.695746" lon="9.100814"><ele>706</ele></trkpt><trkpt lat="62.696193" lon="9.100725"><ele>718</ele></trkpt><trkpt lat="62.696672" lon="9.101413"><ele>734</ele></trkpt><trkpt lat="62.697135" lon="9.101713"><ele>752</ele></trkpt><trkpt lat="62.697614" lon="9.102401"><ele>771</ele></trkpt><trkpt lat="62.698085" lon="9.102895"><ele>783</ele></trkpt><trkpt lat="62.698572" lon="9.103777"><ele>805</ele></trkpt><trkpt lat="62.699027" lon="9.103883"><ele>828</ele></trkpt><trkpt lat="62.699473" lon="9.103793"><ele>843</ele></trkpt><trkpt lat="62.699920" lon="9.103704"><ele>857</ele></trkpt><trkpt lat="62.700391" lon="9.104198"><ele>874</ele></trkpt><trkpt lat="62.700845" lon="9.104303"><ele>892</ele></trkpt><trkpt lat="62.701300" lon="9.104409"><ele>903</ele></trkpt><trkpt lat="62.701763" lon="9.104708"><ele>918</ele></trkpt><trkpt lat="62.702242" lon="9.105397"><ele>937</ele></trkpt><trkpt lat="62.702721" lon="9.106085"><ele>956</ele></trkpt><trkpt lat="62.703192" lon="9.106579"><ele>970</ele></trkpt><trkpt lat="62.703647" lon="9.106684"><ele>981</ele></trkpt><trkpt lat="62.704110" lon="9.106984"><ele>993</ele></trkpt><trkpt lat="62.704597" lon="9.107867"><ele>1015</ele></trkpt><trkpt lat="62.705084" lon="9.108750"><ele>1024</ele></trkpt><trkpt lat="62.705555" lon="9.109244"><ele>1039</ele></trkpt><trkpt lat="62.706002" lon="9.109155"><ele>1052</ele></trkpt><trkpt lat="62.706448" lon="9.109066"><ele>1059</ele></trkpt><trkpt lat="62.706894" lon="9.108977"><ele>1065</ele></trkpt><trkpt lat="62.707341" lon="9.108887"><ele>1068</ele></trkpt><trkpt lat="62.707787" lon="9.108798"><ele>1073</ele></trkpt><trkpt lat="62.708234" lon="9.108709"><ele>1073</ele></trkpt><trkpt lat="62.708680" lon="9.108620"><ele>1074</ele></trkpt><trkpt lat="62.709127" lon="9.108531"><ele>1083</ele></trkpt><trkpt lat="62.709573" lon="9.108442"><ele>1087</ele></trkpt><trkpt lat="62.710019" lon="9.108353"><ele>1094</ele></trkpt><trkpt lat="62.710466" lon="9.108263"><ele>1101</ele></trkpt><trkpt lat="62.710912" lon="9.108174"><ele>1106</ele></trkpt><trkpt lat="62.711359" lon="9.108085"><ele>1107</ele></trkpt><trkpt lat="62.711805" lon="9.107996"><ele>1106</ele></trkpt><trkpt lat="62.712268" lon="9.108296"><ele>1103</ele></trkpt><trkpt lat="62.712755" lon="9.109179"><ele>1106</ele></trkpt><trkpt lat="62.713242" lon="9.110062"><ele>1119</ele></trkpt><trkpt lat="62.713705" lon="9.110362"><ele>1124</ele></trkpt><trkpt lat="62.714152" lon="9.110273"><ele>1123</ele></trkpt><trkpt lat="62.714606" lon="9.110378"><ele>1135</ele></trkpt><trkpt lat="62.715053" lon="9.110289"><ele>1135</ele></trkpt><trkpt lat="62.715540" lon="9.111172"><ele>1131</ele></trkpt><trkpt lat="62.716027" lon="9.112056"><ele>1123</ele></trkpt><trkpt lat="62.716515" lon="9.112939"><ele>1116</ele></trkpt><trkpt lat="62.717002" lon="9.113822"><ele>1107</ele></trkpt><trkpt lat="62.717489" lon="9.114706"><ele>1104</ele></trkpt><trkpt lat="62.717977" lon="9.115589"><ele>1100</ele></trkpt><trkpt lat="62.718464" lon="9.116473"><ele>1093</ele></trkpt><trkpt lat="62.718951" lon="9.117356"><ele>1092</ele></trkpt><trkpt lat="62.719439" lon="9.118240"><ele>1089</ele></trkpt><trkpt lat="62.719926" lon="9.119123"><ele>1090</ele></trkpt><trkpt lat="62.720413" lon="9.120007"><ele>1090</ele></trkpt><trkpt lat="62.720900" lon="9.120890"><ele>1090</ele></trkpt><trkpt lat="62.721388" lon="9.121774"><ele>1095</ele></trkpt><trkpt lat="62.721875" lon="9.122658"><ele>1109</ele></trkpt><trkpt lat="62.722346" lon="9.123152"><ele>1126</ele></trkpt><trkpt lat="62.722792" lon="9.123063"><ele>1138</ele></trkpt><trkpt lat="62.723239" lon="9.122974"><ele>1141</ele></trkpt><trkpt lat="62.723685" lon="9.122885"><ele>1142</ele></trkpt><trkpt lat="62.724132" lon="9.122796"><ele>1144</ele></trkpt><trkpt lat="62.724578" lon="9.122707"><ele>1147</ele></trkpt><trkpt lat="62.725024" lon="9.122618"><ele>1149</ele></trkpt><trkpt lat="62.725471" lon="9.122529"><ele>1150</ele></trkpt><trkpt lat="62.725917" lon="9.122440"><ele>1149</ele></trkpt><trkpt lat="62.726364" lon="9.122351"><ele>1148</ele></trkpt><trkpt lat="62.726810" lon="9.122262"><ele>1147</ele></trkpt><trkpt lat="62.727256" lon="9.122173"><ele>1149</ele></trkpt><trkpt lat="62.727703" lon="9.122084"><ele>1153</ele></trkpt><trkpt lat="62.728149" lon="9.121995"><ele>1155</ele></trkpt><trkpt lat="62.728596" lon="9.121906"><ele>1160</ele></trkpt><trkpt lat="62.729042" lon="9.121817"><ele>1166</ele></trkpt><trkpt lat="62.729489" lon="9.121728"><ele>1166</ele></trkpt><trkpt lat="62.729968" lon="9.122417"><ele>1155</ele></trkpt><trkpt lat="62.730414" lon="9.122328"><ele>1151</ele></trkpt><trkpt lat="62.730869" lon="9.122434"><ele>1139</ele></trkpt><trkpt lat="62.731315" lon="9.122345"><ele>1129</ele></trkpt><trkpt lat="62.731762" lon="9.122256"><ele>1117</ele></trkpt><trkpt lat="62.732208" lon="9.122167"><ele>1108</ele></trkpt><trkpt lat="62.732654" lon="9.122078"><ele>1104</ele></trkpt><trkpt lat="62.733101" lon="9.121989"><ele>1106</ele></trkpt><trkpt lat="62.733547" lon="9.121900"><ele>1104</ele></trkpt><trkpt lat="62.733994" lon="9.121811"><ele>1107</ele></trkpt><trkpt lat="62.734440" lon="9.121722"><ele>1110</ele></trkpt><trkpt lat="62.734887" lon="9.121633"><ele>1114</ele></trkpt><trkpt lat="62.735341" lon="9.121738"><ele>1115</ele></trkpt><trkpt lat="62.735796" lon="9.121844"><ele>1118</ele></trkpt><trkpt lat="62.736242" lon="9.121755"><ele>1117</ele></trkpt><trkpt lat="62.736689" lon="9.121666"><ele>1115</ele></trkpt><trkpt lat="62.737135" lon="9.121577"><ele>1113</ele></trkpt><trkpt lat="62.737581" lon="9.121487"><ele>1109</ele></trkpt><trkpt lat="62.738028" lon="9.121398"><ele>1103</ele></trkpt><trkpt lat="62.738474" lon="9.121309"><ele>1097</ele></trkpt><trkpt lat="62.738921" lon="9.121220"><ele>1090</ele></trkpt><trkpt lat="62.739367" lon="9.121131"><ele>1088</ele></trkpt><trkpt lat="62.739813" lon="9.121042"><ele>1090</ele></trkpt><trkpt lat="62.740260" lon="9.120953"><ele>1083</ele></trkpt><trkpt lat="62.740706" lon="9.120864"><ele>1080</ele></trkpt><trkpt lat="62.741153" lon="9.120775"><ele>1077</ele></trkpt><trkpt lat="62.741599" lon="9.120686"><ele>1078</ele></trkpt><trkpt lat="62.742046" lon="9.120597"><ele>1077</ele></trkpt><trkpt lat="62.742492" lon="9.120507"><ele>1077</ele></trkpt><trkpt lat="62.742938" lon="9.120418"><ele>1069</ele></trkpt><trkpt lat="62.743385" lon="9.120329"><ele>1064</ele></trkpt><trkpt lat="62.743831" lon="9.120240"><ele>1056</ele></trkpt><trkpt lat="62.744278" lon="9.120151"><ele>1052</ele></trkpt><trkpt lat="62.744724" lon="9.120062"><ele>1051</ele></trkpt><trkpt lat="62.745171" lon="9.119973"><ele>1050</ele></trkpt><trkpt lat="62.745617" lon="9.119884"><ele>1049</ele></trkpt><trkpt lat="62.746063" lon="9.119795"><ele>1045</ele></trkpt><trkpt lat="62.746510" lon="9.119705"><ele>1042</ele></trkpt><trkpt lat="62.746956" lon="9.119616"><ele>1036</ele></trkpt><trkpt lat="62.747403" lon="9.119527"><ele>1031</ele></trkpt><trkpt lat="62.747849" lon="9.119438"><ele>1027</ele></trkpt><trkpt lat="62.748295" lon="9.119349"><ele>1024</ele></trkpt><trkpt lat="62.748742" lon="9.119260"><ele>1018</ele></trkpt><trkpt lat="62.749188" lon="9.119171"><ele>1008</ele></trkpt><trkpt lat="62.749635" lon="9.119081"><ele>994</ele></trkpt><trkpt lat="62.750106" lon="9.119576"><ele>980</ele></trkpt><trkpt lat="62.750568" lon="9.119877"><ele>964</ele></trkpt><trkpt lat="62.751015" lon="9.119788"><ele>955</ele></trkpt><trkpt lat="62.751461" lon="9.119698"><ele>943</ele></trkpt><trkpt lat="62.751908" lon="9.119609"><ele>924</ele></trkpt><trkpt lat="62.752354" lon="9.119520"><ele>909</ele></trkpt><trkpt lat="62.752800" lon="9.119431"><ele>895</ele></trkpt><trkpt lat="62.753247" lon="9.119342"><ele>881</ele></trkpt><trkpt lat="62.753693" lon="9.119253"><ele>866</ele></trkpt><trkpt lat="62.754140" lon="9.119163"><ele>863</ele></trkpt><trkpt lat="62.754586" lon="9.119074"><ele>857</ele></trkpt><trkpt lat="62.755033" lon="9.118985"><ele>851</ele></trkpt><trkpt lat="62.755479" lon="9.118896"><ele>854</ele></trkpt><trkpt lat="62.755925" lon="9.118807"><ele>849</ele></trkpt><trkpt lat="62.756372" lon="9.118718"><ele>853</ele></trkpt><trkpt lat="62.756818" lon="9.118628"><ele>854</ele></trkpt><trkpt lat="62.757265" lon="9.118539"><ele>858</ele></trkpt><trkpt lat="62.757711" lon="9.118450"><ele>862</ele></trkpt><trkpt lat="62.758157" lon="9.118361"><ele>871</ele></trkpt><trkpt lat="62.758604" lon="9.118272"><ele>880</ele></trkpt><trkpt lat="62.759050" lon="9.118182"><ele>887</ele></trkpt><trkpt lat="62.759497" lon="9.118093"><ele>897</ele></trkpt><trkpt lat="62.759943" lon="9.118004"><ele>908</ele></trkpt><trkpt lat="62.760390" lon="9.117915"><ele>916</ele></trkpt><trkpt lat="62.760836" lon="9.117826"><ele>932</ele></trkpt><trkpt lat="62.761282" lon="9.117736"><ele>946</ele></trkpt><trkpt lat="62.761729" lon="9.117647"><ele>963</ele></trkpt><trkpt lat="62.762192" lon="9.117948"><ele>980</ele></trkpt><trkpt lat="62.762671" lon="9.118638"><ele>1002</ele></trkpt><trkpt lat="62.763150" lon="9.119328"><ele>1028</ele></trkpt><trkpt lat="62.763637" lon="9.120212"><ele>1043</ele></trkpt><trkpt lat="62.763970" lon="9.119557"><ele>1072</ele></trkpt><trkpt lat="62.764424" lon="9.119662"><ele>1095</ele></trkpt><trkpt lat="62.764895" lon="9.120157"><ele>1124</ele></trkpt><trkpt lat="62.765115" lon="9.121096"><ele>1136</ele></trkpt><trkpt lat="62.765334" lon="9.122034"><ele>1146</ele></trkpt><trkpt lat="62.765464" lon="9.122991"><ele>1156</ele></trkpt><trkpt lat="62.765594" lon="9.123947"><ele>1167</ele></trkpt><trkpt lat="62.765725" lon="9.124903"><ele>1173</ele></trkpt><trkpt lat="62.765725" lon="9.124903"><ele>1173</ele></trkpt></trkseg></trk><wpt lat="62.767197" lon="9.140719"><ele>804</ele><name>Run end · Sprikltjønnknubben 1173 m</name></wpt><trk><name>Down · Sprikltjønnknubben 1173 m</name><desc>fall-line run: 810 m of 20–30°, 328 m drop, aspect 92°, max 30°, 1.4% ≥30°; ends 8.46 km from the car.</desc><trkseg><trkpt lat="62.765725" lon="9.124903"><ele>1173</ele></trkpt><trkpt lat="62.766610" lon="9.126691"><ele>1132</ele></trkpt><trkpt lat="62.766634" lon="9.127276"><ele>1119</ele></trkpt><trkpt lat="62.766659" lon="9.127860"><ele>1103</ele></trkpt><trkpt lat="62.766683" lon="9.128445"><ele>1087</ele></trkpt><trkpt lat="62.766619" lon="9.129047"><ele>1071</ele></trkpt><trkpt lat="62.766643" lon="9.129631"><ele>1057</ele></trkpt><trkpt lat="62.766667" lon="9.130216"><ele>1043</ele></trkpt><trkpt lat="62.766692" lon="9.130800"><ele>1027</ele></trkpt><trkpt lat="62.766716" lon="9.131385"><ele>1013</ele></trkpt><trkpt lat="62.766741" lon="9.131969"><ele>999</ele></trkpt><trkpt lat="62.766765" lon="9.132554"><ele>984</ele></trkpt><trkpt lat="62.766790" lon="9.133138"><ele>970</ele></trkpt><trkpt lat="62.766904" lon="9.133705"><ele>956</ele></trkpt><trkpt lat="62.766928" lon="9.134290"><ele>944</ele></trkpt><trkpt lat="62.766953" lon="9.134874"><ele>928</ele></trkpt><trkpt lat="62.766977" lon="9.135459"><ele>917</ele></trkpt><trkpt lat="62.767002" lon="9.136043"><ele>904</ele></trkpt><trkpt lat="62.767026" lon="9.136628"><ele>890</ele></trkpt><trkpt lat="62.767050" lon="9.137212"><ele>877</ele></trkpt><trkpt lat="62.767075" lon="9.137797"><ele>865</ele></trkpt><trkpt lat="62.767099" lon="9.138381"><ele>854</ele></trkpt><trkpt lat="62.767124" lon="9.138966"><ele>841</ele></trkpt><trkpt lat="62.767148" lon="9.139550"><ele>830</ele></trkpt><trkpt lat="62.767173" lon="9.140135"><ele>818</ele></trkpt><trkpt lat="62.767197" lon="9.140719"><ele>804</ele></trkpt><trkpt lat="62.767197" lon="9.140719"><ele>804</ele></trkpt></trkseg></trk></gpx>