<?xml version="1.0" encoding="UTF-8"?>
<gpx version="1.1" creator="Rando toppturs" xmlns="http://www.topografix.com/GPX/1/1"><metadata><name>020 Fremre Grynningshøa 1481 m</name><desc>This is an automatically generated list. I have not checked them all. Do not attempt these if you're a beginner. Generated 2026-09-13 17:42 from Kartverket 10 m terrain. Ascent lines are least-cost terrain paths under 35°, not verified routes. Not a snow-stability assessment.</desc></metadata><wpt lat="62.694114" lon="9.045283"><ele>732</ele><name>Car · Fremre Grynningshøa 1481 m</name></wpt><wpt lat="62.617915" lon="9.021513"><ele>1481</ele><name>Fremre Grynningshøa 1481 m</name></wpt><trk><name>Up · Fremre Grynningshøa 1481 m</name><desc>least-cost ascent: +1020 m over 9363 m, max 30°, 0.0% on 30–35°, ≈4.89 h at 4 km/h + 400 m/h. Terrain possibility, not a checked route.</desc><trkseg><trkpt lat="62.694114" lon="9.045283"><ele>732</ele></trkpt><trkpt lat="62.693667" lon="9.045373"><ele>723</ele></trkpt><trkpt lat="62.693229" lon="9.045657"><ele>735</ele></trkpt><trkpt lat="62.692783" lon="9.045747"><ele>744</ele></trkpt><trkpt lat="62.692336" lon="9.045838"><ele>760</ele></trkpt><trkpt lat="62.691890" lon="9.045928"><ele>758</ele></trkpt><trkpt lat="62.691444" lon="9.046018"><ele>763</ele></trkpt><trkpt lat="62.690997" lon="9.046108"><ele>776</ele></trkpt><trkpt lat="62.690551" lon="9.046198"><ele>778</ele></trkpt><trkpt lat="62.690105" lon="9.046288"><ele>786</ele></trkpt><trkpt lat="62.689658" lon="9.046378"><ele>787</ele></trkpt><trkpt lat="62.689212" lon="9.046468"><ele>791</ele></trkpt><trkpt lat="62.688765" lon="9.046558"><ele>791</ele></trkpt><trkpt lat="62.688319" lon="9.046648"><ele>799</ele></trkpt><trkpt lat="62.687881" lon="9.046932"><ele>819</ele></trkpt><trkpt lat="62.687435" lon="9.047022"><ele>832</ele></trkpt><trkpt lat="62.686988" lon="9.047112"><ele>839</ele></trkpt><trkpt lat="62.686542" lon="9.047202"><ele>842</ele></trkpt><trkpt lat="62.686096" lon="9.047292"><ele>837</ele></trkpt><trkpt lat="62.685649" lon="9.047382"><ele>831</ele></trkpt><trkpt lat="62.685203" lon="9.047472"><ele>834</ele></trkpt><trkpt lat="62.684756" lon="9.047562"><ele>838</ele></trkpt><trkpt lat="62.684310" lon="9.047652"><ele>845</ele></trkpt><trkpt lat="62.683864" lon="9.047742"><ele>847</ele></trkpt><trkpt lat="62.683417" lon="9.047832"><ele>847</ele></trkpt><trkpt lat="62.682971" lon="9.047922"><ele>850</ele></trkpt><trkpt lat="62.682525" lon="9.048012"><ele>853</ele></trkpt><trkpt lat="62.682078" lon="9.048102"><ele>856</ele></trkpt><trkpt lat="62.681632" lon="9.048192"><ele>862</ele></trkpt><trkpt lat="62.681186" lon="9.048282"><ele>869</ele></trkpt><trkpt lat="62.680739" lon="9.048372"><ele>875</ele></trkpt><trkpt lat="62.680293" lon="9.048462"><ele>880</ele></trkpt><trkpt lat="62.679846" lon="9.048552"><ele>881</ele></trkpt><trkpt lat="62.679400" lon="9.048642"><ele>886</ele></trkpt><trkpt lat="62.678954" lon="9.048732"><ele>887</ele></trkpt><trkpt lat="62.678507" lon="9.048821"><ele>888</ele></trkpt><trkpt lat="62.678061" lon="9.048911"><ele>887</ele></trkpt><trkpt lat="62.677615" lon="9.049001"><ele>878</ele></trkpt><trkpt lat="62.677168" lon="9.049091"><ele>875</ele></trkpt><trkpt lat="62.676722" lon="9.049181"><ele>873</ele></trkpt><trkpt lat="62.676275" lon="9.049271"><ele>868</ele></trkpt><trkpt lat="62.675829" lon="9.049361"><ele>863</ele></trkpt><trkpt lat="62.675383" lon="9.049451"><ele>863</ele></trkpt><trkpt lat="62.674936" lon="9.049541"><ele>864</ele></trkpt><trkpt lat="62.674490" lon="9.049631"><ele>870</ele></trkpt><trkpt lat="62.674044" lon="9.049721"><ele>878</ele></trkpt><trkpt lat="62.673597" lon="9.049811"><ele>884</ele></trkpt><trkpt lat="62.673151" lon="9.049901"><ele>889</ele></trkpt><trkpt lat="62.672705" lon="9.049990"><ele>895</ele></trkpt><trkpt lat="62.672258" lon="9.050080"><ele>901</ele></trkpt><trkpt lat="62.671812" lon="9.050170"><ele>907</ele></trkpt><trkpt lat="62.671374" lon="9.050454"><ele>912</ele></trkpt><trkpt lat="62.670927" lon="9.050544"><ele>919</ele></trkpt><trkpt lat="62.670481" lon="9.050634"><ele>927</ele></trkpt><trkpt lat="62.670035" lon="9.050724"><ele>938</ele></trkpt><trkpt lat="62.669588" lon="9.050814"><ele>949</ele></trkpt><trkpt lat="62.669142" lon="9.050904"><ele>959</ele></trkpt><trkpt lat="62.668696" lon="9.050994"><ele>973</ele></trkpt><trkpt lat="62.668257" lon="9.051278"><ele>986</ele></trkpt><trkpt lat="62.667819" lon="9.051562"><ele>1002</ele></trkpt><trkpt lat="62.667373" lon="9.051652"><ele>1014</ele></trkpt><trkpt lat="62.666935" lon="9.051936"><ele>1030</ele></trkpt><trkpt lat="62.666488" lon="9.052025"><ele>1041</ele></trkpt><trkpt lat="62.666042" lon="9.052115"><ele>1049</ele></trkpt><trkpt lat="62.665596" lon="9.052205"><ele>1058</ele></trkpt><trkpt lat="62.665149" lon="9.052295"><ele>1067</ele></trkpt><trkpt lat="62.664703" lon="9.052385"><ele>1077</ele></trkpt><trkpt lat="62.664257" lon="9.052475"><ele>1086</ele></trkpt><trkpt lat="62.663810" lon="9.052564"><ele>1095</ele></trkpt><trkpt lat="62.663364" lon="9.052654"><ele>1105</ele></trkpt><trkpt lat="62.662918" lon="9.052744"><ele>1114</ele></trkpt><trkpt lat="62.662471" lon="9.052834"><ele>1122</ele></trkpt><trkpt lat="62.662025" lon="9.052924"><ele>1131</ele></trkpt><trkpt lat="62.661578" lon="9.053013"><ele>1140</ele></trkpt><trkpt lat="62.661132" lon="9.053103"><ele>1150</ele></trkpt><trkpt lat="62.660686" lon="9.053193"><ele>1160</ele></trkpt><trkpt lat="62.660239" lon="9.053283"><ele>1167</ele></trkpt><trkpt lat="62.659793" lon="9.053373"><ele>1178</ele></trkpt><trkpt lat="62.659347" lon="9.053463"><ele>1189</ele></trkpt><trkpt lat="62.658884" lon="9.053164"><ele>1207</ele></trkpt><trkpt lat="62.658396" lon="9.052283"><ele>1226</ele></trkpt><trkpt lat="62.657908" lon="9.051403"><ele>1235</ele></trkpt><trkpt lat="62.657421" lon="9.050522"><ele>1243</ele></trkpt><trkpt lat="62.656933" lon="9.049642"><ele>1261</ele></trkpt><trkpt lat="62.656454" lon="9.048955"><ele>1283</ele></trkpt><trkpt lat="62.655974" lon="9.048269"><ele>1306</ele></trkpt><trkpt lat="62.655528" lon="9.048358"><ele>1316</ele></trkpt><trkpt lat="62.655081" lon="9.048448"><ele>1329</ele></trkpt><trkpt lat="62.654635" lon="9.048538"><ele>1339</ele></trkpt><trkpt lat="62.654172" lon="9.048240"><ele>1352</ele></trkpt><trkpt lat="62.653709" lon="9.047942"><ele>1368</ele></trkpt><trkpt lat="62.653263" lon="9.048031"><ele>1377</ele></trkpt><trkpt lat="62.652816" lon="9.048121"><ele>1382</ele></trkpt><trkpt lat="62.652345" lon="9.047629"><ele>1389</ele></trkpt><trkpt lat="62.651858" lon="9.046749"><ele>1400</ele></trkpt><trkpt lat="62.651370" lon="9.045868"><ele>1417</ele></trkpt><trkpt lat="62.650890" lon="9.045182"><ele>1426</ele></trkpt><trkpt lat="62.650436" lon="9.045078"><ele>1435</ele></trkpt><trkpt lat="62.649989" lon="9.045168"><ele>1437</ele></trkpt><trkpt lat="62.649543" lon="9.045258"><ele>1435</ele></trkpt><trkpt lat="62.649097" lon="9.045347"><ele>1434</ele></trkpt><trkpt lat="62.648650" lon="9.045437"><ele>1434</ele></trkpt><trkpt lat="62.648204" lon="9.045527"><ele>1437</ele></trkpt><trkpt lat="62.647758" lon="9.045617"><ele>1441</ele></trkpt><trkpt lat="62.647311" lon="9.045707"><ele>1442</ele></trkpt><trkpt lat="62.646865" lon="9.045797"><ele>1446</ele></trkpt><trkpt lat="62.646418" lon="9.045887"><ele>1449</ele></trkpt><trkpt lat="62.645972" lon="9.045977"><ele>1451</ele></trkpt><trkpt lat="62.645526" lon="9.046066"><ele>1454</ele></trkpt><trkpt lat="62.645079" lon="9.046156"><ele>1455</ele></trkpt><trkpt lat="62.644633" lon="9.046246"><ele>1450</ele></trkpt><trkpt lat="62.644187" lon="9.046336"><ele>1446</ele></trkpt><trkpt lat="62.643740" lon="9.046426"><ele>1442</ele></trkpt><trkpt lat="62.643294" lon="9.046516"><ele>1440</ele></trkpt><trkpt lat="62.642823" lon="9.046023"><ele>1444</ele></trkpt><trkpt lat="62.642335" lon="9.045143"><ele>1451</ele></trkpt><trkpt lat="62.641847" lon="9.044263"><ele>1458</ele></trkpt><trkpt lat="62.641360" lon="9.043383"><ele>1456</ele></trkpt><trkpt lat="62.640872" lon="9.042503"><ele>1457</ele></trkpt><trkpt lat="62.640384" lon="9.041623"><ele>1460</ele></trkpt><trkpt lat="62.639896" lon="9.040743"><ele>1462</ele></trkpt><trkpt lat="62.639409" lon="9.039863"><ele>1460</ele></trkpt><trkpt lat="62.638921" lon="9.038984"><ele>1458</ele></trkpt><trkpt lat="62.638433" lon="9.038104"><ele>1456</ele></trkpt><trkpt lat="62.637945" lon="9.037224"><ele>1449</ele></trkpt><trkpt lat="62.637482" lon="9.036926"><ele>1439</ele></trkpt><trkpt lat="62.637003" lon="9.036240"><ele>1429</ele></trkpt><trkpt lat="62.636515" lon="9.035360"><ele>1421</ele></trkpt><trkpt lat="62.636027" lon="9.034481"><ele>1413</ele></trkpt><trkpt lat="62.635540" lon="9.033601"><ele>1405</ele></trkpt><trkpt lat="62.635052" lon="9.032721"><ele>1400</ele></trkpt><trkpt lat="62.634564" lon="9.031841"><ele>1390</ele></trkpt><trkpt lat="62.634118" lon="9.031931"><ele>1368</ele></trkpt><trkpt lat="62.633671" lon="9.032022"><ele>1341</ele></trkpt><trkpt lat="62.633225" lon="9.032112"><ele>1319</ele></trkpt><trkpt lat="62.632779" lon="9.032202"><ele>1315</ele></trkpt><trkpt lat="62.632332" lon="9.032292"><ele>1317</ele></trkpt><trkpt lat="62.631886" lon="9.032382"><ele>1320</ele></trkpt><trkpt lat="62.631440" lon="9.032472"><ele>1314</ele></trkpt><trkpt lat="62.630993" lon="9.032562"><ele>1315</ele></trkpt><trkpt lat="62.630547" lon="9.032652"><ele>1318</ele></trkpt><trkpt lat="62.630084" lon="9.032354"><ele>1314</ele></trkpt><trkpt lat="62.629596" lon="9.031474"><ele>1323</ele></trkpt><trkpt lat="62.629108" lon="9.030595"><ele>1334</ele></trkpt><trkpt lat="62.628645" lon="9.030297"><ele>1334</ele></trkpt><trkpt lat="62.628174" lon="9.029805"><ele>1339</ele></trkpt><trkpt lat="62.627695" lon="9.029120"><ele>1349</ele></trkpt><trkpt lat="62.627215" lon="9.028434"><ele>1360</ele></trkpt><trkpt lat="62.626752" lon="9.028137"><ele>1362</ele></trkpt><trkpt lat="62.626298" lon="9.028033"><ele>1359</ele></trkpt><trkpt lat="62.625843" lon="9.027929"><ele>1356</ele></trkpt><trkpt lat="62.625397" lon="9.028019"><ele>1358</ele></trkpt><trkpt lat="62.624950" lon="9.028109"><ele>1361</ele></trkpt><trkpt lat="62.624504" lon="9.028199"><ele>1366</ele></trkpt><trkpt lat="62.624041" lon="9.027901"><ele>1379</ele></trkpt><trkpt lat="62.623553" lon="9.027022"><ele>1401</ele></trkpt><trkpt lat="62.623090" lon="9.026725"><ele>1413</ele></trkpt><trkpt lat="62.622619" lon="9.026233"><ele>1418</ele></trkpt><trkpt lat="62.622148" lon="9.025742"><ele>1422</ele></trkpt><trkpt lat="62.621668" lon="9.025056"><ele>1429</ele></trkpt><trkpt lat="62.621197" lon="9.024565"><ele>1433</ele></trkpt><trkpt lat="62.620734" lon="9.024267"><ele>1436</ele></trkpt><trkpt lat="62.620263" lon="9.023776"><ele>1442</ele></trkpt><trkpt lat="62.619800" lon="9.023478"><ele>1447</ele></trkpt><trkpt lat="62.619329" lon="9.022987"><ele>1463</ele></trkpt><trkpt lat="62.618849" lon="9.022302"><ele>1472</ele></trkpt><trkpt lat="62.618386" lon="9.022004"><ele>1473</ele></trkpt><trkpt lat="62.617915" lon="9.021513"><ele>1481</ele></trkpt><trkpt lat="62.617915" lon="9.021513"><ele>1481</ele></trkpt></trkseg></trk><wpt lat="62.606052" lon="9.009446"><ele>962</ele><name>Run end · Fremre Grynningshøa 1481 m</name></wpt><trk><name>Down · Fremre Grynningshøa 1481 m</name><desc>fall-line run: 802 m of 20–30°, 380 m drop, aspect 217°, max 30°, 0.8% ≥30°; ends 9.99 km from the car.</desc><trkseg><trkpt lat="62.617915" lon="9.021513"><ele>1481</ele></trkpt><trkpt lat="62.611898" lon="9.019795"><ele>1342</ele></trkpt><trkpt lat="62.611647" lon="9.020237"><ele>1322</ele></trkpt><trkpt lat="62.611388" lon="9.020485"><ele>1311</ele></trkpt><trkpt lat="62.611128" lon="9.020733"><ele>1301</ele></trkpt><trkpt lat="62.610869" lon="9.020980"><ele>1293</ele></trkpt><trkpt lat="62.610626" lon="9.021616"><ele>1284</ele></trkpt><trkpt lat="62.610383" lon="9.022251"><ele>1271</ele></trkpt><trkpt lat="62.610140" lon="9.022887"><ele>1261</ele></trkpt><trkpt lat="62.609897" lon="9.023522"><ele>1255</ele></trkpt><trkpt lat="62.609629" lon="9.023576"><ele>1250</ele></trkpt><trkpt lat="62.609362" lon="9.023630"><ele>1239</ele></trkpt><trkpt lat="62.609094" lon="9.023684"><ele>1226</ele></trkpt><trkpt lat="62.608826" lon="9.023738"><ele>1217</ele></trkpt><trkpt lat="62.608558" lon="9.023792"><ele>1204</ele></trkpt><trkpt lat="62.608290" lon="9.023846"><ele>1190</ele></trkpt><trkpt lat="62.608022" lon="9.023900"><ele>1180</ele></trkpt><trkpt lat="62.607755" lon="9.023954"><ele>1174</ele></trkpt><trkpt lat="62.607479" lon="9.023814"><ele>1161</ele></trkpt><trkpt lat="62.607194" lon="9.023481"><ele>1149</ele></trkpt><trkpt lat="62.606991" lon="9.022936"><ele>1138</ele></trkpt><trkpt lat="62.606966" lon="9.022354"><ele>1132</ele></trkpt><trkpt lat="62.606941" lon="9.021773"><ele>1127</ele></trkpt><trkpt lat="62.607005" lon="9.021174"><ele>1122</ele></trkpt><trkpt lat="62.606891" lon="9.020611"><ele>1116</ele></trkpt><trkpt lat="62.606866" lon="9.020029"><ele>1110</ele></trkpt><trkpt lat="62.606841" lon="9.019448"><ele>1104</ele></trkpt><trkpt lat="62.606906" lon="9.018849"><ele>1097</ele></trkpt><trkpt lat="62.606881" lon="9.018268"><ele>1091</ele></trkpt><trkpt lat="62.606945" lon="9.017668"><ele>1086</ele></trkpt><trkpt lat="62.606920" lon="9.017087"><ele>1081</ele></trkpt><trkpt lat="62.606895" lon="9.016506"><ele>1075</ele></trkpt><trkpt lat="62.606870" lon="9.015925"><ele>1067</ele></trkpt><trkpt lat="62.606935" lon="9.015325"><ele>1059</ele></trkpt><trkpt lat="62.606910" lon="9.014744"><ele>1053</ele></trkpt><trkpt lat="62.606885" lon="9.014163"><ele>1046</ele></trkpt><trkpt lat="62.606860" lon="9.013582"><ele>1040</ele></trkpt><trkpt lat="62.606746" lon="9.013019"><ele>1035</ele></trkpt><trkpt lat="62.606721" lon="9.012437"><ele>1027</ele></trkpt><trkpt lat="62.606607" lon="9.011874"><ele>1016</ele></trkpt><trkpt lat="62.606403" lon="9.011329"><ele>1006</ele></trkpt><trkpt lat="62.606289" lon="9.010766"><ele>993</ele></trkpt><trkpt lat="62.606175" lon="9.010203"><ele>980</ele></trkpt><trkpt lat="62.606150" lon="9.009621"><ele>969</ele></trkpt><trkpt lat="62.606052" lon="9.009446"><ele>962</ele></trkpt></trkseg></trk></gpx>