<?xml version="1.0" encoding="UTF-8"?>
<gpx version="1.1" creator="Rando toppturs" xmlns="http://www.topografix.com/GPX/1/1"><metadata><name>022 Syndre Knutshøa 1691 m</name><desc>Generated 2026-09-13 17:42 from Kartverket 10 m terrain. Ascent lines are least-cost terrain paths under 35°, not verified routes. Not a snow-stability assessment.</desc></metadata><wpt lat="62.305304" lon="9.607585"><ele>886</ele><name>Car · Syndre Knutshøa 1691 m</name></wpt><wpt lat="62.306244" lon="9.685526"><ele>1691</ele><name>Syndre Knutshøa 1691 m</name></wpt><trk><name>Up · Syndre Knutshøa 1691 m</name><desc>least-cost ascent: +806 m over 4303 m, max 28°, 0.0% on 30–35°, ≈3.09 h at 4 km/h + 400 m/h. Terrain possibility, not a checked route.</desc><trkseg><trkpt lat="62.305304" lon="9.607585"><ele>886</ele></trkpt><trkpt lat="62.304894" lon="9.608625"><ele>901</ele></trkpt><trkpt lat="62.304664" lon="9.609633"><ele>917</ele></trkpt><trkpt lat="62.304433" lon="9.610641"><ele>933</ele></trkpt><trkpt lat="62.304113" lon="9.611665"><ele>946</ele></trkpt><trkpt lat="62.303971" lon="9.612657"><ele>969</ele></trkpt><trkpt lat="62.303919" lon="9.613633"><ele>986</ele></trkpt><trkpt lat="62.303957" lon="9.614593"><ele>1006</ele></trkpt><trkpt lat="62.303994" lon="9.615553"><ele>1021</ele></trkpt><trkpt lat="62.303674" lon="9.616577"><ele>1039</ele></trkpt><trkpt lat="62.303711" lon="9.617537"><ele>1051</ele></trkpt><trkpt lat="62.303748" lon="9.618497"><ele>1062</ele></trkpt><trkpt lat="62.303785" lon="9.619457"><ele>1074</ele></trkpt><trkpt lat="62.303823" lon="9.620417"><ele>1087</ele></trkpt><trkpt lat="62.303860" lon="9.621377"><ele>1096</ele></trkpt><trkpt lat="62.303897" lon="9.622337"><ele>1105</ele></trkpt><trkpt lat="62.303934" lon="9.623297"><ele>1114</ele></trkpt><trkpt lat="62.303972" lon="9.624257"><ele>1126</ele></trkpt><trkpt lat="62.304009" lon="9.625217"><ele>1137</ele></trkpt><trkpt lat="62.304046" lon="9.626177"><ele>1146</ele></trkpt><trkpt lat="62.304083" lon="9.627137"><ele>1153</ele></trkpt><trkpt lat="62.304121" lon="9.628097"><ele>1161</ele></trkpt><trkpt lat="62.304158" lon="9.629057"><ele>1171</ele></trkpt><trkpt lat="62.304195" lon="9.630017"><ele>1181</ele></trkpt><trkpt lat="62.304232" lon="9.630977"><ele>1189</ele></trkpt><trkpt lat="62.304269" lon="9.631937"><ele>1198</ele></trkpt><trkpt lat="62.304306" lon="9.632897"><ele>1205</ele></trkpt><trkpt lat="62.304344" lon="9.633857"><ele>1210</ele></trkpt><trkpt lat="62.304381" lon="9.634817"><ele>1216</ele></trkpt><trkpt lat="62.304418" lon="9.635777"><ele>1225</ele></trkpt><trkpt lat="62.304455" lon="9.636737"><ele>1234</ele></trkpt><trkpt lat="62.304492" lon="9.637697"><ele>1241</ele></trkpt><trkpt lat="62.304529" lon="9.638657"><ele>1252</ele></trkpt><trkpt lat="62.304567" lon="9.639617"><ele>1260</ele></trkpt><trkpt lat="62.304604" lon="9.640577"><ele>1268</ele></trkpt><trkpt lat="62.304641" lon="9.641537"><ele>1275</ele></trkpt><trkpt lat="62.304678" lon="9.642497"><ele>1284</ele></trkpt><trkpt lat="62.304715" lon="9.643457"><ele>1293</ele></trkpt><trkpt lat="62.304752" lon="9.644418"><ele>1300</ele></trkpt><trkpt lat="62.304789" lon="9.645378"><ele>1311</ele></trkpt><trkpt lat="62.304826" lon="9.646338"><ele>1317</ele></trkpt><trkpt lat="62.304863" lon="9.647298"><ele>1323</ele></trkpt><trkpt lat="62.304900" lon="9.648258"><ele>1327</ele></trkpt><trkpt lat="62.304937" lon="9.649218"><ele>1332</ele></trkpt><trkpt lat="62.304974" lon="9.650178"><ele>1339</ele></trkpt><trkpt lat="62.305012" lon="9.651138"><ele>1345</ele></trkpt><trkpt lat="62.305049" lon="9.652098"><ele>1351</ele></trkpt><trkpt lat="62.305086" lon="9.653058"><ele>1358</ele></trkpt><trkpt lat="62.305123" lon="9.654018"><ele>1363</ele></trkpt><trkpt lat="62.305160" lon="9.654978"><ele>1370</ele></trkpt><trkpt lat="62.305197" lon="9.655938"><ele>1376</ele></trkpt><trkpt lat="62.305234" lon="9.656898"><ele>1379</ele></trkpt><trkpt lat="62.305271" lon="9.657858"><ele>1381</ele></trkpt><trkpt lat="62.305308" lon="9.658819"><ele>1387</ele></trkpt><trkpt lat="62.305345" lon="9.659779"><ele>1391</ele></trkpt><trkpt lat="62.305382" lon="9.660739"><ele>1400</ele></trkpt><trkpt lat="62.305419" lon="9.661699"><ele>1411</ele></trkpt><trkpt lat="62.305456" lon="9.662659"><ele>1422</ele></trkpt><trkpt lat="62.305493" lon="9.663619"><ele>1432</ele></trkpt><trkpt lat="62.305530" lon="9.664579"><ele>1441</ele></trkpt><trkpt lat="62.305566" lon="9.665539"><ele>1451</ele></trkpt><trkpt lat="62.305603" lon="9.666499"><ele>1462</ele></trkpt><trkpt lat="62.305640" lon="9.667459"><ele>1470</ele></trkpt><trkpt lat="62.305677" lon="9.668420"><ele>1481</ele></trkpt><trkpt lat="62.305714" lon="9.669380"><ele>1490</ele></trkpt><trkpt lat="62.305751" lon="9.670340"><ele>1497</ele></trkpt><trkpt lat="62.305788" lon="9.671300"><ele>1504</ele></trkpt><trkpt lat="62.305825" lon="9.672260"><ele>1511</ele></trkpt><trkpt lat="62.305683" lon="9.673252"><ele>1526</ele></trkpt><trkpt lat="62.305720" lon="9.674212"><ele>1538</ele></trkpt><trkpt lat="62.305489" lon="9.675220"><ele>1559</ele></trkpt><trkpt lat="62.305168" lon="9.676243"><ele>1582</ele></trkpt><trkpt lat="62.305116" lon="9.677219"><ele>1600</ele></trkpt><trkpt lat="62.305152" lon="9.678179"><ele>1618</ele></trkpt><trkpt lat="62.305189" lon="9.679139"><ele>1635</ele></trkpt><trkpt lat="62.305226" lon="9.680099"><ele>1651</ele></trkpt><trkpt lat="62.305263" lon="9.681060"><ele>1664</ele></trkpt><trkpt lat="62.305300" lon="9.682020"><ele>1673</ele></trkpt><trkpt lat="62.305337" lon="9.682980"><ele>1679</ele></trkpt><trkpt lat="62.305373" lon="9.683940"><ele>1686</ele></trkpt><trkpt lat="62.305857" lon="9.684821"><ele>1690</ele></trkpt><trkpt lat="62.306244" lon="9.685526"><ele>1691</ele></trkpt></trkseg></trk><wpt lat="62.298999" lon="9.698405"><ele>1302</ele><name>Run end · Syndre Knutshøa 1691 m</name></wpt><trk><name>Down · Syndre Knutshøa 1691 m</name><desc>fall-line run: 771 m of 20–30°, 331 m drop, aspect 114°, max 31°, 4.5% ≥30°; ends 4.77 km from the car.</desc><trkseg><trkpt lat="62.306244" lon="9.685526"><ele>1691</ele></trkpt><trkpt lat="62.301739" lon="9.685357"><ele>1633</ele></trkpt><trkpt lat="62.301492" lon="9.685980"><ele>1619</ele></trkpt><trkpt lat="62.301246" lon="9.686603"><ele>1603</ele></trkpt><trkpt lat="62.301000" lon="9.687227"><ele>1585</ele></trkpt><trkpt lat="62.300754" lon="9.687850"><ele>1568</ele></trkpt><trkpt lat="62.300776" lon="9.688426"><ele>1557</ele></trkpt><trkpt lat="62.300620" lon="9.689034"><ele>1544</ele></trkpt><trkpt lat="62.300463" lon="9.689641"><ele>1528</ele></trkpt><trkpt lat="62.300306" lon="9.690249"><ele>1510</ele></trkpt><trkpt lat="62.300060" lon="9.690872"><ele>1489</ele></trkpt><trkpt lat="62.299993" lon="9.691464"><ele>1472</ele></trkpt><trkpt lat="62.299836" lon="9.692072"><ele>1452</ele></trkpt><trkpt lat="62.299858" lon="9.692648"><ele>1437</ele></trkpt><trkpt lat="62.299880" lon="9.693224"><ele>1424</ele></trkpt><trkpt lat="62.299724" lon="9.693831"><ele>1408</ele></trkpt><trkpt lat="62.299656" lon="9.694423"><ele>1396</ele></trkpt><trkpt lat="62.299589" lon="9.695015"><ele>1385</ele></trkpt><trkpt lat="62.299611" lon="9.695591"><ele>1372</ele></trkpt><trkpt lat="62.299633" lon="9.696167"><ele>1359</ele></trkpt><trkpt lat="62.299476" lon="9.696774"><ele>1344</ele></trkpt><trkpt lat="62.299230" lon="9.697398"><ele>1327</ele></trkpt><trkpt lat="62.299163" lon="9.697989"><ele>1313</ele></trkpt><trkpt lat="62.298999" lon="9.698405"><ele>1302</ele></trkpt></trkseg></trk></gpx>