<?xml version="1.0" encoding="UTF-8"?>
<gpx version="1.1" creator="Rando toppturs" xmlns="http://www.topografix.com/GPX/1/1"><metadata><name>023 Stallhøa 1362 m</name><desc>This is an automatically generated list. I have not checked them all. Do not attempt these if you're a beginner. Generated 2026-09-13 17:42 from Kartverket 10 m terrain. Ascent lines are least-cost terrain paths under 35°, not verified routes. Not a snow-stability assessment.</desc></metadata><wpt lat="62.474898" lon="9.651015"><ele>875</ele><name>Car · Stallhøa 1362 m</name></wpt><wpt lat="62.464384" lon="9.635018"><ele>1362</ele><name>Stallhøa 1362 m</name></wpt><trk><name>Up · Stallhøa 1362 m</name><desc>least-cost ascent: +488 m over 1690 m, max 35°, 2.4% on 30–35°, ≈1.64 h at 4 km/h + 400 m/h. Terrain possibility, not a checked route.</desc><trkseg><trkpt lat="62.474898" lon="9.651015"><ele>875</ele></trkpt><trkpt lat="62.474422" lon="9.650322"><ele>880</ele></trkpt><trkpt lat="62.473938" lon="9.649437"><ele>893</ele></trkpt><trkpt lat="62.473543" lon="9.648536"><ele>908</ele></trkpt><trkpt lat="62.473238" lon="9.647618"><ele>923</ele></trkpt><trkpt lat="62.472754" lon="9.646733"><ele>943</ele></trkpt><trkpt lat="62.472359" lon="9.645832"><ele>962</ele></trkpt><trkpt lat="62.472144" lon="9.644899"><ele>979</ele></trkpt><trkpt lat="62.471838" lon="9.643981"><ele>998</ele></trkpt><trkpt lat="62.471444" lon="9.643080"><ele>1021</ele></trkpt><trkpt lat="62.470960" lon="9.642195"><ele>1042</ele></trkpt><trkpt lat="62.470476" lon="9.641310"><ele>1066</ele></trkpt><trkpt lat="62.469992" lon="9.640425"><ele>1091</ele></trkpt><trkpt lat="62.469515" lon="9.639733"><ele>1107</ele></trkpt><trkpt lat="62.469031" lon="9.638848"><ele>1127</ele></trkpt><trkpt lat="62.468547" lon="9.637963"><ele>1147</ele></trkpt><trkpt lat="62.468242" lon="9.637046"><ele>1170</ele></trkpt><trkpt lat="62.467765" lon="9.636354"><ele>1194</ele></trkpt><trkpt lat="62.467281" lon="9.635469"><ele>1217</ele></trkpt><trkpt lat="62.466819" lon="9.635163"><ele>1239</ele></trkpt><trkpt lat="62.466380" lon="9.635437"><ele>1267</ele></trkpt><trkpt lat="62.465911" lon="9.634938"><ele>1281</ele></trkpt><trkpt lat="62.465464" lon="9.635018"><ele>1304</ele></trkpt><trkpt lat="62.465144" lon="9.636048"><ele>1339</ele></trkpt><trkpt lat="62.464675" lon="9.635549"><ele>1358</ele></trkpt><trkpt lat="62.464384" lon="9.635018"><ele>1362</ele></trkpt></trkseg></trk><wpt lat="62.473431" lon="9.650306"><ele>896</ele><name>Run end · Stallhøa 1362 m</name></wpt><trk><name>Down · Stallhøa 1362 m</name><desc>fall-line run: 770 m of 20–30°, 400 m drop, aspect 51°, max 31°, 1.7% ≥30°; ends 0.17 km from the car.</desc><trkseg><trkpt lat="62.464384" lon="9.635018"><ele>1362</ele></trkpt><trkpt lat="62.465546" lon="9.634809"><ele>1296</ele></trkpt><trkpt lat="62.465792" lon="9.634182"><ele>1277</ele></trkpt><trkpt lat="62.466037" lon="9.633555"><ele>1256</ele></trkpt><trkpt lat="62.466283" lon="9.632927"><ele>1237</ele></trkpt><trkpt lat="62.466544" lon="9.632686"><ele>1231</ele></trkpt><trkpt lat="62.466819" lon="9.632831"><ele>1229</ele></trkpt><trkpt lat="62.467110" lon="9.633362"><ele>1226</ele></trkpt><trkpt lat="62.467400" lon="9.633893"><ele>1219</ele></trkpt><trkpt lat="62.467512" lon="9.634456"><ele>1215</ele></trkpt><trkpt lat="62.467713" lon="9.635003"><ele>1211</ele></trkpt><trkpt lat="62.467735" lon="9.635582"><ele>1205</ele></trkpt><trkpt lat="62.467936" lon="9.636129"><ele>1191</ele></trkpt><trkpt lat="62.468137" lon="9.636676"><ele>1177</ele></trkpt><trkpt lat="62.468339" lon="9.637223"><ele>1166</ele></trkpt><trkpt lat="62.468540" lon="9.637770"><ele>1149</ele></trkpt><trkpt lat="62.468741" lon="9.638317"><ele>1138</ele></trkpt><trkpt lat="62.468942" lon="9.638864"><ele>1128</ele></trkpt><trkpt lat="62.469053" lon="9.639427"><ele>1119</ele></trkpt><trkpt lat="62.469076" lon="9.640006"><ele>1111</ele></trkpt><trkpt lat="62.469366" lon="9.640537"><ele>1097</ele></trkpt><trkpt lat="62.469656" lon="9.641068"><ele>1077</ele></trkpt><trkpt lat="62.469858" lon="9.641615"><ele>1063</ele></trkpt><trkpt lat="62.470059" lon="9.642163"><ele>1049</ele></trkpt><trkpt lat="62.470260" lon="9.642710"><ele>1036</ele></trkpt><trkpt lat="62.470461" lon="9.643257"><ele>1026</ele></trkpt><trkpt lat="62.470572" lon="9.643820"><ele>1015</ele></trkpt><trkpt lat="62.470595" lon="9.644399"><ele>1007</ele></trkpt><trkpt lat="62.470617" lon="9.644978"><ele>997</ele></trkpt><trkpt lat="62.470728" lon="9.645541"><ele>987</ele></trkpt><trkpt lat="62.471019" lon="9.646073"><ele>975</ele></trkpt><trkpt lat="62.471309" lon="9.646604"><ele>966</ele></trkpt><trkpt lat="62.471600" lon="9.647135"><ele>959</ele></trkpt><trkpt lat="62.471868" lon="9.647087"><ele>957</ele></trkpt><trkpt lat="62.472143" lon="9.647232"><ele>955</ele></trkpt><trkpt lat="62.472344" lon="9.647779"><ele>951</ele></trkpt><trkpt lat="62.472635" lon="9.648310"><ele>942</ele></trkpt><trkpt lat="62.472746" lon="9.648873"><ele>932</ele></trkpt><trkpt lat="62.473037" lon="9.649404"><ele>917</ele></trkpt><trkpt lat="62.473327" lon="9.649935"><ele>902</ele></trkpt><trkpt lat="62.473431" lon="9.650306"><ele>896</ele></trkpt></trkseg></trk></gpx>