<?xml version="1.0" encoding="UTF-8"?>
<gpx version="1.1" creator="Rando toppturs" xmlns="http://www.topografix.com/GPX/1/1"><metadata><name>025 Svarthamran 1388 m</name><desc>Generated 2026-09-13 17:42 from Kartverket 10 m terrain. Ascent lines are least-cost terrain paths under 35°, not verified routes. Not a snow-stability assessment.</desc></metadata><wpt lat="62.703106" lon="9.391406"><ele>678</ele><name>Car · Svarthamran 1388 m</name></wpt><wpt lat="62.795427" lon="9.339197"><ele>1388</ele><name>Svarthamran 1388 m</name></wpt><trk><name>Up · Svarthamran 1388 m</name><desc>least-cost ascent: +1055 m over 11345 m, max 24°, 0.0% on 30–35°, ≈5.47 h at 4 km/h + 400 m/h. Terrain possibility, not a checked route.</desc><trkseg><trkpt lat="62.703106" lon="9.391406"><ele>678</ele></trkpt><trkpt lat="62.703553" lon="9.391321"><ele>676</ele></trkpt><trkpt lat="62.704000" lon="9.391236"><ele>677</ele></trkpt><trkpt lat="62.704446" lon="9.391151"><ele>682</ele></trkpt><trkpt lat="62.704893" lon="9.391066"><ele>685</ele></trkpt><trkpt lat="62.705340" lon="9.390982"><ele>687</ele></trkpt><trkpt lat="62.705786" lon="9.390897"><ele>687</ele></trkpt><trkpt lat="62.706233" lon="9.390812"><ele>687</ele></trkpt><trkpt lat="62.706680" lon="9.390727"><ele>694</ele></trkpt><trkpt lat="62.707126" lon="9.390642"><ele>700</ele></trkpt><trkpt lat="62.707573" lon="9.390557"><ele>703</ele></trkpt><trkpt lat="62.708019" lon="9.390472"><ele>706</ele></trkpt><trkpt lat="62.708466" lon="9.390387"><ele>711</ele></trkpt><trkpt lat="62.708913" lon="9.390302"><ele>714</ele></trkpt><trkpt lat="62.709359" lon="9.390217"><ele>716</ele></trkpt><trkpt lat="62.709806" lon="9.390133"><ele>718</ele></trkpt><trkpt lat="62.710253" lon="9.390048"><ele>721</ele></trkpt><trkpt lat="62.710699" lon="9.389963"><ele>725</ele></trkpt><trkpt lat="62.711146" lon="9.389878"><ele>729</ele></trkpt><trkpt lat="62.711592" lon="9.389793"><ele>734</ele></trkpt><trkpt lat="62.712039" lon="9.389708"><ele>739</ele></trkpt><trkpt lat="62.712486" lon="9.389623"><ele>744</ele></trkpt><trkpt lat="62.712932" lon="9.389538"><ele>747</ele></trkpt><trkpt lat="62.713379" lon="9.389453"><ele>750</ele></trkpt><trkpt lat="62.713826" lon="9.389368"><ele>753</ele></trkpt><trkpt lat="62.714272" lon="9.389283"><ele>755</ele></trkpt><trkpt lat="62.714719" lon="9.389198"><ele>755</ele></trkpt><trkpt lat="62.715166" lon="9.389113"><ele>754</ele></trkpt><trkpt lat="62.715612" lon="9.389028"><ele>753</ele></trkpt><trkpt lat="62.716059" lon="9.388944"><ele>753</ele></trkpt><trkpt lat="62.716505" lon="9.388859"><ele>757</ele></trkpt><trkpt lat="62.716952" lon="9.388774"><ele>761</ele></trkpt><trkpt lat="62.717399" lon="9.388689"><ele>763</ele></trkpt><trkpt lat="62.717845" lon="9.388604"><ele>764</ele></trkpt><trkpt lat="62.718292" lon="9.388519"><ele>767</ele></trkpt><trkpt lat="62.718739" lon="9.388434"><ele>768</ele></trkpt><trkpt lat="62.719185" lon="9.388349"><ele>772</ele></trkpt><trkpt lat="62.719632" lon="9.388264"><ele>775</ele></trkpt><trkpt lat="62.720078" lon="9.388179"><ele>777</ele></trkpt><trkpt lat="62.720525" lon="9.388094"><ele>782</ele></trkpt><trkpt lat="62.720972" lon="9.388009"><ele>788</ele></trkpt><trkpt lat="62.721418" lon="9.387924"><ele>796</ele></trkpt><trkpt lat="62.721865" lon="9.387839"><ele>805</ele></trkpt><trkpt lat="62.722312" lon="9.387754"><ele>813</ele></trkpt><trkpt lat="62.722758" lon="9.387669"><ele>822</ele></trkpt><trkpt lat="62.723205" lon="9.387584"><ele>829</ele></trkpt><trkpt lat="62.723652" lon="9.387499"><ele>836</ele></trkpt><trkpt lat="62.724098" lon="9.387414"><ele>843</ele></trkpt><trkpt lat="62.724545" lon="9.387329"><ele>850</ele></trkpt><trkpt lat="62.724991" lon="9.387244"><ele>856</ele></trkpt><trkpt lat="62.725438" lon="9.387159"><ele>861</ele></trkpt><trkpt lat="62.725885" lon="9.387074"><ele>867</ele></trkpt><trkpt lat="62.726331" lon="9.386989"><ele>872</ele></trkpt><trkpt lat="62.726778" lon="9.386904"><ele>878</ele></trkpt><trkpt lat="62.727225" lon="9.386819"><ele>885</ele></trkpt><trkpt lat="62.727671" lon="9.386734"><ele>891</ele></trkpt><trkpt lat="62.728118" lon="9.386649"><ele>899</ele></trkpt><trkpt lat="62.728557" lon="9.386369"><ele>913</ele></trkpt><trkpt lat="62.729003" lon="9.386284"><ele>924</ele></trkpt><trkpt lat="62.729434" lon="9.385810"><ele>940</ele></trkpt><trkpt lat="62.729873" lon="9.385530"><ele>953</ele></trkpt><trkpt lat="62.730320" lon="9.385445"><ele>962</ele></trkpt><trkpt lat="62.730751" lon="9.384970"><ele>977</ele></trkpt><trkpt lat="62.731197" lon="9.384885"><ele>982</ele></trkpt><trkpt lat="62.731644" lon="9.384800"><ele>988</ele></trkpt><trkpt lat="62.732091" lon="9.384715"><ele>995</ele></trkpt><trkpt lat="62.732537" lon="9.384630"><ele>1001</ele></trkpt><trkpt lat="62.732984" lon="9.384545"><ele>1010</ele></trkpt><trkpt lat="62.733431" lon="9.384460"><ele>1017</ele></trkpt><trkpt lat="62.733877" lon="9.384375"><ele>1025</ele></trkpt><trkpt lat="62.734324" lon="9.384290"><ele>1034</ele></trkpt><trkpt lat="62.734770" lon="9.384205"><ele>1040</ele></trkpt><trkpt lat="62.735217" lon="9.384120"><ele>1047</ele></trkpt><trkpt lat="62.735664" lon="9.384034"><ele>1056</ele></trkpt><trkpt lat="62.736110" lon="9.383949"><ele>1064</ele></trkpt><trkpt lat="62.736557" lon="9.383864"><ele>1072</ele></trkpt><trkpt lat="62.737004" lon="9.383779"><ele>1080</ele></trkpt><trkpt lat="62.737450" lon="9.383694"><ele>1086</ele></trkpt><trkpt lat="62.737897" lon="9.383609"><ele>1092</ele></trkpt><trkpt lat="62.738343" lon="9.383524"><ele>1098</ele></trkpt><trkpt lat="62.738790" lon="9.383439"><ele>1103</ele></trkpt><trkpt lat="62.739237" lon="9.383354"><ele>1109</ele></trkpt><trkpt lat="62.739683" lon="9.383268"><ele>1117</ele></trkpt><trkpt lat="62.740130" lon="9.383183"><ele>1123</ele></trkpt><trkpt lat="62.740577" lon="9.383098"><ele>1128</ele></trkpt><trkpt lat="62.741023" lon="9.383013"><ele>1133</ele></trkpt><trkpt lat="62.741470" lon="9.382928"><ele>1138</ele></trkpt><trkpt lat="62.741916" lon="9.382843"><ele>1144</ele></trkpt><trkpt lat="62.742363" lon="9.382758"><ele>1149</ele></trkpt><trkpt lat="62.742810" lon="9.382672"><ele>1153</ele></trkpt><trkpt lat="62.743256" lon="9.382587"><ele>1155</ele></trkpt><trkpt lat="62.743703" lon="9.382502"><ele>1161</ele></trkpt><trkpt lat="62.744150" lon="9.382417"><ele>1166</ele></trkpt><trkpt lat="62.744596" lon="9.382332"><ele>1170</ele></trkpt><trkpt lat="62.745043" lon="9.382247"><ele>1175</ele></trkpt><trkpt lat="62.745489" lon="9.382162"><ele>1184</ele></trkpt><trkpt lat="62.745936" lon="9.382076"><ele>1191</ele></trkpt><trkpt lat="62.746383" lon="9.381991"><ele>1197</ele></trkpt><trkpt lat="62.746829" lon="9.381906"><ele>1204</ele></trkpt><trkpt lat="62.747276" lon="9.381821"><ele>1214</ele></trkpt><trkpt lat="62.747723" lon="9.381736"><ele>1227</ele></trkpt><trkpt lat="62.748169" lon="9.381651"><ele>1236</ele></trkpt><trkpt lat="62.748616" lon="9.381565"><ele>1249</ele></trkpt><trkpt lat="62.749062" lon="9.381480"><ele>1260</ele></trkpt><trkpt lat="62.749493" lon="9.381005"><ele>1277</ele></trkpt><trkpt lat="62.749901" lon="9.379946"><ele>1297</ele></trkpt><trkpt lat="62.750316" lon="9.379082"><ele>1313</ele></trkpt><trkpt lat="62.750724" lon="9.378022"><ele>1326</ele></trkpt><trkpt lat="62.751131" lon="9.376963"><ele>1334</ele></trkpt><trkpt lat="62.751539" lon="9.375904"><ele>1334</ele></trkpt><trkpt lat="62.751946" lon="9.374844"><ele>1332</ele></trkpt><trkpt lat="62.752354" lon="9.373785"><ele>1326</ele></trkpt><trkpt lat="62.752761" lon="9.372725"><ele>1319</ele></trkpt><trkpt lat="62.753169" lon="9.371666"><ele>1311</ele></trkpt><trkpt lat="62.753592" lon="9.370996"><ele>1295</ele></trkpt><trkpt lat="62.754023" lon="9.370521"><ele>1284</ele></trkpt><trkpt lat="62.754470" lon="9.370436"><ele>1277</ele></trkpt><trkpt lat="62.754916" lon="9.370350"><ele>1267</ele></trkpt><trkpt lat="62.755363" lon="9.370265"><ele>1254</ele></trkpt><trkpt lat="62.755809" lon="9.370180"><ele>1250</ele></trkpt><trkpt lat="62.756256" lon="9.370094"><ele>1251</ele></trkpt><trkpt lat="62.756703" lon="9.370009"><ele>1260</ele></trkpt><trkpt lat="62.757149" lon="9.369923"><ele>1271</ele></trkpt><trkpt lat="62.757596" lon="9.369838"><ele>1277</ele></trkpt><trkpt lat="62.758043" lon="9.369753"><ele>1283</ele></trkpt><trkpt lat="62.758489" lon="9.369667"><ele>1289</ele></trkpt><trkpt lat="62.758936" lon="9.369582"><ele>1301</ele></trkpt><trkpt lat="62.759382" lon="9.369496"><ele>1309</ele></trkpt><trkpt lat="62.759829" lon="9.369411"><ele>1319</ele></trkpt><trkpt lat="62.760276" lon="9.369326"><ele>1332</ele></trkpt><trkpt lat="62.760722" lon="9.369240"><ele>1344</ele></trkpt><trkpt lat="62.761169" lon="9.369155"><ele>1355</ele></trkpt><trkpt lat="62.761615" lon="9.369069"><ele>1366</ele></trkpt><trkpt lat="62.762062" lon="9.368984"><ele>1377</ele></trkpt><trkpt lat="62.762509" lon="9.368898"><ele>1380</ele></trkpt><trkpt lat="62.762955" lon="9.368813"><ele>1388</ele></trkpt><trkpt lat="62.763402" lon="9.368728"><ele>1387</ele></trkpt><trkpt lat="62.763849" lon="9.368642"><ele>1382</ele></trkpt><trkpt lat="62.764295" lon="9.368557"><ele>1386</ele></trkpt><trkpt lat="62.764742" lon="9.368471"><ele>1386</ele></trkpt><trkpt lat="62.765188" lon="9.368386"><ele>1381</ele></trkpt><trkpt lat="62.765619" lon="9.367911"><ele>1375</ele></trkpt><trkpt lat="62.766027" lon="9.366851"><ele>1370</ele></trkpt><trkpt lat="62.766434" lon="9.365791"><ele>1375</ele></trkpt><trkpt lat="62.766842" lon="9.364730"><ele>1380</ele></trkpt><trkpt lat="62.767265" lon="9.364060"><ele>1374</ele></trkpt><trkpt lat="62.767680" lon="9.363195"><ele>1363</ele></trkpt><trkpt lat="62.768111" lon="9.362720"><ele>1360</ele></trkpt><trkpt lat="62.768542" lon="9.362244"><ele>1349</ele></trkpt><trkpt lat="62.768981" lon="9.361964"><ele>1352</ele></trkpt><trkpt lat="62.769388" lon="9.360904"><ele>1349</ele></trkpt><trkpt lat="62.769795" lon="9.359843"><ele>1349</ele></trkpt><trkpt lat="62.770203" lon="9.358783"><ele>1340</ele></trkpt><trkpt lat="62.770642" lon="9.358502"><ele>1338</ele></trkpt><trkpt lat="62.771088" lon="9.358417"><ele>1345</ele></trkpt><trkpt lat="62.771527" lon="9.358136"><ele>1341</ele></trkpt><trkpt lat="62.771958" lon="9.357661"><ele>1333</ele></trkpt><trkpt lat="62.772381" lon="9.356990"><ele>1320</ele></trkpt><trkpt lat="62.772820" lon="9.356710"><ele>1318</ele></trkpt><trkpt lat="62.773266" lon="9.356624"><ele>1327</ele></trkpt><trkpt lat="62.773681" lon="9.355759"><ele>1321</ele></trkpt><trkpt lat="62.774089" lon="9.354698"><ele>1315</ele></trkpt><trkpt lat="62.774512" lon="9.354028"><ele>1314</ele></trkpt><trkpt lat="62.774958" lon="9.353942"><ele>1325</ele></trkpt><trkpt lat="62.775374" lon="9.353076"><ele>1338</ele></trkpt><trkpt lat="62.775781" lon="9.352016"><ele>1341</ele></trkpt><trkpt lat="62.776188" lon="9.350955"><ele>1342</ele></trkpt><trkpt lat="62.776603" lon="9.350089"><ele>1350</ele></trkpt><trkpt lat="62.777011" lon="9.349029"><ele>1355</ele></trkpt><trkpt lat="62.777418" lon="9.347968"><ele>1355</ele></trkpt><trkpt lat="62.777833" lon="9.347102"><ele>1359</ele></trkpt><trkpt lat="62.778240" lon="9.346042"><ele>1354</ele></trkpt><trkpt lat="62.778648" lon="9.344981"><ele>1344</ele></trkpt><trkpt lat="62.779055" lon="9.343920"><ele>1340</ele></trkpt><trkpt lat="62.779486" lon="9.343444"><ele>1321</ele></trkpt><trkpt lat="62.779932" lon="9.343358"><ele>1311</ele></trkpt><trkpt lat="62.780379" lon="9.343272"><ele>1311</ele></trkpt><trkpt lat="62.780826" lon="9.343187"><ele>1312</ele></trkpt><trkpt lat="62.781272" lon="9.343101"><ele>1322</ele></trkpt><trkpt lat="62.781719" lon="9.343015"><ele>1336</ele></trkpt><trkpt lat="62.782165" lon="9.342929"><ele>1343</ele></trkpt><trkpt lat="62.782612" lon="9.342843"><ele>1342</ele></trkpt><trkpt lat="62.783059" lon="9.342757"><ele>1331</ele></trkpt><trkpt lat="62.783505" lon="9.342671"><ele>1329</ele></trkpt><trkpt lat="62.783952" lon="9.342585"><ele>1319</ele></trkpt><trkpt lat="62.784398" lon="9.342499"><ele>1318</ele></trkpt><trkpt lat="62.784845" lon="9.342414"><ele>1316</ele></trkpt><trkpt lat="62.785292" lon="9.342328"><ele>1316</ele></trkpt><trkpt lat="62.785738" lon="9.342242"><ele>1316</ele></trkpt><trkpt lat="62.786177" lon="9.341961"><ele>1328</ele></trkpt><trkpt lat="62.786623" lon="9.341875"><ele>1324</ele></trkpt><trkpt lat="62.787070" lon="9.341789"><ele>1320</ele></trkpt><trkpt lat="62.787517" lon="9.341703"><ele>1318</ele></trkpt><trkpt lat="62.787963" lon="9.341617"><ele>1324</ele></trkpt><trkpt lat="62.788410" lon="9.341531"><ele>1329</ele></trkpt><trkpt lat="62.788856" lon="9.341445"><ele>1330</ele></trkpt><trkpt lat="62.789303" lon="9.341359"><ele>1335</ele></trkpt><trkpt lat="62.789750" lon="9.341273"><ele>1346</ele></trkpt><trkpt lat="62.790196" lon="9.341187"><ele>1341</ele></trkpt><trkpt lat="62.790643" lon="9.341101"><ele>1331</ele></trkpt><trkpt lat="62.791089" lon="9.341015"><ele>1338</ele></trkpt><trkpt lat="62.791536" lon="9.340929"><ele>1343</ele></trkpt><trkpt lat="62.791975" lon="9.340648"><ele>1343</ele></trkpt><trkpt lat="62.792421" lon="9.340562"><ele>1345</ele></trkpt><trkpt lat="62.792868" lon="9.340477"><ele>1354</ele></trkpt><trkpt lat="62.793314" lon="9.340391"><ele>1355</ele></trkpt><trkpt lat="62.793753" lon="9.340109"><ele>1368</ele></trkpt><trkpt lat="62.794200" lon="9.340024"><ele>1369</ele></trkpt><trkpt lat="62.794646" lon="9.339938"><ele>1371</ele></trkpt><trkpt lat="62.795093" lon="9.339852"><ele>1384</ele></trkpt><trkpt lat="62.795427" lon="9.339197"><ele>1388</ele></trkpt></trkseg></trk><wpt lat="62.805925" lon="9.356253"><ele>943</ele><name>Run end · Svarthamran 1388 m</name></wpt><trk><name>Down · Svarthamran 1388 m</name><desc>fall-line run: 767 m of 20–30°, 434 m drop, aspect 41°, max 31°, 0.8% ≥30°; ends 11.61 km from the car.</desc><trkseg><trkpt lat="62.795427" lon="9.339197"><ele>1388</ele></trkpt><trkpt lat="62.797200" lon="9.342985"><ele>1377</ele></trkpt><trkpt lat="62.797491" lon="9.343519"><ele>1355</ele></trkpt><trkpt lat="62.797783" lon="9.344053"><ele>1335</ele></trkpt><trkpt lat="62.798074" lon="9.344586"><ele>1312</ele></trkpt><trkpt lat="62.798187" lon="9.345155"><ele>1297</ele></trkpt><trkpt lat="62.798211" lon="9.345740"><ele>1283</ele></trkpt><trkpt lat="62.798324" lon="9.346308"><ele>1269</ele></trkpt><trkpt lat="62.798347" lon="9.346894"><ele>1260</ele></trkpt><trkpt lat="62.798371" lon="9.347479"><ele>1252</ele></trkpt><trkpt lat="62.798305" lon="9.348081"><ele>1245</ele></trkpt><trkpt lat="62.798329" lon="9.348667"><ele>1236</ele></trkpt><trkpt lat="62.798442" lon="9.349235"><ele>1225</ele></trkpt><trkpt lat="62.798733" lon="9.349769"><ele>1213</ele></trkpt><trkpt lat="62.798935" lon="9.350320"><ele>1199</ele></trkpt><trkpt lat="62.799227" lon="9.350854"><ele>1180</ele></trkpt><trkpt lat="62.799340" lon="9.351422"><ele>1167</ele></trkpt><trkpt lat="62.799542" lon="9.351973"><ele>1155</ele></trkpt><trkpt lat="62.799744" lon="9.352524"><ele>1143</ele></trkpt><trkpt lat="62.799857" lon="9.353092"><ele>1134</ele></trkpt><trkpt lat="62.800149" lon="9.353626"><ele>1120</ele></trkpt><trkpt lat="62.800262" lon="9.354194"><ele>1111</ele></trkpt><trkpt lat="62.800285" lon="9.354780"><ele>1107</ele></trkpt><trkpt lat="62.800309" lon="9.355365"><ele>1104</ele></trkpt><trkpt lat="62.800600" lon="9.355899"><ele>1100</ele></trkpt><trkpt lat="62.800884" lon="9.356238"><ele>1096</ele></trkpt><trkpt lat="62.801160" lon="9.356382"><ele>1092</ele></trkpt><trkpt lat="62.801435" lon="9.356525"><ele>1088</ele></trkpt><trkpt lat="62.801719" lon="9.356864"><ele>1082</ele></trkpt><trkpt lat="62.801995" lon="9.357008"><ele>1077</ele></trkpt><trkpt lat="62.802271" lon="9.357152"><ele>1069</ele></trkpt><trkpt lat="62.802539" lon="9.357100"><ele>1062</ele></trkpt><trkpt lat="62.802807" lon="9.357049"><ele>1052</ele></trkpt><trkpt lat="62.803082" lon="9.357192"><ele>1042</ele></trkpt><trkpt lat="62.803350" lon="9.357141"><ele>1033</ele></trkpt><trkpt lat="62.803618" lon="9.357089"><ele>1024</ele></trkpt><trkpt lat="62.803886" lon="9.357038"><ele>1014</ele></trkpt><trkpt lat="62.804154" lon="9.356987"><ele>1002</ele></trkpt><trkpt lat="62.804422" lon="9.356935"><ele>993</ele></trkpt><trkpt lat="62.804690" lon="9.356884"><ele>984</ele></trkpt><trkpt lat="62.804958" lon="9.356832"><ele>975</ele></trkpt><trkpt lat="62.805226" lon="9.356781"><ele>964</ele></trkpt><trkpt lat="62.805486" lon="9.356534"><ele>955</ele></trkpt><trkpt lat="62.805746" lon="9.356287"><ele>946</ele></trkpt><trkpt lat="62.805925" lon="9.356253"><ele>943</ele></trkpt></trkseg></trk></gpx>