<?xml version="1.0" encoding="UTF-8"?>
<gpx version="1.1" creator="Rando toppturs" xmlns="http://www.topografix.com/GPX/1/1"><metadata><name>027 Nonshøa 1528 m</name><desc>This is an automatically generated list. I have not checked them all. Do not attempt these if you're a beginner. Generated 2026-09-13 17:42 from Kartverket 10 m terrain. Ascent lines are least-cost terrain paths under 35°, not verified routes. Not a snow-stability assessment.</desc></metadata><wpt lat="62.693299" lon="9.032512"><ele>763</ele><name>Car · Nonshøa 1528 m</name></wpt><wpt lat="62.662254" lon="9.026642"><ele>1528</ele><name>Nonshøa 1528 m</name></wpt><trk><name>Up · Nonshøa 1528 m</name><desc>least-cost ascent: +799 m over 4303 m, max 30°, 0.3% on 30–35°, ≈3.07 h at 4 km/h + 400 m/h. Terrain possibility, not a checked route.</desc><trkseg><trkpt lat="62.693299" lon="9.032512"><ele>763</ele></trkpt><trkpt lat="62.692853" lon="9.032602"><ele>771</ele></trkpt><trkpt lat="62.692406" lon="9.032692"><ele>776</ele></trkpt><trkpt lat="62.691960" lon="9.032783"><ele>786</ele></trkpt><trkpt lat="62.691514" lon="9.032873"><ele>787</ele></trkpt><trkpt lat="62.691067" lon="9.032963"><ele>793</ele></trkpt><trkpt lat="62.690621" lon="9.033053"><ele>797</ele></trkpt><trkpt lat="62.690183" lon="9.033338"><ele>791</ele></trkpt><trkpt lat="62.689737" lon="9.033428"><ele>797</ele></trkpt><trkpt lat="62.689290" lon="9.033518"><ele>807</ele></trkpt><trkpt lat="62.688844" lon="9.033608"><ele>812</ele></trkpt><trkpt lat="62.688397" lon="9.033699"><ele>814</ele></trkpt><trkpt lat="62.687951" lon="9.033789"><ele>819</ele></trkpt><trkpt lat="62.687505" lon="9.033879"><ele>819</ele></trkpt><trkpt lat="62.687058" lon="9.033969"><ele>819</ele></trkpt><trkpt lat="62.686612" lon="9.034059"><ele>817</ele></trkpt><trkpt lat="62.686166" lon="9.034150"><ele>820</ele></trkpt><trkpt lat="62.685719" lon="9.034240"><ele>825</ele></trkpt><trkpt lat="62.685273" lon="9.034330"><ele>832</ele></trkpt><trkpt lat="62.684827" lon="9.034420"><ele>834</ele></trkpt><trkpt lat="62.684380" lon="9.034510"><ele>840</ele></trkpt><trkpt lat="62.683934" lon="9.034601"><ele>846</ele></trkpt><trkpt lat="62.683488" lon="9.034691"><ele>846</ele></trkpt><trkpt lat="62.683041" lon="9.034781"><ele>851</ele></trkpt><trkpt lat="62.682595" lon="9.034871"><ele>854</ele></trkpt><trkpt lat="62.682149" lon="9.034961"><ele>858</ele></trkpt><trkpt lat="62.681710" lon="9.035246"><ele>863</ele></trkpt><trkpt lat="62.681264" lon="9.035336"><ele>868</ele></trkpt><trkpt lat="62.680818" lon="9.035426"><ele>866</ele></trkpt><trkpt lat="62.680371" lon="9.035516"><ele>869</ele></trkpt><trkpt lat="62.679925" lon="9.035606"><ele>876</ele></trkpt><trkpt lat="62.679479" lon="9.035696"><ele>883</ele></trkpt><trkpt lat="62.679032" lon="9.035786"><ele>885</ele></trkpt><trkpt lat="62.678586" lon="9.035877"><ele>885</ele></trkpt><trkpt lat="62.678140" lon="9.035967"><ele>890</ele></trkpt><trkpt lat="62.677693" lon="9.036057"><ele>887</ele></trkpt><trkpt lat="62.677247" lon="9.036147"><ele>886</ele></trkpt><trkpt lat="62.676801" lon="9.036237"><ele>887</ele></trkpt><trkpt lat="62.676354" lon="9.036327"><ele>887</ele></trkpt><trkpt lat="62.675908" lon="9.036417"><ele>891</ele></trkpt><trkpt lat="62.675461" lon="9.036508"><ele>902</ele></trkpt><trkpt lat="62.675015" lon="9.036598"><ele>912</ele></trkpt><trkpt lat="62.674569" lon="9.036688"><ele>920</ele></trkpt><trkpt lat="62.674122" lon="9.036778"><ele>928</ele></trkpt><trkpt lat="62.673676" lon="9.036868"><ele>930</ele></trkpt><trkpt lat="62.673230" lon="9.036958"><ele>929</ele></trkpt><trkpt lat="62.672783" lon="9.037048"><ele>927</ele></trkpt><trkpt lat="62.672337" lon="9.037138"><ele>932</ele></trkpt><trkpt lat="62.671891" lon="9.037228"><ele>942</ele></trkpt><trkpt lat="62.671444" lon="9.037318"><ele>953</ele></trkpt><trkpt lat="62.670998" lon="9.037409"><ele>970</ele></trkpt><trkpt lat="62.670560" lon="9.037693"><ele>986</ele></trkpt><trkpt lat="62.670122" lon="9.037977"><ele>1001</ele></trkpt><trkpt lat="62.669692" lon="9.038455"><ele>1021</ele></trkpt><trkpt lat="62.669279" lon="9.039322"><ele>1043</ele></trkpt><trkpt lat="62.668874" lon="9.040383"><ele>1072</ele></trkpt><trkpt lat="62.668469" lon="9.041444"><ele>1100</ele></trkpt><trkpt lat="62.668064" lon="9.042505"><ele>1122</ele></trkpt><trkpt lat="62.667626" lon="9.042789"><ele>1147</ele></trkpt><trkpt lat="62.667171" lon="9.042685"><ele>1175</ele></trkpt><trkpt lat="62.666700" lon="9.042192"><ele>1205</ele></trkpt><trkpt lat="62.666229" lon="9.041700"><ele>1229</ele></trkpt><trkpt lat="62.665774" lon="9.041596"><ele>1245</ele></trkpt><trkpt lat="62.665376" lon="9.040697"><ele>1263</ele></trkpt><trkpt lat="62.664888" lon="9.039816"><ele>1287</ele></trkpt><trkpt lat="62.664400" lon="9.038936"><ele>1311</ele></trkpt><trkpt lat="62.663921" lon="9.038249"><ele>1337</ele></trkpt><trkpt lat="62.663433" lon="9.037368"><ele>1362</ele></trkpt><trkpt lat="62.662945" lon="9.036488"><ele>1389</ele></trkpt><trkpt lat="62.662814" lon="9.035535"><ele>1404</ele></trkpt><trkpt lat="62.662773" lon="9.034565"><ele>1414</ele></trkpt><trkpt lat="62.662732" lon="9.033594"><ele>1422</ele></trkpt><trkpt lat="62.662690" lon="9.032624"><ele>1434</ele></trkpt><trkpt lat="62.662559" lon="9.031671"><ele>1449</ele></trkpt><trkpt lat="62.662429" lon="9.030718"><ele>1462</ele></trkpt><trkpt lat="62.662387" lon="9.029748"><ele>1477</ele></trkpt><trkpt lat="62.662346" lon="9.028777"><ele>1494</ele></trkpt><trkpt lat="62.662304" lon="9.027807"><ele>1515</ele></trkpt><trkpt lat="62.662263" lon="9.026836"><ele>1528</ele></trkpt><trkpt lat="62.662254" lon="9.026642"><ele>1528</ele></trkpt></trkseg></trk><wpt lat="62.648430" lon="9.017106"><ele>1038</ele><name>Run end · Nonshøa 1528 m</name></wpt><trk><name>Down · Nonshøa 1528 m</name><desc>fall-line run: 743 m of 20–30°, 416 m drop, aspect 186°, max 27°, 0.0% ≥30°; ends 5.07 km from the car.</desc><trkseg><trkpt lat="62.662254" lon="9.026642"><ele>1528</ele></trkpt><trkpt lat="62.658837" lon="9.018327"><ele>1454</ele></trkpt><trkpt lat="62.658570" lon="9.018382"><ele>1442</ele></trkpt><trkpt lat="62.658310" lon="9.018630"><ele>1428</ele></trkpt><trkpt lat="62.658042" lon="9.018684"><ele>1415</ele></trkpt><trkpt lat="62.657783" lon="9.018932"><ele>1400</ele></trkpt><trkpt lat="62.657540" lon="9.019569"><ele>1382</ele></trkpt><trkpt lat="62.657280" lon="9.019817"><ele>1366</ele></trkpt><trkpt lat="62.657013" lon="9.019871"><ele>1354</ele></trkpt><trkpt lat="62.656745" lon="9.019925"><ele>1343</ele></trkpt><trkpt lat="62.656494" lon="9.020368"><ele>1335</ele></trkpt><trkpt lat="62.656234" lon="9.020616"><ele>1328</ele></trkpt><trkpt lat="62.655991" lon="9.021252"><ele>1318</ele></trkpt><trkpt lat="62.655748" lon="9.021889"><ele>1308</ele></trkpt><trkpt lat="62.655497" lon="9.022331"><ele>1298</ele></trkpt><trkpt lat="62.655246" lon="9.022773"><ele>1289</ele></trkpt><trkpt lat="62.655003" lon="9.023410"><ele>1272</ele></trkpt><trkpt lat="62.654743" lon="9.023658"><ele>1261</ele></trkpt><trkpt lat="62.654476" lon="9.023712"><ele>1252</ele></trkpt><trkpt lat="62.654216" lon="9.023960"><ele>1248</ele></trkpt><trkpt lat="62.653948" lon="9.024014"><ele>1245</ele></trkpt><trkpt lat="62.653681" lon="9.024068"><ele>1242</ele></trkpt><trkpt lat="62.653413" lon="9.024122"><ele>1240</ele></trkpt><trkpt lat="62.653145" lon="9.024177"><ele>1236</ele></trkpt><trkpt lat="62.652877" lon="9.024231"><ele>1232</ele></trkpt><trkpt lat="62.652609" lon="9.024285"><ele>1228</ele></trkpt><trkpt lat="62.652341" lon="9.024339"><ele>1222</ele></trkpt><trkpt lat="62.652074" lon="9.024393"><ele>1217</ele></trkpt><trkpt lat="62.651806" lon="9.024447"><ele>1213</ele></trkpt><trkpt lat="62.651521" lon="9.024113"><ele>1208</ele></trkpt><trkpt lat="62.651237" lon="9.023779"><ele>1200</ele></trkpt><trkpt lat="62.650944" lon="9.023251"><ele>1185</ele></trkpt><trkpt lat="62.650741" lon="9.022705"><ele>1174</ele></trkpt><trkpt lat="62.650537" lon="9.022159"><ele>1162</ele></trkpt><trkpt lat="62.650334" lon="9.021613"><ele>1153</ele></trkpt><trkpt lat="62.650041" lon="9.021085"><ele>1142</ele></trkpt><trkpt lat="62.649749" lon="9.020557"><ele>1129</ele></trkpt><trkpt lat="62.649456" lon="9.020029"><ele>1112</ele></trkpt><trkpt lat="62.649252" lon="9.019483"><ele>1096</ele></trkpt><trkpt lat="62.648960" lon="9.018956"><ele>1079</ele></trkpt><trkpt lat="62.648845" lon="9.018392"><ele>1066</ele></trkpt><trkpt lat="62.648642" lon="9.017846"><ele>1055</ele></trkpt><trkpt lat="62.648439" lon="9.017300"><ele>1042</ele></trkpt><trkpt lat="62.648430" lon="9.017106"><ele>1038</ele></trkpt></trkseg></trk></gpx>