<?xml version="1.0" encoding="UTF-8"?>
<gpx version="1.1" creator="Rando toppturs" xmlns="http://www.topografix.com/GPX/1/1"><metadata><name>029 Høgsnyta 1332 m</name><desc>This is an automatically generated list. I have not checked them all. Do not attempt these if you're a beginner. Generated 2026-09-13 17:42 from Kartverket 10 m terrain. Ascent lines are least-cost terrain paths under 35°, not verified routes. Not a snow-stability assessment.</desc></metadata><wpt lat="62.314398" lon="9.614654"><ele>874</ele><name>Car · Høgsnyta 1332 m</name></wpt><wpt lat="62.324315" lon="9.598945"><ele>1332</ele><name>Høgsnyta 1332 m</name></wpt><trk><name>Up · Høgsnyta 1332 m</name><desc>least-cost ascent: +470 m over 1646 m, max 30°, 0.0% on 30–35°, ≈1.59 h at 4 km/h + 400 m/h. Terrain possibility, not a checked route.</desc><trkseg><trkpt lat="62.314398" lon="9.614654"><ele>874</ele></trkpt><trkpt lat="62.314450" lon="9.613678"><ele>867</ele></trkpt><trkpt lat="62.314591" lon="9.612685"><ele>883</ele></trkpt><trkpt lat="62.314643" lon="9.611709"><ele>896</ele></trkpt><trkpt lat="62.314963" lon="9.610685"><ele>922</ele></trkpt><trkpt lat="62.315201" lon="9.609868"><ele>950</ele></trkpt><trkpt lat="62.315618" lon="9.609020"><ele>983</ele></trkpt><trkpt lat="62.316043" lon="9.608363"><ele>1008</ele></trkpt><trkpt lat="62.316274" lon="9.607355"><ele>1035</ele></trkpt><trkpt lat="62.316683" lon="9.606314"><ele>1068</ele></trkpt><trkpt lat="62.317092" lon="9.605273"><ele>1102</ele></trkpt><trkpt lat="62.317509" lon="9.604425"><ele>1121</ele></trkpt><trkpt lat="62.317949" lon="9.604152"><ele>1134</ele></trkpt><trkpt lat="62.318388" lon="9.603880"><ele>1147</ele></trkpt><trkpt lat="62.318835" lon="9.603800"><ele>1157</ele></trkpt><trkpt lat="62.319282" lon="9.603719"><ele>1166</ele></trkpt><trkpt lat="62.319699" lon="9.602871"><ele>1188</ele></trkpt><trkpt lat="62.320138" lon="9.602598"><ele>1200</ele></trkpt><trkpt lat="62.320585" lon="9.602518"><ele>1207</ele></trkpt><trkpt lat="62.321024" lon="9.602245"><ele>1220</ele></trkpt><trkpt lat="62.321456" lon="9.601781"><ele>1234</ele></trkpt><trkpt lat="62.321895" lon="9.601508"><ele>1245</ele></trkpt><trkpt lat="62.322327" lon="9.601044"><ele>1258</ele></trkpt><trkpt lat="62.322774" lon="9.600963"><ele>1266</ele></trkpt><trkpt lat="62.323206" lon="9.600499"><ele>1281</ele></trkpt><trkpt lat="62.323623" lon="9.599650"><ele>1304</ele></trkpt><trkpt lat="62.324047" lon="9.598993"><ele>1327</ele></trkpt><trkpt lat="62.324315" lon="9.598945"><ele>1332</ele></trkpt></trkseg></trk><wpt lat="62.312841" lon="9.609325"><ele>904</ele><name>Run end · Høgsnyta 1332 m</name></wpt><trk><name>Down · Høgsnyta 1332 m</name><desc>fall-line run: 734 m of 20–30°, 350 m drop, aspect 122°, max 30°, 4.4% ≥30°; ends 0.33 km from the car.</desc><trkseg><trkpt lat="62.324315" lon="9.598945"><ele>1332</ele></trkpt><trkpt lat="62.317433" lon="9.595541"><ele>1254</ele></trkpt><trkpt lat="62.317188" lon="9.596165"><ele>1235</ele></trkpt><trkpt lat="62.316942" lon="9.596790"><ele>1220</ele></trkpt><trkpt lat="62.316696" lon="9.597414"><ele>1212</ele></trkpt><trkpt lat="62.316540" lon="9.598023"><ele>1204</ele></trkpt><trkpt lat="62.316563" lon="9.598599"><ele>1196</ele></trkpt><trkpt lat="62.316406" lon="9.599207"><ele>1186</ele></trkpt><trkpt lat="62.316339" lon="9.599800"><ele>1178</ele></trkpt><trkpt lat="62.316094" lon="9.600424"><ele>1167</ele></trkpt><trkpt lat="62.315937" lon="9.601032"><ele>1153</ele></trkpt><trkpt lat="62.315692" lon="9.601657"><ele>1136</ele></trkpt><trkpt lat="62.315446" lon="9.602281"><ele>1119</ele></trkpt><trkpt lat="62.315201" lon="9.602906"><ele>1102</ele></trkpt><trkpt lat="62.314955" lon="9.603530"><ele>1080</ele></trkpt><trkpt lat="62.314709" lon="9.604154"><ele>1060</ele></trkpt><trkpt lat="62.314464" lon="9.604779"><ele>1040</ele></trkpt><trkpt lat="62.314307" lon="9.605387"><ele>1021</ele></trkpt><trkpt lat="62.314062" lon="9.606011"><ele>1003</ele></trkpt><trkpt lat="62.313816" lon="9.606636"><ele>984</ele></trkpt><trkpt lat="62.313570" lon="9.607260"><ele>966</ele></trkpt><trkpt lat="62.313414" lon="9.607868"><ele>952</ele></trkpt><trkpt lat="62.313168" lon="9.608493"><ele>929</ele></trkpt><trkpt lat="62.312922" lon="9.609117"><ele>910</ele></trkpt><trkpt lat="62.312841" lon="9.609325"><ele>904</ele></trkpt></trkseg></trk></gpx>