<?xml version="1.0" encoding="UTF-8"?>
<gpx version="1.1" creator="Rando toppturs" xmlns="http://www.topografix.com/GPX/1/1"><metadata><name>030 Kinna 1248 m</name><desc>Generated 2026-09-13 17:42 from Kartverket 10 m terrain. Ascent lines are least-cost terrain paths under 35°, not verified routes. Not a snow-stability assessment.</desc></metadata><wpt lat="62.660636" lon="9.546426"><ele>804</ele><name>Car · Kinna 1248 m</name></wpt><wpt lat="62.658641" lon="9.573794"><ele>1248</ele><name>Kinna 1248 m</name></wpt><trk><name>Up · Kinna 1248 m</name><desc>least-cost ascent: +443 m over 1614 m, max 30°, 0.0% on 30–35°, ≈1.51 h at 4 km/h + 400 m/h. Terrain possibility, not a checked route.</desc><trkseg><trkpt lat="62.660636" lon="9.546426"><ele>804</ele></trkpt><trkpt lat="62.660674" lon="9.547397"><ele>814</ele></trkpt><trkpt lat="62.660712" lon="9.548368"><ele>822</ele></trkpt><trkpt lat="62.660750" lon="9.549340"><ele>835</ele></trkpt><trkpt lat="62.660787" lon="9.550311"><ele>845</ele></trkpt><trkpt lat="62.660825" lon="9.551282"><ele>859</ele></trkpt><trkpt lat="62.660952" lon="9.552237"><ele>878</ele></trkpt><trkpt lat="62.660990" lon="9.553209"><ele>892</ele></trkpt><trkpt lat="62.661028" lon="9.554180"><ele>901</ele></trkpt><trkpt lat="62.661066" lon="9.555152"><ele>911</ele></trkpt><trkpt lat="62.661193" lon="9.556107"><ele>931</ele></trkpt><trkpt lat="62.661231" lon="9.557078"><ele>946</ele></trkpt><trkpt lat="62.661269" lon="9.558049"><ele>960</ele></trkpt><trkpt lat="62.661307" lon="9.559021"><ele>975</ele></trkpt><trkpt lat="62.661344" lon="9.559992"><ele>989</ele></trkpt><trkpt lat="62.661382" lon="9.560964"><ele>1001</ele></trkpt><trkpt lat="62.661420" lon="9.561935"><ele>1014</ele></trkpt><trkpt lat="62.661458" lon="9.562907"><ele>1029</ele></trkpt><trkpt lat="62.661227" lon="9.563927"><ele>1049</ele></trkpt><trkpt lat="62.661265" lon="9.564899"><ele>1065</ele></trkpt><trkpt lat="62.661214" lon="9.565887"><ele>1081</ele></trkpt><trkpt lat="62.660894" lon="9.566924"><ele>1108</ele></trkpt><trkpt lat="62.660574" lon="9.567961"><ele>1142</ele></trkpt><trkpt lat="62.660433" lon="9.568965"><ele>1165</ele></trkpt><trkpt lat="62.660024" lon="9.570019"><ele>1183</ele></trkpt><trkpt lat="62.659615" lon="9.571072"><ele>1190</ele></trkpt><trkpt lat="62.659206" lon="9.572125"><ele>1205</ele></trkpt><trkpt lat="62.658790" lon="9.572984"><ele>1228</ele></trkpt><trkpt lat="62.658641" lon="9.573794"><ele>1248</ele></trkpt></trkseg></trk><wpt lat="62.652874" lon="9.555094"><ele>806</ele><name>Run end · Kinna 1248 m</name></wpt><trk><name>Down · Kinna 1248 m</name><desc>fall-line run: 728 m of 20–30°, 414 m drop, aspect 255°, max 30°, 3.0% ≥30°; ends 0.97 km from the car.</desc><trkseg><trkpt lat="62.658641" lon="9.573794"><ele>1248</ele></trkpt><trkpt lat="62.655595" lon="9.574157"><ele>1219</ele></trkpt><trkpt lat="62.655573" lon="9.573575"><ele>1203</ele></trkpt><trkpt lat="62.655550" lon="9.572992"><ele>1186</ele></trkpt><trkpt lat="62.655528" lon="9.572409"><ele>1169</ele></trkpt><trkpt lat="62.655505" lon="9.571826"><ele>1154</ele></trkpt><trkpt lat="62.655482" lon="9.571244"><ele>1139</ele></trkpt><trkpt lat="62.655460" lon="9.570661"><ele>1124</ele></trkpt><trkpt lat="62.655437" lon="9.570078"><ele>1111</ele></trkpt><trkpt lat="62.655146" lon="9.569544"><ele>1096</ele></trkpt><trkpt lat="62.654856" lon="9.569011"><ele>1073</ele></trkpt><trkpt lat="62.654565" lon="9.568477"><ele>1050</ele></trkpt><trkpt lat="62.654453" lon="9.567911"><ele>1034</ele></trkpt><trkpt lat="62.654430" lon="9.567328"><ele>1021</ele></trkpt><trkpt lat="62.654318" lon="9.566762"><ele>1007</ele></trkpt><trkpt lat="62.654206" lon="9.566196"><ele>997</ele></trkpt><trkpt lat="62.654184" lon="9.565613"><ele>990</ele></trkpt><trkpt lat="62.654161" lon="9.565030"><ele>984</ele></trkpt><trkpt lat="62.654138" lon="9.564448"><ele>977</ele></trkpt><trkpt lat="62.654116" lon="9.563865"><ele>970</ele></trkpt><trkpt lat="62.654093" lon="9.563282"><ele>960</ele></trkpt><trkpt lat="62.654070" lon="9.562699"><ele>949</ele></trkpt><trkpt lat="62.653958" lon="9.562133"><ele>936</ele></trkpt><trkpt lat="62.653936" lon="9.561550"><ele>924</ele></trkpt><trkpt lat="62.653913" lon="9.560968"><ele>913</ele></trkpt><trkpt lat="62.653890" lon="9.560385"><ele>904</ele></trkpt><trkpt lat="62.653868" lon="9.559802"><ele>892</ele></trkpt><trkpt lat="62.653756" lon="9.559236"><ele>886</ele></trkpt><trkpt lat="62.653554" lon="9.558686"><ele>879</ele></trkpt><trkpt lat="62.653532" lon="9.558103"><ele>869</ele></trkpt><trkpt lat="62.653509" lon="9.557521"><ele>860</ele></trkpt><trkpt lat="62.653307" lon="9.556971"><ele>849</ele></trkpt><trkpt lat="62.653106" lon="9.556421"><ele>836</ele></trkpt><trkpt lat="62.652994" lon="9.555855"><ele>822</ele></trkpt><trkpt lat="62.652882" lon="9.555289"><ele>810</ele></trkpt><trkpt lat="62.652874" lon="9.555094"><ele>806</ele></trkpt></trkseg></trk></gpx>