<?xml version="1.0" encoding="UTF-8"?>
<gpx version="1.1" creator="Rando toppturs" xmlns="http://www.topografix.com/GPX/1/1"><metadata><name>031 Svahøa 1348 m</name><desc>Generated 2026-09-13 17:42 from Kartverket 10 m terrain. Ascent lines are least-cost terrain paths under 35°, not verified routes. Not a snow-stability assessment.</desc></metadata><wpt lat="62.715351" lon="9.491225"><ele>1014</ele><name>Car · Svahøa 1348 m</name></wpt><wpt lat="62.721138" lon="9.466809"><ele>1348</ele><name>Svahøa 1348 m</name></wpt><trk><name>Up · Svahøa 1348 m</name><desc>least-cost ascent: +342 m over 1567 m, max 34°, 3.3% on 30–35°, ≈1.25 h at 4 km/h + 400 m/h. Terrain possibility, not a checked route.</desc><trkseg><trkpt lat="62.715351" lon="9.491225"><ele>1014</ele></trkpt><trkpt lat="62.715312" lon="9.490252"><ele>1016</ele></trkpt><trkpt lat="62.715274" lon="9.489278"><ele>1028</ele></trkpt><trkpt lat="62.715325" lon="9.488289"><ele>1041</ele></trkpt><trkpt lat="62.715287" lon="9.487316"><ele>1057</ele></trkpt><trkpt lat="62.715249" lon="9.486343"><ele>1074</ele></trkpt><trkpt lat="62.715210" lon="9.485369"><ele>1088</ele></trkpt><trkpt lat="62.715351" lon="9.484363"><ele>1109</ele></trkpt><trkpt lat="62.715670" lon="9.483323"><ele>1143</ele></trkpt><trkpt lat="62.715810" lon="9.482317"><ele>1173</ele></trkpt><trkpt lat="62.716040" lon="9.481293"><ele>1207</ele></trkpt><trkpt lat="62.716001" lon="9.480320"><ele>1224</ele></trkpt><trkpt lat="62.716320" lon="9.479280"><ele>1251</ele></trkpt><trkpt lat="62.716639" lon="9.478240"><ele>1276</ele></trkpt><trkpt lat="62.717048" lon="9.477184"><ele>1292</ele></trkpt><trkpt lat="62.717456" lon="9.476127"><ele>1307</ele></trkpt><trkpt lat="62.717864" lon="9.475070"><ele>1316</ele></trkpt><trkpt lat="62.718272" lon="9.474013"><ele>1318</ele></trkpt><trkpt lat="62.718681" lon="9.472956"><ele>1313</ele></trkpt><trkpt lat="62.719089" lon="9.471899"><ele>1320</ele></trkpt><trkpt lat="62.719497" lon="9.470843"><ele>1333</ele></trkpt><trkpt lat="62.719905" lon="9.469786"><ele>1333</ele></trkpt><trkpt lat="62.720314" lon="9.468729"><ele>1335</ele></trkpt><trkpt lat="62.720722" lon="9.467672"><ele>1337</ele></trkpt><trkpt lat="62.721138" lon="9.466809"><ele>1348</ele></trkpt><trkpt lat="62.721138" lon="9.466809"><ele>1348</ele></trkpt></trkseg></trk><wpt lat="62.721674" lon="9.491809"><ele>972</ele><name>Run end · Svahøa 1348 m</name></wpt><trk><name>Down · Svahøa 1348 m</name><desc>fall-line run: 725 m of 20–30°, 328 m drop, aspect 82°, max 33°, 1.3% ≥30°; ends 0.71 km from the car.</desc><trkseg><trkpt lat="62.721138" lon="9.466809"><ele>1348</ele></trkpt><trkpt lat="62.720003" lon="9.476826"><ele>1300</ele></trkpt><trkpt lat="62.720026" lon="9.477410"><ele>1289</ele></trkpt><trkpt lat="62.720049" lon="9.477994"><ele>1279</ele></trkpt><trkpt lat="62.720072" lon="9.478578"><ele>1267</ele></trkpt><trkpt lat="62.720096" lon="9.479162"><ele>1255</ele></trkpt><trkpt lat="62.720119" lon="9.479746"><ele>1244</ele></trkpt><trkpt lat="62.720142" lon="9.480330"><ele>1231</ele></trkpt><trkpt lat="62.720165" lon="9.480914"><ele>1217</ele></trkpt><trkpt lat="62.720366" lon="9.481464"><ele>1207</ele></trkpt><trkpt lat="62.720657" lon="9.481998"><ele>1194</ele></trkpt><trkpt lat="62.720948" lon="9.482532"><ele>1177</ele></trkpt><trkpt lat="62.720971" lon="9.483116"><ele>1166</ele></trkpt><trkpt lat="62.721173" lon="9.483666"><ele>1150</ele></trkpt><trkpt lat="62.721285" lon="9.484234"><ele>1134</ele></trkpt><trkpt lat="62.721308" lon="9.484818"><ele>1123</ele></trkpt><trkpt lat="62.721331" lon="9.485402"><ele>1106</ele></trkpt><trkpt lat="62.721354" lon="9.485986"><ele>1092</ele></trkpt><trkpt lat="62.721377" lon="9.486570"><ele>1078</ele></trkpt><trkpt lat="62.721490" lon="9.487137"><ele>1063</ele></trkpt><trkpt lat="62.721513" lon="9.487721"><ele>1057</ele></trkpt><trkpt lat="62.721357" lon="9.488338"><ele>1044</ele></trkpt><trkpt lat="62.721291" lon="9.488939"><ele>1037</ele></trkpt><trkpt lat="62.721135" lon="9.489556"><ele>1029</ele></trkpt><trkpt lat="62.721158" lon="9.490140"><ele>1020</ele></trkpt><trkpt lat="62.721181" lon="9.490724"><ele>1008</ele></trkpt><trkpt lat="62.721383" lon="9.491275"><ele>990</ele></trkpt><trkpt lat="62.721674" lon="9.491809"><ele>972</ele></trkpt><trkpt lat="62.721674" lon="9.491809"><ele>972</ele></trkpt></trkseg></trk></gpx>