<?xml version="1.0" encoding="UTF-8"?>
<gpx version="1.1" creator="Rando toppturs" xmlns="http://www.topografix.com/GPX/1/1"><metadata><name>032 Skjørstadhovden 1124 m</name><desc>This is an automatically generated list. I have not checked them all. Do not attempt these if you're a beginner. Generated 2026-09-13 17:42 from Kartverket 10 m terrain. Ascent lines are least-cost terrain paths under 35°, not verified routes. Not a snow-stability assessment.</desc></metadata><wpt lat="62.604269" lon="9.688031"><ele>630</ele><name>Car · Skjørstadhovden 1124 m</name></wpt><wpt lat="62.616595" lon="9.685626"><ele>1124</ele><name>Skjørstadhovden 1124 m</name></wpt><trk><name>Up · Skjørstadhovden 1124 m</name><desc>least-cost ascent: +494 m over 1587 m, max 30°, 0.0% on 30–35°, ≈1.63 h at 4 km/h + 400 m/h. Terrain possibility, not a checked route.</desc><trkseg><trkpt lat="62.604269" lon="9.688031"><ele>630</ele></trkpt><trkpt lat="62.604716" lon="9.687951"><ele>637</ele></trkpt><trkpt lat="62.605163" lon="9.687871"><ele>650</ele></trkpt><trkpt lat="62.605610" lon="9.687791"><ele>661</ele></trkpt><trkpt lat="62.606049" lon="9.687517"><ele>676</ele></trkpt><trkpt lat="62.606496" lon="9.687436"><ele>686</ele></trkpt><trkpt lat="62.606943" lon="9.687356"><ele>701</ele></trkpt><trkpt lat="62.607383" lon="9.687082"><ele>721</ele></trkpt><trkpt lat="62.607822" lon="9.686808"><ele>735</ele></trkpt><trkpt lat="62.608269" lon="9.686728"><ele>750</ele></trkpt><trkpt lat="62.608716" lon="9.686648"><ele>774</ele></trkpt><trkpt lat="62.609163" lon="9.686568"><ele>796</ele></trkpt><trkpt lat="62.609610" lon="9.686488"><ele>814</ele></trkpt><trkpt lat="62.610056" lon="9.686408"><ele>834</ele></trkpt><trkpt lat="62.610503" lon="9.686328"><ele>858</ele></trkpt><trkpt lat="62.610928" lon="9.685666"><ele>885</ele></trkpt><trkpt lat="62.611368" lon="9.685392"><ele>912</ele></trkpt><trkpt lat="62.611814" lon="9.685311"><ele>928</ele></trkpt><trkpt lat="62.612261" lon="9.685231"><ele>939</ele></trkpt><trkpt lat="62.612686" lon="9.684569"><ele>962</ele></trkpt><trkpt lat="62.613133" lon="9.684489"><ele>980</ele></trkpt><trkpt lat="62.613587" lon="9.684603"><ele>999</ele></trkpt><trkpt lat="62.614034" lon="9.684523"><ele>1020</ele></trkpt><trkpt lat="62.614459" lon="9.683861"><ele>1035</ele></trkpt><trkpt lat="62.614898" lon="9.683586"><ele>1063</ele></trkpt><trkpt lat="62.615360" lon="9.683894"><ele>1079</ele></trkpt><trkpt lat="62.615814" lon="9.684008"><ele>1097</ele></trkpt><trkpt lat="62.616208" lon="9.684914"><ele>1113</ele></trkpt><trkpt lat="62.616595" lon="9.685626"><ele>1124</ele></trkpt></trkseg></trk><wpt lat="62.606047" lon="9.694547"><ele>658</ele><name>Run end · Skjørstadhovden 1124 m</name></wpt><trk><name>Down · Skjørstadhovden 1124 m</name><desc>fall-line run: 712 m of 20–30°, 340 m drop, aspect 172°, max 33°, 2.5% ≥30°; ends 0.39 km from the car.</desc><trkseg><trkpt lat="62.616595" lon="9.685626"><ele>1124</ele></trkpt><trkpt lat="62.613116" lon="9.691133"><ele>999</ele></trkpt><trkpt lat="62.612847" lon="9.691181"><ele>986</ele></trkpt><trkpt lat="62.612579" lon="9.691230"><ele>970</ele></trkpt><trkpt lat="62.612311" lon="9.691278"><ele>954</ele></trkpt><trkpt lat="62.612043" lon="9.691326"><ele>937</ele></trkpt><trkpt lat="62.611797" lon="9.691956"><ele>921</ele></trkpt><trkpt lat="62.611551" lon="9.692586"><ele>902</ele></trkpt><trkpt lat="62.611298" lon="9.693022"><ele>888</ele></trkpt><trkpt lat="62.611030" lon="9.693070"><ele>876</ele></trkpt><trkpt lat="62.610769" lon="9.693312"><ele>863</ele></trkpt><trkpt lat="62.610515" lon="9.693748"><ele>846</ele></trkpt><trkpt lat="62.610247" lon="9.693796"><ele>832</ele></trkpt><trkpt lat="62.609979" lon="9.693844"><ele>820</ele></trkpt><trkpt lat="62.609711" lon="9.693892"><ele>809</ele></trkpt><trkpt lat="62.609443" lon="9.693940"><ele>801</ele></trkpt><trkpt lat="62.609175" lon="9.693988"><ele>790</ele></trkpt><trkpt lat="62.608922" lon="9.694424"><ele>779</ele></trkpt><trkpt lat="62.608661" lon="9.694666"><ele>768</ele></trkpt><trkpt lat="62.608407" lon="9.695101"><ele>752</ele></trkpt><trkpt lat="62.608139" lon="9.695149"><ele>739</ele></trkpt><trkpt lat="62.607871" lon="9.695197"><ele>726</ele></trkpt><trkpt lat="62.607603" lon="9.695245"><ele>715</ele></trkpt><trkpt lat="62.607313" lon="9.694711"><ele>706</ele></trkpt><trkpt lat="62.607037" lon="9.694565"><ele>698</ele></trkpt><trkpt lat="62.606762" lon="9.694419"><ele>689</ele></trkpt><trkpt lat="62.606494" lon="9.694467"><ele>677</ele></trkpt><trkpt lat="62.606226" lon="9.694515"><ele>666</ele></trkpt><trkpt lat="62.606047" lon="9.694547"><ele>658</ele></trkpt></trkseg></trk></gpx>