<?xml version="1.0" encoding="UTF-8"?>
<gpx version="1.1" creator="Rando toppturs" xmlns="http://www.topografix.com/GPX/1/1"><metadata><name>033 Gjerdhøa 1559 m</name><desc>This is an automatically generated list. I have not checked them all. Do not attempt these if you're a beginner. Generated 2026-09-13 17:42 from Kartverket 10 m terrain. Ascent lines are least-cost terrain paths under 35°, not verified routes. Not a snow-stability assessment.</desc></metadata><wpt lat="62.624981" lon="9.300259"><ele>558</ele><name>Car · Gjerdhøa 1559 m</name></wpt><wpt lat="62.620881" lon="9.228921"><ele>1559</ele><name>Gjerdhøa 1559 m</name></wpt><trk><name>Up · Gjerdhøa 1559 m</name><desc>least-cost ascent: +1005 m over 4389 m, max 34°, 0.3% on 30–35°, ≈3.61 h at 4 km/h + 400 m/h. Terrain possibility, not a checked route.</desc><trkseg><trkpt lat="62.624981" lon="9.300259"><ele>558</ele></trkpt><trkpt lat="62.624941" lon="9.299289"><ele>560</ele></trkpt><trkpt lat="62.624902" lon="9.298319"><ele>562</ele></trkpt><trkpt lat="62.624862" lon="9.297349"><ele>566</ele></trkpt><trkpt lat="62.624822" lon="9.296379"><ele>570</ele></trkpt><trkpt lat="62.624783" lon="9.295410"><ele>577</ele></trkpt><trkpt lat="62.624743" lon="9.294440"><ele>588</ele></trkpt><trkpt lat="62.624703" lon="9.293470"><ele>599</ele></trkpt><trkpt lat="62.624664" lon="9.292500"><ele>612</ele></trkpt><trkpt lat="62.624178" lon="9.291617"><ele>621</ele></trkpt><trkpt lat="62.623691" lon="9.290733"><ele>630</ele></trkpt><trkpt lat="62.623205" lon="9.289849"><ele>638</ele></trkpt><trkpt lat="62.622898" lon="9.288931"><ele>642</ele></trkpt><trkpt lat="62.622679" lon="9.287996"><ele>654</ele></trkpt><trkpt lat="62.622550" lon="9.287043"><ele>666</ele></trkpt><trkpt lat="62.622332" lon="9.286108"><ele>668</ele></trkpt><trkpt lat="62.622292" lon="9.285138"><ele>678</ele></trkpt><trkpt lat="62.622163" lon="9.284186"><ele>687</ele></trkpt><trkpt lat="62.622034" lon="9.283233"><ele>698</ele></trkpt><trkpt lat="62.621995" lon="9.282264"><ele>708</ele></trkpt><trkpt lat="62.621866" lon="9.281311"><ele>723</ele></trkpt><trkpt lat="62.621647" lon="9.280376"><ele>737</ele></trkpt><trkpt lat="62.621429" lon="9.279441"><ele>752</ele></trkpt><trkpt lat="62.621211" lon="9.278506"><ele>771</ele></trkpt><trkpt lat="62.620992" lon="9.277571"><ele>795</ele></trkpt><trkpt lat="62.620774" lon="9.276636"><ele>809</ele></trkpt><trkpt lat="62.620556" lon="9.275700"><ele>823</ele></trkpt><trkpt lat="62.620337" lon="9.274765"><ele>835</ele></trkpt><trkpt lat="62.620119" lon="9.273830"><ele>847</ele></trkpt><trkpt lat="62.619811" lon="9.272912"><ele>861</ele></trkpt><trkpt lat="62.619682" lon="9.271960"><ele>878</ele></trkpt><trkpt lat="62.619464" lon="9.271025"><ele>892</ele></trkpt><trkpt lat="62.619335" lon="9.270073"><ele>906</ele></trkpt><trkpt lat="62.619205" lon="9.269121"><ele>921</ele></trkpt><trkpt lat="62.619076" lon="9.268168"><ele>937</ele></trkpt><trkpt lat="62.619037" lon="9.267199"><ele>947</ele></trkpt><trkpt lat="62.618907" lon="9.266246"><ele>961</ele></trkpt><trkpt lat="62.618689" lon="9.265311"><ele>974</ele></trkpt><trkpt lat="62.618471" lon="9.264376"><ele>987</ele></trkpt><trkpt lat="62.618431" lon="9.263407"><ele>999</ele></trkpt><trkpt lat="62.618302" lon="9.262455"><ele>1011</ele></trkpt><trkpt lat="62.618172" lon="9.261502"><ele>1024</ele></trkpt><trkpt lat="62.618133" lon="9.260533"><ele>1041</ele></trkpt><trkpt lat="62.618182" lon="9.259546"><ele>1057</ele></trkpt><trkpt lat="62.618231" lon="9.258559"><ele>1072</ele></trkpt><trkpt lat="62.618281" lon="9.257572"><ele>1089</ele></trkpt><trkpt lat="62.618241" lon="9.256603"><ele>1104</ele></trkpt><trkpt lat="62.618290" lon="9.255616"><ele>1115</ele></trkpt><trkpt lat="62.618251" lon="9.254647"><ele>1128</ele></trkpt><trkpt lat="62.618300" lon="9.253660"><ele>1138</ele></trkpt><trkpt lat="62.617903" lon="9.252759"><ele>1153</ele></trkpt><trkpt lat="62.617595" lon="9.251842"><ele>1170</ele></trkpt><trkpt lat="62.617377" lon="9.250907"><ele>1192</ele></trkpt><trkpt lat="62.617158" lon="9.249972"><ele>1213</ele></trkpt><trkpt lat="62.616939" lon="9.249038"><ele>1225</ele></trkpt><trkpt lat="62.616721" lon="9.248103"><ele>1237</ele></trkpt><trkpt lat="62.616681" lon="9.247133"><ele>1252</ele></trkpt><trkpt lat="62.616641" lon="9.246164"><ele>1266</ele></trkpt><trkpt lat="62.616601" lon="9.245194"><ele>1283</ele></trkpt><trkpt lat="62.616650" lon="9.244208"><ele>1292</ele></trkpt><trkpt lat="62.617057" lon="9.243151"><ele>1302</ele></trkpt><trkpt lat="62.617463" lon="9.242095"><ele>1309</ele></trkpt><trkpt lat="62.617870" lon="9.241039"><ele>1320</ele></trkpt><trkpt lat="62.618277" lon="9.239983"><ele>1332</ele></trkpt><trkpt lat="62.618594" lon="9.238944"><ele>1355</ele></trkpt><trkpt lat="62.618732" lon="9.237939"><ele>1372</ele></trkpt><trkpt lat="62.619050" lon="9.236900"><ele>1396</ele></trkpt><trkpt lat="62.619367" lon="9.235861"><ele>1423</ele></trkpt><trkpt lat="62.619773" lon="9.234805"><ele>1454</ele></trkpt><trkpt lat="62.619912" lon="9.233800"><ele>1471</ele></trkpt><trkpt lat="62.620318" lon="9.232744"><ele>1489</ele></trkpt><trkpt lat="62.620725" lon="9.231687"><ele>1512</ele></trkpt><trkpt lat="62.620953" lon="9.230666"><ele>1537</ele></trkpt><trkpt lat="62.620913" lon="9.229696"><ele>1552</ele></trkpt><trkpt lat="62.620881" lon="9.228921"><ele>1559</ele></trkpt></trkseg></trk><wpt lat="62.617255" lon="9.250149"><ele>1209</ele><name>Run end · Gjerdhøa 1559 m</name></wpt><trk><name>Down · Gjerdhøa 1559 m</name><desc>fall-line run: 711 m of 20–30°, 341 m drop, aspect 122°, max 30°, 0.9% ≥30°; ends 2.71 km from the car.</desc><trkseg><trkpt lat="62.620718" lon="9.229343"><ele>1551</ele></trkpt><trkpt lat="62.620474" lon="9.229977"><ele>1530</ele></trkpt><trkpt lat="62.620230" lon="9.230611"><ele>1512</ele></trkpt><trkpt lat="62.619986" lon="9.231245"><ele>1497</ele></trkpt><trkpt lat="62.619734" lon="9.231685"><ele>1483</ele></trkpt><trkpt lat="62.619483" lon="9.232125"><ele>1474</ele></trkpt><trkpt lat="62.619239" lon="9.232759"><ele>1459</ele></trkpt><trkpt lat="62.618995" lon="9.233393"><ele>1441</ele></trkpt><trkpt lat="62.618751" lon="9.234027"><ele>1424</ele></trkpt><trkpt lat="62.618507" lon="9.234660"><ele>1406</ele></trkpt><trkpt lat="62.618263" lon="9.235294"><ele>1389</ele></trkpt><trkpt lat="62.618019" lon="9.235928"><ele>1375</ele></trkpt><trkpt lat="62.617775" lon="9.236562"><ele>1362</ele></trkpt><trkpt lat="62.617531" lon="9.237196"><ele>1349</ele></trkpt><trkpt lat="62.617288" lon="9.237829"><ele>1335</ele></trkpt><trkpt lat="62.617028" lon="9.238075"><ele>1325</ele></trkpt><trkpt lat="62.616760" lon="9.238128"><ele>1323</ele></trkpt><trkpt lat="62.616492" lon="9.238180"><ele>1320</ele></trkpt><trkpt lat="62.616240" lon="9.238620"><ele>1318</ele></trkpt><trkpt lat="62.616085" lon="9.239236"><ele>1315</ele></trkpt><trkpt lat="62.615841" lon="9.239870"><ele>1312</ele></trkpt><trkpt lat="62.615687" lon="9.240486"><ele>1308</ele></trkpt><trkpt lat="62.615621" lon="9.241085"><ele>1305</ele></trkpt><trkpt lat="62.615645" lon="9.241667"><ele>1303</ele></trkpt><trkpt lat="62.615848" lon="9.242214"><ele>1300</ele></trkpt><trkpt lat="62.615783" lon="9.242813"><ele>1297</ele></trkpt><trkpt lat="62.615896" lon="9.243377"><ele>1292</ele></trkpt><trkpt lat="62.616009" lon="9.243941"><ele>1289</ele></trkpt><trkpt lat="62.616212" lon="9.244488"><ele>1284</ele></trkpt><trkpt lat="62.616325" lon="9.245053"><ele>1278</ele></trkpt><trkpt lat="62.616438" lon="9.245617"><ele>1272</ele></trkpt><trkpt lat="62.616641" lon="9.246164"><ele>1266</ele></trkpt><trkpt lat="62.616665" lon="9.246746"><ele>1257</ele></trkpt><trkpt lat="62.616689" lon="9.247327"><ele>1249</ele></trkpt><trkpt lat="62.616713" lon="9.247909"><ele>1239</ele></trkpt><trkpt lat="62.616826" lon="9.248473"><ele>1232</ele></trkpt><trkpt lat="62.616939" lon="9.249038"><ele>1225</ele></trkpt><trkpt lat="62.617142" lon="9.249585"><ele>1217</ele></trkpt><trkpt lat="62.617255" lon="9.250149"><ele>1209</ele></trkpt><trkpt lat="62.617255" lon="9.250149"><ele>1209</ele></trkpt></trkseg></trk></gpx>