<?xml version="1.0" encoding="UTF-8"?>
<gpx version="1.1" creator="Rando toppturs" xmlns="http://www.topografix.com/GPX/1/1"><metadata><name>034 Storhøa 1390 m</name><desc>This is an automatically generated list. I have not checked them all. Do not attempt these if you're a beginner. Generated 2026-09-13 17:42 from Kartverket 10 m terrain. Ascent lines are least-cost terrain paths under 35°, not verified routes. Not a snow-stability assessment.</desc></metadata><wpt lat="62.483694" lon="9.648075"><ele>874</ele><name>Car · Storhøa 1390 m</name></wpt><wpt lat="62.480119" lon="9.611378"><ele>1390</ele><name>Storhøa 1390 m</name></wpt><trk><name>Up · Storhøa 1390 m</name><desc>least-cost ascent: +544 m over 2289 m, max 34°, 0.5% on 30–35°, ≈1.93 h at 4 km/h + 400 m/h. Terrain possibility, not a checked route.</desc><trkseg><trkpt lat="62.483694" lon="9.648075"><ele>874</ele></trkpt><trkpt lat="62.483657" lon="9.647109"><ele>859</ele></trkpt><trkpt lat="62.483620" lon="9.646143"><ele>848</ele></trkpt><trkpt lat="62.483582" lon="9.645177"><ele>860</ele></trkpt><trkpt lat="62.483545" lon="9.644211"><ele>879</ele></trkpt><trkpt lat="62.483776" lon="9.643197"><ele>903</ele></trkpt><trkpt lat="62.484186" lon="9.642151"><ele>933</ele></trkpt><trkpt lat="62.484417" lon="9.641137"><ele>951</ele></trkpt><trkpt lat="62.484380" lon="9.640171"><ele>974</ele></trkpt><trkpt lat="62.484342" lon="9.639206"><ele>996</ele></trkpt><trkpt lat="62.484484" lon="9.638208"><ele>1021</ele></trkpt><trkpt lat="62.484447" lon="9.637242"><ele>1044</ele></trkpt><trkpt lat="62.484499" lon="9.636260"><ele>1066</ele></trkpt><trkpt lat="62.484640" lon="9.635262"><ele>1085</ele></trkpt><trkpt lat="62.485050" lon="9.634216"><ele>1103</ele></trkpt><trkpt lat="62.485013" lon="9.633250"><ele>1126</ele></trkpt><trkpt lat="62.484708" lon="9.632332"><ele>1160</ele></trkpt><trkpt lat="62.484670" lon="9.631367"><ele>1176</ele></trkpt><trkpt lat="62.484633" lon="9.630401"><ele>1184</ele></trkpt><trkpt lat="62.484596" lon="9.629435"><ele>1191</ele></trkpt><trkpt lat="62.484469" lon="9.628485"><ele>1203</ele></trkpt><trkpt lat="62.484074" lon="9.627584"><ele>1222</ele></trkpt><trkpt lat="62.484037" lon="9.626618"><ele>1236</ele></trkpt><trkpt lat="62.483732" lon="9.625701"><ele>1254</ele></trkpt><trkpt lat="62.483248" lon="9.624816"><ele>1272</ele></trkpt><trkpt lat="62.482764" lon="9.623931"><ele>1293</ele></trkpt><trkpt lat="62.482726" lon="9.622965"><ele>1309</ele></trkpt><trkpt lat="62.482689" lon="9.621999"><ele>1317</ele></trkpt><trkpt lat="62.482652" lon="9.621033"><ele>1319</ele></trkpt><trkpt lat="62.482614" lon="9.620068"><ele>1319</ele></trkpt><trkpt lat="62.482577" lon="9.619102"><ele>1324</ele></trkpt><trkpt lat="62.482361" lon="9.618168"><ele>1333</ele></trkpt><trkpt lat="62.481877" lon="9.617283"><ele>1342</ele></trkpt><trkpt lat="62.481393" lon="9.616399"><ele>1348</ele></trkpt><trkpt lat="62.480908" lon="9.615514"><ele>1366</ele></trkpt><trkpt lat="62.480871" lon="9.614548"><ele>1376</ele></trkpt><trkpt lat="62.480834" lon="9.613582"><ele>1379</ele></trkpt><trkpt lat="62.480796" lon="9.612617"><ele>1380</ele></trkpt><trkpt lat="62.480312" lon="9.611732"><ele>1388</ele></trkpt><trkpt lat="62.480119" lon="9.611378"><ele>1390</ele></trkpt></trkseg></trk><wpt lat="62.493636" lon="9.644537"><ele>824</ele><name>Run end · Storhøa 1390 m</name></wpt><trk><name>Down · Storhøa 1390 m</name><desc>fall-line run: 703 m of 20–30°, 505 m drop, aspect 60°, max 31°, 0.7% ≥30°; ends 1.12 km from the car.</desc><trkseg><trkpt lat="62.480119" lon="9.611378"><ele>1390</ele></trkpt><trkpt lat="62.485213" lon="9.619793"><ele>1329</ele></trkpt><trkpt lat="62.485504" lon="9.620324"><ele>1312</ele></trkpt><trkpt lat="62.485794" lon="9.620855"><ele>1299</ele></trkpt><trkpt lat="62.486070" lon="9.621000"><ele>1292</ele></trkpt><trkpt lat="62.486360" lon="9.621531"><ele>1280</ele></trkpt><trkpt lat="62.486651" lon="9.622062"><ele>1266</ele></trkpt><trkpt lat="62.486941" lon="9.622593"><ele>1248</ele></trkpt><trkpt lat="62.487232" lon="9.623124"><ele>1231</ele></trkpt><trkpt lat="62.487522" lon="9.623656"><ele>1211</ele></trkpt><trkpt lat="62.487813" lon="9.624187"><ele>1190</ele></trkpt><trkpt lat="62.488103" lon="9.624718"><ele>1179</ele></trkpt><trkpt lat="62.488394" lon="9.625249"><ele>1169</ele></trkpt><trkpt lat="62.488684" lon="9.625780"><ele>1157</ele></trkpt><trkpt lat="62.488975" lon="9.626311"><ele>1144</ele></trkpt><trkpt lat="62.489265" lon="9.626843"><ele>1137</ele></trkpt><trkpt lat="62.489556" lon="9.627374"><ele>1128</ele></trkpt><trkpt lat="62.489846" lon="9.627905"><ele>1119</ele></trkpt><trkpt lat="62.490136" lon="9.628436"><ele>1112</ele></trkpt><trkpt lat="62.490427" lon="9.628968"><ele>1107</ele></trkpt><trkpt lat="62.490717" lon="9.629499"><ele>1102</ele></trkpt><trkpt lat="62.491008" lon="9.630030"><ele>1096</ele></trkpt><trkpt lat="62.491298" lon="9.630561"><ele>1090</ele></trkpt><trkpt lat="62.491589" lon="9.631093"><ele>1083</ele></trkpt><trkpt lat="62.491879" lon="9.631624"><ele>1074</ele></trkpt><trkpt lat="62.491991" lon="9.632188"><ele>1066</ele></trkpt><trkpt lat="62.492281" lon="9.632719"><ele>1057</ele></trkpt><trkpt lat="62.492482" lon="9.633266"><ele>1054</ele></trkpt><trkpt lat="62.492773" lon="9.633798"><ele>1049</ele></trkpt><trkpt lat="62.492974" lon="9.634345"><ele>1041</ele></trkpt><trkpt lat="62.493086" lon="9.634909"><ele>1031</ele></trkpt><trkpt lat="62.493197" lon="9.635472"><ele>1018</ele></trkpt><trkpt lat="62.493220" lon="9.636052"><ele>1007</ele></trkpt><trkpt lat="62.493242" lon="9.636632"><ele>994</ele></trkpt><trkpt lat="62.493264" lon="9.637211"><ele>981</ele></trkpt><trkpt lat="62.493376" lon="9.637775"><ele>969</ele></trkpt><trkpt lat="62.493488" lon="9.638338"><ele>958</ele></trkpt><trkpt lat="62.493510" lon="9.638918"><ele>947</ele></trkpt><trkpt lat="62.493532" lon="9.639498"><ele>934</ele></trkpt><trkpt lat="62.493644" lon="9.640061"><ele>919</ele></trkpt><trkpt lat="62.493666" lon="9.640641"><ele>906</ele></trkpt><trkpt lat="62.493688" lon="9.641221"><ele>892</ele></trkpt><trkpt lat="62.493711" lon="9.641800"><ele>879</ele></trkpt><trkpt lat="62.493644" lon="9.642396"><ele>867</ele></trkpt><trkpt lat="62.493666" lon="9.642976"><ele>853</ele></trkpt><trkpt lat="62.493688" lon="9.643555"><ele>839</ele></trkpt><trkpt lat="62.493711" lon="9.644135"><ele>829</ele></trkpt><trkpt lat="62.493636" lon="9.644537"><ele>824</ele></trkpt></trkseg></trk></gpx>