<?xml version="1.0" encoding="UTF-8"?>
<gpx version="1.1" creator="Rando toppturs" xmlns="http://www.topografix.com/GPX/1/1"><metadata><name>035 Vinndalskamben 1419 m</name><desc>This is an automatically generated list. I have not checked them all. Do not attempt these if you're a beginner. Generated 2026-09-13 17:42 from Kartverket 10 m terrain. Ascent lines are least-cost terrain paths under 35°, not verified routes. Not a snow-stability assessment.</desc></metadata><wpt lat="62.591180" lon="9.345613"><ele>507</ele><name>Car · Vinndalskamben 1419 m</name></wpt><wpt lat="62.605801" lon="9.362163"><ele>1419</ele><name>Vinndalskamben 1419 m</name></wpt><trk><name>Up · Vinndalskamben 1419 m</name><desc>least-cost ascent: +912 m over 2786 m, max 33°, 1.3% on 30–35°, ≈2.98 h at 4 km/h + 400 m/h. Terrain possibility, not a checked route.</desc><trkseg><trkpt lat="62.591180" lon="9.345613"><ele>507</ele></trkpt><trkpt lat="62.591219" lon="9.346582"><ele>514</ele></trkpt><trkpt lat="62.591258" lon="9.347550"><ele>522</ele></trkpt><trkpt lat="62.591298" lon="9.348519"><ele>530</ele></trkpt><trkpt lat="62.591337" lon="9.349488"><ele>542</ele></trkpt><trkpt lat="62.591376" lon="9.350457"><ele>557</ele></trkpt><trkpt lat="62.591505" lon="9.351409"><ele>576</ele></trkpt><trkpt lat="62.591812" lon="9.352326"><ele>598</ele></trkpt><trkpt lat="62.591851" lon="9.353295"><ele>617</ele></trkpt><trkpt lat="62.592158" lon="9.354213"><ele>644</ele></trkpt><trkpt lat="62.592197" lon="9.355182"><ele>665</ele></trkpt><trkpt lat="62.592504" lon="9.356100"><ele>693</ele></trkpt><trkpt lat="62.592722" lon="9.357034"><ele>723</ele></trkpt><trkpt lat="62.592851" lon="9.357986"><ele>751</ele></trkpt><trkpt lat="62.592890" lon="9.358955"><ele>777</ele></trkpt><trkpt lat="62.592929" lon="9.359924"><ele>803</ele></trkpt><trkpt lat="62.592968" lon="9.360893"><ele>829</ele></trkpt><trkpt lat="62.592829" lon="9.361896"><ele>853</ele></trkpt><trkpt lat="62.592868" lon="9.362865"><ele>875</ele></trkpt><trkpt lat="62.593086" lon="9.363800"><ele>897</ele></trkpt><trkpt lat="62.593571" lon="9.364684"><ele>915</ele></trkpt><trkpt lat="62.594018" lon="9.364599"><ele>932</ele></trkpt><trkpt lat="62.594465" lon="9.364514"><ele>946</ele></trkpt><trkpt lat="62.594911" lon="9.364429"><ele>958</ele></trkpt><trkpt lat="62.595358" lon="9.364344"><ele>969</ele></trkpt><trkpt lat="62.595804" lon="9.364259"><ele>980</ele></trkpt><trkpt lat="62.596251" lon="9.364174"><ele>989</ele></trkpt><trkpt lat="62.596698" lon="9.364089"><ele>1006</ele></trkpt><trkpt lat="62.597144" lon="9.364005"><ele>1018</ele></trkpt><trkpt lat="62.597591" lon="9.363920"><ele>1038</ele></trkpt><trkpt lat="62.598038" lon="9.363835"><ele>1058</ele></trkpt><trkpt lat="62.598523" lon="9.364719"><ele>1083</ele></trkpt><trkpt lat="62.598978" lon="9.364828"><ele>1109</ele></trkpt><trkpt lat="62.599440" lon="9.365131"><ele>1139</ele></trkpt><trkpt lat="62.599902" lon="9.365433"><ele>1164</ele></trkpt><trkpt lat="62.600357" lon="9.365542"><ele>1185</ele></trkpt><trkpt lat="62.600842" lon="9.366426"><ele>1203</ele></trkpt><trkpt lat="62.601289" lon="9.366342"><ele>1220</ele></trkpt><trkpt lat="62.601736" lon="9.366257"><ele>1234</ele></trkpt><trkpt lat="62.602182" lon="9.366172"><ele>1246</ele></trkpt><trkpt lat="62.602629" lon="9.366087"><ele>1261</ele></trkpt><trkpt lat="62.603060" lon="9.365614"><ele>1280</ele></trkpt><trkpt lat="62.603491" lon="9.365142"><ele>1297</ele></trkpt><trkpt lat="62.603898" lon="9.364088"><ele>1315</ele></trkpt><trkpt lat="62.604306" lon="9.363033"><ele>1339</ele></trkpt><trkpt lat="62.604713" lon="9.361979"><ele>1371</ele></trkpt><trkpt lat="62.605168" lon="9.362088"><ele>1394</ele></trkpt><trkpt lat="62.605614" lon="9.362003"><ele>1417</ele></trkpt><trkpt lat="62.605801" lon="9.362163"><ele>1419</ele></trkpt></trkseg></trk><wpt lat="62.595737" lon="9.360366"><ele>946</ele><name>Run end · Vinndalskamben 1419 m</name></wpt><trk><name>Down · Vinndalskamben 1419 m</name><desc>fall-line run: 702 m of 20–30°, 410 m drop, aspect 193°, max 33°, 2.9% ≥30°; ends 0.91 km from the car.</desc><trkseg><trkpt lat="62.605801" lon="9.362163"><ele>1419</ele></trkpt><trkpt lat="62.604799" lon="9.364112"><ele>1356</ele></trkpt><trkpt lat="62.604532" lon="9.364163"><ele>1342</ele></trkpt><trkpt lat="62.604264" lon="9.364214"><ele>1328</ele></trkpt><trkpt lat="62.603996" lon="9.364265"><ele>1317</ele></trkpt><trkpt lat="62.603728" lon="9.364315"><ele>1308</ele></trkpt><trkpt lat="62.603460" lon="9.364366"><ele>1298</ele></trkpt><trkpt lat="62.603192" lon="9.364417"><ele>1287</ele></trkpt><trkpt lat="62.602939" lon="9.364856"><ele>1282</ele></trkpt><trkpt lat="62.602679" lon="9.365101"><ele>1269</ele></trkpt><trkpt lat="62.602411" lon="9.365152"><ele>1256</ele></trkpt><trkpt lat="62.602143" lon="9.365203"><ele>1246</ele></trkpt><trkpt lat="62.601875" lon="9.365254"><ele>1235</ele></trkpt><trkpt lat="62.601607" lon="9.365305"><ele>1229</ele></trkpt><trkpt lat="62.601339" lon="9.365355"><ele>1218</ele></trkpt><trkpt lat="62.601056" lon="9.365019"><ele>1204</ele></trkpt><trkpt lat="62.600780" lon="9.364876"><ele>1192</ele></trkpt><trkpt lat="62.600488" lon="9.364345"><ele>1175</ele></trkpt><trkpt lat="62.600376" lon="9.363781"><ele>1167</ele></trkpt><trkpt lat="62.600263" lon="9.363216"><ele>1159</ele></trkpt><trkpt lat="62.599971" lon="9.362686"><ele>1146</ele></trkpt><trkpt lat="62.599680" lon="9.362155"><ele>1129</ele></trkpt><trkpt lat="62.599412" lon="9.362206"><ele>1113</ele></trkpt><trkpt lat="62.599144" lon="9.362257"><ele>1101</ele></trkpt><trkpt lat="62.598868" lon="9.362114"><ele>1083</ele></trkpt><trkpt lat="62.598600" lon="9.362165"><ele>1069</ele></trkpt><trkpt lat="62.598332" lon="9.362216"><ele>1056</ele></trkpt><trkpt lat="62.598064" lon="9.362267"><ele>1045</ele></trkpt><trkpt lat="62.597796" lon="9.362318"><ele>1040</ele></trkpt><trkpt lat="62.597513" lon="9.361982"><ele>1029</ele></trkpt><trkpt lat="62.597245" lon="9.362033"><ele>1016</ele></trkpt><trkpt lat="62.596969" lon="9.361890"><ele>1005</ele></trkpt><trkpt lat="62.596693" lon="9.361747"><ele>993</ele></trkpt><trkpt lat="62.596417" lon="9.361604"><ele>985</ele></trkpt><trkpt lat="62.596126" lon="9.361074"><ele>968</ele></trkpt><trkpt lat="62.595834" lon="9.360543"><ele>951</ele></trkpt><trkpt lat="62.595737" lon="9.360366"><ele>946</ele></trkpt></trkseg></trk></gpx>