<?xml version="1.0" encoding="UTF-8"?>
<gpx version="1.1" creator="Rando toppturs" xmlns="http://www.topografix.com/GPX/1/1"><metadata><name>037 Nystugguhøa 1754 m</name><desc>This is an automatically generated list. I have not checked them all. Do not attempt these if you're a beginner. Generated 2026-09-13 17:42 from Kartverket 10 m terrain. Ascent lines are least-cost terrain paths under 35°, not verified routes. Not a snow-stability assessment.</desc></metadata><wpt lat="62.343285" lon="9.619339"><ele>789</ele><name>Car · Nystugguhøa 1754 m</name></wpt><wpt lat="62.348244" lon="9.557264"><ele>1754</ele><name>Nystugguhøa 1754 m</name></wpt><trk><name>Up · Nystugguhøa 1754 m</name><desc>least-cost ascent: +1008 m over 4113 m, max 35°, 8.6% on 30–35°, ≈3.55 h at 4 km/h + 400 m/h. Terrain possibility, not a checked route.</desc><trkseg><trkpt lat="62.343285" lon="9.619339"><ele>789</ele></trkpt><trkpt lat="62.343606" lon="9.618313"><ele>791</ele></trkpt><trkpt lat="62.343568" lon="9.617352"><ele>802</ele></trkpt><trkpt lat="62.343799" lon="9.616343"><ele>815</ele></trkpt><trkpt lat="62.343762" lon="9.615381"><ele>826</ele></trkpt><trkpt lat="62.343903" lon="9.614388"><ele>828</ele></trkpt><trkpt lat="62.343955" lon="9.613411"><ele>844</ele></trkpt><trkpt lat="62.343918" lon="9.612449"><ele>870</ele></trkpt><trkpt lat="62.344059" lon="9.611456"><ele>896</ele></trkpt><trkpt lat="62.344022" lon="9.610495"><ele>914</ele></trkpt><trkpt lat="62.343895" lon="9.609550"><ele>928</ele></trkpt><trkpt lat="62.343858" lon="9.608588"><ele>949</ele></trkpt><trkpt lat="62.343821" lon="9.607627"><ele>968</ele></trkpt><trkpt lat="62.343694" lon="9.606682"><ele>987</ele></trkpt><trkpt lat="62.343210" lon="9.605801"><ele>989</ele></trkpt><trkpt lat="62.342740" lon="9.605305"><ele>983</ele></trkpt><trkpt lat="62.342346" lon="9.604408"><ele>1008</ele></trkpt><trkpt lat="62.342130" lon="9.603479"><ele>1020</ele></trkpt><trkpt lat="62.341824" lon="9.602566"><ele>1024</ele></trkpt><trkpt lat="62.341340" lon="9.601685"><ele>1029</ele></trkpt><trkpt lat="62.340945" lon="9.600789"><ele>1042</ele></trkpt><trkpt lat="62.340550" lon="9.599892"><ele>1065</ele></trkpt><trkpt lat="62.340423" lon="9.598947"><ele>1081</ele></trkpt><trkpt lat="62.340386" lon="9.597986"><ele>1101</ele></trkpt><trkpt lat="62.340349" lon="9.597025"><ele>1116</ele></trkpt><trkpt lat="62.340222" lon="9.596080"><ele>1130</ele></trkpt><trkpt lat="62.340184" lon="9.595119"><ele>1139</ele></trkpt><trkpt lat="62.340147" lon="9.594157"><ele>1149</ele></trkpt><trkpt lat="62.340020" lon="9.593212"><ele>1165</ele></trkpt><trkpt lat="62.339804" lon="9.592284"><ele>1182</ele></trkpt><trkpt lat="62.339588" lon="9.591355"><ele>1204</ele></trkpt><trkpt lat="62.339461" lon="9.590410"><ele>1226</ele></trkpt><trkpt lat="62.339423" lon="9.589449"><ele>1252</ele></trkpt><trkpt lat="62.339386" lon="9.588488"><ele>1283</ele></trkpt><trkpt lat="62.339170" lon="9.587559"><ele>1311</ele></trkpt><trkpt lat="62.339579" lon="9.586517"><ele>1343</ele></trkpt><trkpt lat="62.339996" lon="9.585668"><ele>1372</ele></trkpt><trkpt lat="62.340428" lon="9.585202"><ele>1402</ele></trkpt><trkpt lat="62.340837" lon="9.584161"><ele>1446</ele></trkpt><trkpt lat="62.341261" lon="9.583503"><ele>1482</ele></trkpt><trkpt lat="62.341678" lon="9.582654"><ele>1522</ele></trkpt><trkpt lat="62.341819" lon="9.581660"><ele>1544</ele></trkpt><trkpt lat="62.341782" lon="9.580699"><ele>1554</ele></trkpt><trkpt lat="62.341744" lon="9.579738"><ele>1560</ele></trkpt><trkpt lat="62.342153" lon="9.578696"><ele>1557</ele></trkpt><trkpt lat="62.342562" lon="9.577654"><ele>1548</ele></trkpt><trkpt lat="62.342972" lon="9.576612"><ele>1541</ele></trkpt><trkpt lat="62.343381" lon="9.575570"><ele>1535</ele></trkpt><trkpt lat="62.343790" lon="9.574528"><ele>1534</ele></trkpt><trkpt lat="62.344199" lon="9.573486"><ele>1534</ele></trkpt><trkpt lat="62.344609" lon="9.572444"><ele>1539</ele></trkpt><trkpt lat="62.345018" lon="9.571402"><ele>1555</ele></trkpt><trkpt lat="62.345427" lon="9.570360"><ele>1574</ele></trkpt><trkpt lat="62.345836" lon="9.569318"><ele>1600</ele></trkpt><trkpt lat="62.345977" lon="9.568324"><ele>1616</ele></trkpt><trkpt lat="62.345940" lon="9.567363"><ele>1628</ele></trkpt><trkpt lat="62.345902" lon="9.566401"><ele>1640</ele></trkpt><trkpt lat="62.345864" lon="9.565440"><ele>1651</ele></trkpt><trkpt lat="62.345827" lon="9.564479"><ele>1663</ele></trkpt><trkpt lat="62.345789" lon="9.563518"><ele>1673</ele></trkpt><trkpt lat="62.346198" lon="9.562475"><ele>1691</ele></trkpt><trkpt lat="62.346607" lon="9.561433"><ele>1707</ele></trkpt><trkpt lat="62.347016" lon="9.560391"><ele>1724</ele></trkpt><trkpt lat="62.347425" lon="9.559349"><ele>1731</ele></trkpt><trkpt lat="62.347834" lon="9.558306"><ele>1740</ele></trkpt><trkpt lat="62.348244" lon="9.557264"><ele>1754</ele></trkpt><trkpt lat="62.348244" lon="9.557264"><ele>1754</ele></trkpt></trkseg></trk><wpt lat="62.357886" lon="9.541566"><ele>1279</ele><name>Run end · Nystugguhøa 1754 m</name></wpt><trk><name>Down · Nystugguhøa 1754 m</name><desc>fall-line run: 669 m of 20–30°, 302 m drop, aspect 314°, max 31°, 1.7% ≥30°; ends 4.35 km from the car.</desc><trkseg><trkpt lat="62.348244" lon="9.557264"><ele>1754</ele></trkpt><trkpt lat="62.353774" lon="9.551418"><ele>1581</ele></trkpt><trkpt lat="62.354019" lon="9.550792"><ele>1562</ele></trkpt><trkpt lat="62.354265" lon="9.550166"><ele>1541</ele></trkpt><trkpt lat="62.354533" lon="9.550118"><ele>1529</ele></trkpt><trkpt lat="62.354786" lon="9.549684"><ele>1514</ele></trkpt><trkpt lat="62.355038" lon="9.549251"><ele>1496</ele></trkpt><trkpt lat="62.355291" lon="9.548818"><ele>1482</ele></trkpt><trkpt lat="62.355560" lon="9.548769"><ele>1472</ele></trkpt><trkpt lat="62.355820" lon="9.548528"><ele>1463</ele></trkpt><trkpt lat="62.356065" lon="9.547902"><ele>1453</ele></trkpt><trkpt lat="62.356311" lon="9.547276"><ele>1436</ele></trkpt><trkpt lat="62.356556" lon="9.546651"><ele>1415</ele></trkpt><trkpt lat="62.356802" lon="9.546025"><ele>1394</ele></trkpt><trkpt lat="62.357047" lon="9.545399"><ele>1377</ele></trkpt><trkpt lat="62.357203" lon="9.544790"><ele>1362</ele></trkpt><trkpt lat="62.357448" lon="9.544164"><ele>1349</ele></trkpt><trkpt lat="62.357604" lon="9.543554"><ele>1332</ele></trkpt><trkpt lat="62.357671" lon="9.542961"><ele>1318</ele></trkpt><trkpt lat="62.357827" lon="9.542352"><ele>1299</ele></trkpt><trkpt lat="62.357894" lon="9.541758"><ele>1283</ele></trkpt><trkpt lat="62.357886" lon="9.541566"><ele>1279</ele></trkpt></trkseg></trk></gpx>