<?xml version="1.0" encoding="UTF-8"?>
<gpx version="1.1" creator="Rando toppturs" xmlns="http://www.topografix.com/GPX/1/1"><metadata><name>039 Tjønnpiken 1219 m</name><desc>This is an automatically generated list. I have not checked them all. Do not attempt these if you're a beginner. Generated 2026-09-13 17:42 from Kartverket 10 m terrain. Ascent lines are least-cost terrain paths under 35°, not verified routes. Not a snow-stability assessment.</desc></metadata><wpt lat="62.708705" lon="9.546757"><ele>883</ele><name>Car · Tjønnpiken 1219 m</name></wpt><wpt lat="62.713328" lon="9.524536"><ele>1219</ele><name>Tjønnpiken 1219 m</name></wpt><trk><name>Up · Tjønnpiken 1219 m</name><desc>least-cost ascent: +339 m over 1393 m, max 28°, 0.0% on 30–35°, ≈1.2 h at 4 km/h + 400 m/h. Terrain possibility, not a checked route.</desc><trkseg><trkpt lat="62.708705" lon="9.546757"><ele>883</ele></trkpt><trkpt lat="62.708935" lon="9.545734"><ele>899</ele></trkpt><trkpt lat="62.709076" lon="9.544728"><ele>917</ele></trkpt><trkpt lat="62.709396" lon="9.543689"><ele>933</ele></trkpt><trkpt lat="62.709715" lon="9.542650"><ele>963</ele></trkpt><trkpt lat="62.709856" lon="9.541644"><ele>977</ele></trkpt><trkpt lat="62.710265" lon="9.540589"><ele>992</ele></trkpt><trkpt lat="62.710674" lon="9.539533"><ele>1012</ele></trkpt><trkpt lat="62.710904" lon="9.538510"><ele>1034</ele></trkpt><trkpt lat="62.710955" lon="9.537521"><ele>1050</ele></trkpt><trkpt lat="62.711274" lon="9.536482"><ele>1071</ele></trkpt><trkpt lat="62.711594" lon="9.535442"><ele>1085</ele></trkpt><trkpt lat="62.712003" lon="9.534387"><ele>1108</ele></trkpt><trkpt lat="62.711965" lon="9.533413"><ele>1118</ele></trkpt><trkpt lat="62.711927" lon="9.532440"><ele>1134</ele></trkpt><trkpt lat="62.711889" lon="9.531467"><ele>1140</ele></trkpt><trkpt lat="62.712297" lon="9.530412"><ele>1138</ele></trkpt><trkpt lat="62.712706" lon="9.529356"><ele>1150</ele></trkpt><trkpt lat="62.713115" lon="9.528300"><ele>1163</ele></trkpt><trkpt lat="62.713166" lon="9.527310"><ele>1183</ele></trkpt><trkpt lat="62.713128" lon="9.526337"><ele>1195</ele></trkpt><trkpt lat="62.713090" lon="9.525364"><ele>1206</ele></trkpt><trkpt lat="62.713328" lon="9.524536"><ele>1219</ele></trkpt></trkseg></trk><wpt lat="62.710792" lon="9.549507"><ele>878</ele><name>Run end · Tjønnpiken 1219 m</name></wpt><trk><name>Down · Tjønnpiken 1219 m</name><desc>fall-line run: 657 m of 20–30°, 307 m drop, aspect 142°, max 30°, 1.6% ≥30°; ends 0.27 km from the car.</desc><trkseg><trkpt lat="62.713328" lon="9.524536"><ele>1219</ele></trkpt><trkpt lat="62.715215" lon="9.538300"><ele>1185</ele></trkpt><trkpt lat="62.715059" lon="9.538917"><ele>1169</ele></trkpt><trkpt lat="62.715082" lon="9.539501"><ele>1157</ele></trkpt><trkpt lat="62.715015" lon="9.540102"><ele>1145</ele></trkpt><trkpt lat="62.714770" lon="9.540735"><ele>1127</ele></trkpt><trkpt lat="62.714510" lon="9.540979"><ele>1112</ele></trkpt><trkpt lat="62.714264" lon="9.541613"><ele>1096</ele></trkpt><trkpt lat="62.713996" lon="9.541662"><ele>1085</ele></trkpt><trkpt lat="62.713751" lon="9.542296"><ele>1067</ele></trkpt><trkpt lat="62.713506" lon="9.542929"><ele>1047</ele></trkpt><trkpt lat="62.713261" lon="9.543563"><ele>1028</ele></trkpt><trkpt lat="62.713015" lon="9.544196"><ele>1011</ele></trkpt><trkpt lat="62.712770" lon="9.544830"><ele>997</ele></trkpt><trkpt lat="62.712525" lon="9.545463"><ele>980</ele></trkpt><trkpt lat="62.712279" lon="9.546096"><ele>970</ele></trkpt><trkpt lat="62.712034" lon="9.546730"><ele>950</ele></trkpt><trkpt lat="62.711789" lon="9.547363"><ele>929</ele></trkpt><trkpt lat="62.711536" lon="9.547802"><ele>917</ele></trkpt><trkpt lat="62.711283" lon="9.548241"><ele>907</ele></trkpt><trkpt lat="62.711038" lon="9.548874"><ele>892</ele></trkpt><trkpt lat="62.710792" lon="9.549507"><ele>878</ele></trkpt><trkpt lat="62.710792" lon="9.549507"><ele>878</ele></trkpt></trkseg></trk></gpx>