<?xml version="1.0" encoding="UTF-8"?>
<gpx version="1.1" creator="Rando toppturs" xmlns="http://www.topografix.com/GPX/1/1"><metadata><name>040 Skærpiken 1315 m</name><desc>This is an automatically generated list. I have not checked them all. Do not attempt these if you're a beginner. Generated 2026-09-13 17:42 from Kartverket 10 m terrain. Ascent lines are least-cost terrain paths under 35°, not verified routes. Not a snow-stability assessment.</desc></metadata><wpt lat="62.613907" lon="9.648212"><ele>775</ele><name>Car · Skærpiken 1315 m</name></wpt><wpt lat="62.634583" lon="9.675947"><ele>1315</ele><name>Skærpiken 1315 m</name></wpt><trk><name>Up · Skærpiken 1315 m</name><desc>least-cost ascent: +584 m over 3060 m, max 28°, 0.0% on 30–35°, ≈2.23 h at 4 km/h + 400 m/h. Terrain possibility, not a checked route.</desc><trkseg><trkpt lat="62.613907" lon="9.648212"><ele>775</ele></trkpt><trkpt lat="62.614391" lon="9.649101"><ele>789</ele></trkpt><trkpt lat="62.614875" lon="9.649990"><ele>802</ele></trkpt><trkpt lat="62.615359" lon="9.650880"><ele>809</ele></trkpt><trkpt lat="62.615843" lon="9.651769"><ele>822</ele></trkpt><trkpt lat="62.616327" lon="9.652659"><ele>834</ele></trkpt><trkpt lat="62.616811" lon="9.653548"><ele>847</ele></trkpt><trkpt lat="62.617295" lon="9.654438"><ele>860</ele></trkpt><trkpt lat="62.617779" lon="9.655327"><ele>874</ele></trkpt><trkpt lat="62.618263" lon="9.656217"><ele>889</ele></trkpt><trkpt lat="62.618732" lon="9.656718"><ele>905</ele></trkpt><trkpt lat="62.619179" lon="9.656638"><ele>919</ele></trkpt><trkpt lat="62.619641" lon="9.656945"><ele>927</ele></trkpt><trkpt lat="62.620124" lon="9.657835"><ele>939</ele></trkpt><trkpt lat="62.620608" lon="9.658725"><ele>951</ele></trkpt><trkpt lat="62.621085" lon="9.659420"><ele>965</ele></trkpt><trkpt lat="62.621569" lon="9.660310"><ele>976</ele></trkpt><trkpt lat="62.622053" lon="9.661200"><ele>986</ele></trkpt><trkpt lat="62.622529" lon="9.661895"><ele>999</ele></trkpt><trkpt lat="62.622976" lon="9.661815"><ele>1016</ele></trkpt><trkpt lat="62.623430" lon="9.661929"><ele>1035</ele></trkpt><trkpt lat="62.623885" lon="9.662042"><ele>1058</ele></trkpt><trkpt lat="62.624369" lon="9.662932"><ele>1077</ele></trkpt><trkpt lat="62.624830" lon="9.663240"><ele>1094</ele></trkpt><trkpt lat="62.625292" lon="9.663547"><ele>1106</ele></trkpt><trkpt lat="62.625754" lon="9.663855"><ele>1120</ele></trkpt><trkpt lat="62.626208" lon="9.663969"><ele>1137</ele></trkpt><trkpt lat="62.626655" lon="9.663888"><ele>1159</ele></trkpt><trkpt lat="62.627131" lon="9.664584"><ele>1178</ele></trkpt><trkpt lat="62.627593" lon="9.664892"><ele>1193</ele></trkpt><trkpt lat="62.628040" lon="9.664811"><ele>1206</ele></trkpt><trkpt lat="62.628487" lon="9.664731"><ele>1215</ele></trkpt><trkpt lat="62.628933" lon="9.664650"><ele>1223</ele></trkpt><trkpt lat="62.629380" lon="9.664570"><ele>1228</ele></trkpt><trkpt lat="62.629827" lon="9.664489"><ele>1231</ele></trkpt><trkpt lat="62.630281" lon="9.664603"><ele>1231</ele></trkpt><trkpt lat="62.630765" lon="9.665493"><ele>1203</ele></trkpt><trkpt lat="62.631234" lon="9.665995"><ele>1191</ele></trkpt><trkpt lat="62.631711" lon="9.666691"><ele>1194</ele></trkpt><trkpt lat="62.632105" lon="9.667597"><ele>1214</ele></trkpt><trkpt lat="62.632321" lon="9.668536"><ele>1237</ele></trkpt><trkpt lat="62.632358" lon="9.669506"><ele>1245</ele></trkpt><trkpt lat="62.632395" lon="9.670477"><ele>1248</ele></trkpt><trkpt lat="62.632432" lon="9.671448"><ele>1248</ele></trkpt><trkpt lat="62.632916" lon="9.672338"><ele>1252</ele></trkpt><trkpt lat="62.633400" lon="9.673228"><ele>1259</ele></trkpt><trkpt lat="62.633884" lon="9.674119"><ele>1277</ele></trkpt><trkpt lat="62.634368" lon="9.675009"><ele>1301</ele></trkpt><trkpt lat="62.634583" lon="9.675947"><ele>1315</ele></trkpt><trkpt lat="62.634583" lon="9.675947"><ele>1315</ele></trkpt></trkseg></trk><wpt lat="62.613564" lon="9.658041"><ele>729</ele><name>Run end · Skærpiken 1315 m</name></wpt><trk><name>Down · Skærpiken 1315 m</name><desc>fall-line run: 649 m of 20–30°, 472 m drop, aspect 203°, max 30°, 1.0% ≥30°; ends 0.51 km from the car.</desc><trkseg><trkpt lat="62.634583" lon="9.675947"><ele>1315</ele></trkpt><trkpt lat="62.629244" lon="9.672803"><ele>1202</ele></trkpt><trkpt lat="62.628976" lon="9.672851"><ele>1189</ele></trkpt><trkpt lat="62.628708" lon="9.672899"><ele>1175</ele></trkpt><trkpt lat="62.628447" lon="9.673142"><ele>1161</ele></trkpt><trkpt lat="62.628202" lon="9.673772"><ele>1143</ele></trkpt><trkpt lat="62.627956" lon="9.674403"><ele>1134</ele></trkpt><trkpt lat="62.627710" lon="9.675033"><ele>1123</ele></trkpt><trkpt lat="62.627464" lon="9.675664"><ele>1108</ele></trkpt><trkpt lat="62.627211" lon="9.676100"><ele>1089</ele></trkpt><trkpt lat="62.626957" lon="9.676536"><ele>1074</ele></trkpt><trkpt lat="62.626704" lon="9.676973"><ele>1057</ele></trkpt><trkpt lat="62.626436" lon="9.677021"><ele>1040</ele></trkpt><trkpt lat="62.626168" lon="9.677069"><ele>1030</ele></trkpt><trkpt lat="62.625900" lon="9.677117"><ele>1016</ele></trkpt><trkpt lat="62.625631" lon="9.677166"><ele>1001</ele></trkpt><trkpt lat="62.625363" lon="9.677214"><ele>988</ele></trkpt><trkpt lat="62.625095" lon="9.677262"><ele>978</ele></trkpt><trkpt lat="62.624827" lon="9.677310"><ele>968</ele></trkpt><trkpt lat="62.624559" lon="9.677358"><ele>962</ele></trkpt><trkpt lat="62.624291" lon="9.677406"><ele>954</ele></trkpt><trkpt lat="62.624023" lon="9.677455"><ele>947</ele></trkpt><trkpt lat="62.623755" lon="9.677503"><ele>940</ele></trkpt><trkpt lat="62.623487" lon="9.677551"><ele>932</ele></trkpt><trkpt lat="62.623218" lon="9.677599"><ele>926</ele></trkpt><trkpt lat="62.622936" lon="9.677259"><ele>920</ele></trkpt><trkpt lat="62.622645" lon="9.676725"><ele>915</ele></trkpt><trkpt lat="62.622534" lon="9.676159"><ele>909</ele></trkpt><trkpt lat="62.622251" lon="9.675819"><ele>903</ele></trkpt><trkpt lat="62.621975" lon="9.675673"><ele>898</ele></trkpt><trkpt lat="62.621782" lon="9.675317"><ele>894</ele></trkpt><trkpt lat="62.621491" lon="9.674783"><ele>890</ele></trkpt><trkpt lat="62.621290" lon="9.674233"><ele>886</ele></trkpt><trkpt lat="62.621268" lon="9.673651"><ele>882</ele></trkpt><trkpt lat="62.621157" lon="9.673085"><ele>880</ele></trkpt><trkpt lat="62.621045" lon="9.672519"><ele>876</ele></trkpt><trkpt lat="62.620844" lon="9.671969"><ele>872</ele></trkpt><trkpt lat="62.620822" lon="9.671386"><ele>870</ele></trkpt><trkpt lat="62.620621" lon="9.670836"><ele>866</ele></trkpt><trkpt lat="62.620331" lon="9.670302"><ele>861</ele></trkpt><trkpt lat="62.620130" lon="9.669752"><ele>856</ele></trkpt><trkpt lat="62.619839" lon="9.669218"><ele>852</ele></trkpt><trkpt lat="62.619639" lon="9.668669"><ele>847</ele></trkpt><trkpt lat="62.619527" lon="9.668102"><ele>843</ele></trkpt><trkpt lat="62.619244" lon="9.667763"><ele>840</ele></trkpt><trkpt lat="62.618961" lon="9.667423"><ele>836</ele></trkpt><trkpt lat="62.618686" lon="9.667277"><ele>832</ele></trkpt><trkpt lat="62.618492" lon="9.666921"><ele>827</ele></trkpt><trkpt lat="62.618380" lon="9.666355"><ele>822</ele></trkpt><trkpt lat="62.618179" lon="9.665805"><ele>817</ele></trkpt><trkpt lat="62.617889" lon="9.665271"><ele>810</ele></trkpt><trkpt lat="62.617867" lon="9.664689"><ele>805</ele></trkpt><trkpt lat="62.617666" lon="9.664139"><ele>799</ele></trkpt><trkpt lat="62.617390" lon="9.663993"><ele>795</ele></trkpt><trkpt lat="62.617100" lon="9.663460"><ele>789</ele></trkpt><trkpt lat="62.616810" lon="9.662926"><ele>783</ele></trkpt><trkpt lat="62.616519" lon="9.662392"><ele>778</ele></trkpt><trkpt lat="62.616318" lon="9.661842"><ele>775</ele></trkpt><trkpt lat="62.616117" lon="9.661292"><ele>769</ele></trkpt><trkpt lat="62.615827" lon="9.660758"><ele>764</ele></trkpt><trkpt lat="62.615537" lon="9.660225"><ele>758</ele></trkpt><trkpt lat="62.615254" lon="9.659885"><ele>754</ele></trkpt><trkpt lat="62.614963" lon="9.659351"><ele>748</ele></trkpt><trkpt lat="62.614680" lon="9.659012"><ele>743</ele></trkpt><trkpt lat="62.614405" lon="9.658866"><ele>740</ele></trkpt><trkpt lat="62.614115" lon="9.658332"><ele>735</ele></trkpt><trkpt lat="62.613839" lon="9.658186"><ele>733</ele></trkpt><trkpt lat="62.613564" lon="9.658041"><ele>729</ele></trkpt><trkpt lat="62.613564" lon="9.658041"><ele>729</ele></trkpt></trkseg></trk></gpx>