<?xml version="1.0" encoding="UTF-8"?>
<gpx version="1.1" creator="Rando toppturs" xmlns="http://www.topografix.com/GPX/1/1"><metadata><name>041 Svarthaugen 1212 m</name><desc>Generated 2026-09-13 17:42 from Kartverket 10 m terrain. Ascent lines are least-cost terrain paths under 35°, not verified routes. Not a snow-stability assessment.</desc></metadata><wpt lat="62.502067" lon="9.091922"><ele>762</ele><name>Car · Svarthaugen 1212 m</name></wpt><wpt lat="62.513223" lon="9.142884"><ele>1212</ele><name>Svarthaugen 1212 m</name></wpt><trk><name>Up · Svarthaugen 1212 m</name><desc>least-cost ascent: +515 m over 3243 m, max 29°, 0.0% on 30–35°, ≈2.1 h at 4 km/h + 400 m/h. Terrain possibility, not a checked route.</desc><trkseg><trkpt lat="62.502067" lon="9.091922"><ele>762</ele></trkpt><trkpt lat="62.502546" lon="9.092606"><ele>782</ele></trkpt><trkpt lat="62.502944" lon="9.093501"><ele>800</ele></trkpt><trkpt lat="62.503074" lon="9.094449"><ele>813</ele></trkpt><trkpt lat="62.503562" lon="9.095325"><ele>825</ele></trkpt><trkpt lat="62.504049" lon="9.096202"><ele>843</ele></trkpt><trkpt lat="62.504358" lon="9.097115"><ele>862</ele></trkpt><trkpt lat="62.504399" lon="9.098080"><ele>870</ele></trkpt><trkpt lat="62.504707" lon="9.098993"><ele>886</ele></trkpt><trkpt lat="62.504927" lon="9.099923"><ele>900</ele></trkpt><trkpt lat="62.504968" lon="9.100889"><ele>906</ele></trkpt><trkpt lat="62.505366" lon="9.101783"><ele>923</ele></trkpt><trkpt lat="62.505853" lon="9.102660"><ele>942</ele></trkpt><trkpt lat="62.506251" lon="9.103555"><ele>960</ele></trkpt><trkpt lat="62.506381" lon="9.104503"><ele>970</ele></trkpt><trkpt lat="62.506422" lon="9.105469"><ele>975</ele></trkpt><trkpt lat="62.506463" lon="9.106434"><ele>981</ele></trkpt><trkpt lat="62.506683" lon="9.107365"><ele>991</ele></trkpt><trkpt lat="62.507170" lon="9.108242"><ele>1016</ele></trkpt><trkpt lat="62.507649" lon="9.108926"><ele>1045</ele></trkpt><trkpt lat="62.508120" lon="9.109417"><ele>1073</ele></trkpt><trkpt lat="62.508607" lon="9.110294"><ele>1104</ele></trkpt><trkpt lat="62.509005" lon="9.111189"><ele>1124</ele></trkpt><trkpt lat="62.509403" lon="9.112085"><ele>1147</ele></trkpt><trkpt lat="62.509444" lon="9.113050"><ele>1153</ele></trkpt><trkpt lat="62.509485" lon="9.114016"><ele>1159</ele></trkpt><trkpt lat="62.509526" lon="9.114982"><ele>1169</ele></trkpt><trkpt lat="62.509567" lon="9.115948"><ele>1173</ele></trkpt><trkpt lat="62.509607" lon="9.116913"><ele>1178</ele></trkpt><trkpt lat="62.509648" lon="9.117879"><ele>1180</ele></trkpt><trkpt lat="62.509689" lon="9.118845"><ele>1178</ele></trkpt><trkpt lat="62.509730" lon="9.119811"><ele>1171</ele></trkpt><trkpt lat="62.509771" lon="9.120776"><ele>1167</ele></trkpt><trkpt lat="62.509811" lon="9.121742"><ele>1163</ele></trkpt><trkpt lat="62.509852" lon="9.122708"><ele>1160</ele></trkpt><trkpt lat="62.509893" lon="9.123674"><ele>1153</ele></trkpt><trkpt lat="62.509934" lon="9.124639"><ele>1149</ele></trkpt><trkpt lat="62.509974" lon="9.125605"><ele>1143</ele></trkpt><trkpt lat="62.510015" lon="9.126571"><ele>1143</ele></trkpt><trkpt lat="62.510056" lon="9.127537"><ele>1144</ele></trkpt><trkpt lat="62.510097" lon="9.128503"><ele>1151</ele></trkpt><trkpt lat="62.510137" lon="9.129468"><ele>1155</ele></trkpt><trkpt lat="62.510178" lon="9.130434"><ele>1160</ele></trkpt><trkpt lat="62.510219" lon="9.131400"><ele>1162</ele></trkpt><trkpt lat="62.510349" lon="9.132348"><ele>1157</ele></trkpt><trkpt lat="62.510389" lon="9.133314"><ele>1151</ele></trkpt><trkpt lat="62.510430" lon="9.134280"><ele>1147</ele></trkpt><trkpt lat="62.510471" lon="9.135245"><ele>1147</ele></trkpt><trkpt lat="62.510512" lon="9.136211"><ele>1151</ele></trkpt><trkpt lat="62.510552" lon="9.137177"><ele>1159</ele></trkpt><trkpt lat="62.510593" lon="9.138143"><ele>1168</ele></trkpt><trkpt lat="62.511080" lon="9.139021"><ele>1171</ele></trkpt><trkpt lat="62.511567" lon="9.139899"><ele>1174</ele></trkpt><trkpt lat="62.512054" lon="9.140777"><ele>1190</ele></trkpt><trkpt lat="62.512541" lon="9.141655"><ele>1203</ele></trkpt><trkpt lat="62.513028" lon="9.142533"><ele>1209</ele></trkpt><trkpt lat="62.513223" lon="9.142884"><ele>1212</ele></trkpt></trkseg></trk><wpt lat="62.505698" lon="9.160917"><ele>846</ele><name>Run end · Svarthaugen 1212 m</name></wpt><trk><name>Down · Svarthaugen 1212 m</name><desc>fall-line run: 645 m of 20–30°, 284 m drop, aspect 167°, max 32°, 2.9% ≥30°; ends 3.58 km from the car.</desc><trkseg><trkpt lat="62.513223" lon="9.142884"><ele>1212</ele></trkpt><trkpt lat="62.511600" lon="9.157811"><ele>1130</ele></trkpt><trkpt lat="62.511332" lon="9.157864"><ele>1115</ele></trkpt><trkpt lat="62.511072" lon="9.158110"><ele>1102</ele></trkpt><trkpt lat="62.510828" lon="9.158742"><ele>1092</ele></trkpt><trkpt lat="62.510577" lon="9.159181"><ele>1080</ele></trkpt><trkpt lat="62.510309" lon="9.159233"><ele>1066</ele></trkpt><trkpt lat="62.510041" lon="9.159286"><ele>1050</ele></trkpt><trkpt lat="62.509773" lon="9.159338"><ele>1034</ele></trkpt><trkpt lat="62.509513" lon="9.159584"><ele>1018</ele></trkpt><trkpt lat="62.509245" lon="9.159637"><ele>1008</ele></trkpt><trkpt lat="62.508977" lon="9.159689"><ele>995</ele></trkpt><trkpt lat="62.508710" lon="9.159742"><ele>984</ele></trkpt><trkpt lat="62.508442" lon="9.159795"><ele>973</ele></trkpt><trkpt lat="62.508174" lon="9.159847"><ele>961</ele></trkpt><trkpt lat="62.507906" lon="9.159900"><ele>950</ele></trkpt><trkpt lat="62.507646" lon="9.160145"><ele>936</ele></trkpt><trkpt lat="62.507378" lon="9.160198"><ele>925</ele></trkpt><trkpt lat="62.507110" lon="9.160251"><ele>915</ele></trkpt><trkpt lat="62.506859" lon="9.160689"><ele>901</ele></trkpt><trkpt lat="62.506591" lon="9.160742"><ele>889</ele></trkpt><trkpt lat="62.506323" lon="9.160795"><ele>875</ele></trkpt><trkpt lat="62.506055" lon="9.160847"><ele>861</ele></trkpt><trkpt lat="62.505787" lon="9.160900"><ele>850</ele></trkpt><trkpt lat="62.505698" lon="9.160917"><ele>846</ele></trkpt></trkseg></trk></gpx>