<?xml version="1.0" encoding="UTF-8"?>
<gpx version="1.1" creator="Rando toppturs" xmlns="http://www.topografix.com/GPX/1/1"><metadata><name>042 Unnamed 1183 m</name><desc>This is an automatically generated list. I have not checked them all. Do not attempt these if you're a beginner. Generated 2026-09-13 17:42 from Kartverket 10 m terrain. Ascent lines are least-cost terrain paths under 35°, not verified routes. Not a snow-stability assessment.</desc></metadata><wpt lat="62.502067" lon="9.091922"><ele>762</ele><name>Car · Unnamed summit 1183 m</name></wpt><wpt lat="62.509989" lon="9.117422"><ele>1183</ele><name>Unnamed summit 1183 m</name></wpt><trk><name>Up · Unnamed summit 1183 m</name><desc>least-cost ascent: +421 m over 1790 m, max 29°, 0.0% on 30–35°, ≈1.5 h at 4 km/h + 400 m/h. Terrain possibility, not a checked route.</desc><trkseg><trkpt lat="62.502067" lon="9.091922"><ele>762</ele></trkpt><trkpt lat="62.502546" lon="9.092606"><ele>782</ele></trkpt><trkpt lat="62.502944" lon="9.093501"><ele>800</ele></trkpt><trkpt lat="62.503074" lon="9.094449"><ele>813</ele></trkpt><trkpt lat="62.503562" lon="9.095325"><ele>825</ele></trkpt><trkpt lat="62.504049" lon="9.096202"><ele>843</ele></trkpt><trkpt lat="62.504358" lon="9.097115"><ele>862</ele></trkpt><trkpt lat="62.504399" lon="9.098080"><ele>870</ele></trkpt><trkpt lat="62.504707" lon="9.098993"><ele>886</ele></trkpt><trkpt lat="62.504927" lon="9.099923"><ele>900</ele></trkpt><trkpt lat="62.504968" lon="9.100889"><ele>906</ele></trkpt><trkpt lat="62.505366" lon="9.101783"><ele>923</ele></trkpt><trkpt lat="62.505853" lon="9.102660"><ele>942</ele></trkpt><trkpt lat="62.506251" lon="9.103555"><ele>960</ele></trkpt><trkpt lat="62.506381" lon="9.104503"><ele>970</ele></trkpt><trkpt lat="62.506422" lon="9.105469"><ele>975</ele></trkpt><trkpt lat="62.506463" lon="9.106434"><ele>981</ele></trkpt><trkpt lat="62.506683" lon="9.107365"><ele>991</ele></trkpt><trkpt lat="62.507170" lon="9.108242"><ele>1016</ele></trkpt><trkpt lat="62.507649" lon="9.108926"><ele>1045</ele></trkpt><trkpt lat="62.508120" lon="9.109417"><ele>1073</ele></trkpt><trkpt lat="62.508607" lon="9.110294"><ele>1104</ele></trkpt><trkpt lat="62.509005" lon="9.111189"><ele>1124</ele></trkpt><trkpt lat="62.509403" lon="9.112085"><ele>1147</ele></trkpt><trkpt lat="62.509444" lon="9.113050"><ele>1153</ele></trkpt><trkpt lat="62.509485" lon="9.114016"><ele>1159</ele></trkpt><trkpt lat="62.509526" lon="9.114982"><ele>1169</ele></trkpt><trkpt lat="62.509567" lon="9.115948"><ele>1173</ele></trkpt><trkpt lat="62.509697" lon="9.116896"><ele>1181</ele></trkpt><trkpt lat="62.509989" lon="9.117422"><ele>1183</ele></trkpt></trkseg></trk><wpt lat="62.507394" lon="9.064767"><ele>448</ele><name>Run end · Unnamed summit 1183 m</name></wpt><trk><name>Down · Unnamed summit 1183 m</name><desc>fall-line run: 636 m of 20–30°, 631 m drop, aspect 267°, max 31°, 0.5% ≥30°; ends 1.52 km from the car.</desc><trkseg><trkpt lat="62.509989" lon="9.117422"><ele>1183</ele></trkpt><trkpt lat="62.509254" lon="9.102181"><ele>1079</ele></trkpt><trkpt lat="62.509051" lon="9.101637"><ele>1062</ele></trkpt><trkpt lat="62.509027" lon="9.101058"><ele>1048</ele></trkpt><trkpt lat="62.509002" lon="9.100478"><ele>1032</ele></trkpt><trkpt lat="62.508977" lon="9.099899"><ele>1015</ele></trkpt><trkpt lat="62.508953" lon="9.099319"><ele>1000</ele></trkpt><trkpt lat="62.508839" lon="9.098758"><ele>985</ele></trkpt><trkpt lat="62.508815" lon="9.098178"><ele>971</ele></trkpt><trkpt lat="62.508790" lon="9.097599"><ele>957</ele></trkpt><trkpt lat="62.508765" lon="9.097019"><ele>944</ele></trkpt><trkpt lat="62.508741" lon="9.096440"><ele>932</ele></trkpt><trkpt lat="62.508716" lon="9.095861"><ele>922</ele></trkpt><trkpt lat="62.508692" lon="9.095281"><ele>910</ele></trkpt><trkpt lat="62.508667" lon="9.094702"><ele>898</ele></trkpt><trkpt lat="62.508643" lon="9.094122"><ele>888</ele></trkpt><trkpt lat="62.508618" lon="9.093543"><ele>878</ele></trkpt><trkpt lat="62.508683" lon="9.092946"><ele>870</ele></trkpt><trkpt lat="62.508658" lon="9.092366"><ele>862</ele></trkpt><trkpt lat="62.508544" lon="9.091805"><ele>850</ele></trkpt><trkpt lat="62.508430" lon="9.091243"><ele>841</ele></trkpt><trkpt lat="62.508406" lon="9.090664"><ele>831</ele></trkpt><trkpt lat="62.508381" lon="9.090084"><ele>819</ele></trkpt><trkpt lat="62.508357" lon="9.089505"><ele>809</ele></trkpt><trkpt lat="62.508332" lon="9.088925"><ele>801</ele></trkpt><trkpt lat="62.508307" lon="9.088346"><ele>791</ele></trkpt><trkpt lat="62.508283" lon="9.087767"><ele>781</ele></trkpt><trkpt lat="62.508258" lon="9.087187"><ele>772</ele></trkpt><trkpt lat="62.508234" lon="9.086608"><ele>765</ele></trkpt><trkpt lat="62.508209" lon="9.086028"><ele>757</ele></trkpt><trkpt lat="62.508184" lon="9.085449"><ele>747</ele></trkpt><trkpt lat="62.508160" lon="9.084870"><ele>739</ele></trkpt><trkpt lat="62.508135" lon="9.084290"><ele>730</ele></trkpt><trkpt lat="62.508110" lon="9.083711"><ele>723</ele></trkpt><trkpt lat="62.508086" lon="9.083132"><ele>715</ele></trkpt><trkpt lat="62.508061" lon="9.082552"><ele>706</ele></trkpt><trkpt lat="62.508037" lon="9.081973"><ele>698</ele></trkpt><trkpt lat="62.508012" lon="9.081393"><ele>691</ele></trkpt><trkpt lat="62.507987" lon="9.080814"><ele>685</ele></trkpt><trkpt lat="62.507963" lon="9.080235"><ele>680</ele></trkpt><trkpt lat="62.507938" lon="9.079655"><ele>674</ele></trkpt><trkpt lat="62.507913" lon="9.079076"><ele>666</ele></trkpt><trkpt lat="62.507889" lon="9.078496"><ele>658</ele></trkpt><trkpt lat="62.507864" lon="9.077917"><ele>649</ele></trkpt><trkpt lat="62.507839" lon="9.077338"><ele>642</ele></trkpt><trkpt lat="62.507815" lon="9.076758"><ele>632</ele></trkpt><trkpt lat="62.507790" lon="9.076179"><ele>624</ele></trkpt><trkpt lat="62.507765" lon="9.075600"><ele>616</ele></trkpt><trkpt lat="62.507741" lon="9.075020"><ele>608</ele></trkpt><trkpt lat="62.507716" lon="9.074441"><ele>600</ele></trkpt><trkpt lat="62.507781" lon="9.073844"><ele>586</ele></trkpt><trkpt lat="62.507845" lon="9.073247"><ele>569</ele></trkpt><trkpt lat="62.507821" lon="9.072667"><ele>555</ele></trkpt><trkpt lat="62.507796" lon="9.072088"><ele>543</ele></trkpt><trkpt lat="62.507771" lon="9.071508"><ele>533</ele></trkpt><trkpt lat="62.507747" lon="9.070929"><ele>523</ele></trkpt><trkpt lat="62.507722" lon="9.070350"><ele>514</ele></trkpt><trkpt lat="62.507697" lon="9.069770"><ele>508</ele></trkpt><trkpt lat="62.507673" lon="9.069191"><ele>500</ele></trkpt><trkpt lat="62.507648" lon="9.068612"><ele>492</ele></trkpt><trkpt lat="62.507623" lon="9.068032"><ele>486</ele></trkpt><trkpt lat="62.507599" lon="9.067453"><ele>478</ele></trkpt><trkpt lat="62.507574" lon="9.066874"><ele>473</ele></trkpt><trkpt lat="62.507549" lon="9.066294"><ele>464</ele></trkpt><trkpt lat="62.507525" lon="9.065715"><ele>459</ele></trkpt><trkpt lat="62.507500" lon="9.065135"><ele>453</ele></trkpt><trkpt lat="62.507394" lon="9.064767"><ele>448</ele></trkpt></trkseg></trk></gpx>