<?xml version="1.0" encoding="UTF-8"?>
<gpx version="1.1" creator="Rando toppturs" xmlns="http://www.topografix.com/GPX/1/1"><metadata><name>043 Hyttdalskamben 1308 m</name><desc>Generated 2026-09-13 17:42 from Kartverket 10 m terrain. Ascent lines are least-cost terrain paths under 35°, not verified routes. Not a snow-stability assessment.</desc></metadata><wpt lat="62.691923" lon="9.123331"><ele>702</ele><name>Car · Hyttdalskamben 1308 m</name></wpt><wpt lat="62.730581" lon="9.145645"><ele>1308</ele><name>Hyttdalskamben 1308 m</name></wpt><trk><name>Up · Hyttdalskamben 1308 m</name><desc>least-cost ascent: +680 m over 4966 m, max 30°, 0.2% on 30–35°, ≈2.94 h at 4 km/h + 400 m/h. Terrain possibility, not a checked route.</desc><trkseg><trkpt lat="62.691923" lon="9.123331"><ele>702</ele></trkpt><trkpt lat="62.692385" lon="9.123631"><ele>715</ele></trkpt><trkpt lat="62.692873" lon="9.124513"><ele>729</ele></trkpt><trkpt lat="62.693335" lon="9.124813"><ele>745</ele></trkpt><trkpt lat="62.693790" lon="9.124919"><ele>768</ele></trkpt><trkpt lat="62.694236" lon="9.124830"><ele>792</ele></trkpt><trkpt lat="62.694683" lon="9.124741"><ele>810</ele></trkpt><trkpt lat="62.694991" lon="9.125660"><ele>833</ele></trkpt><trkpt lat="62.695032" lon="9.126631"><ele>842</ele></trkpt><trkpt lat="62.695341" lon="9.127550"><ele>855</ele></trkpt><trkpt lat="62.695812" lon="9.128044"><ele>877</ele></trkpt><trkpt lat="62.696299" lon="9.128927"><ele>898</ele></trkpt><trkpt lat="62.696786" lon="9.129810"><ele>916</ele></trkpt><trkpt lat="62.697273" lon="9.130693"><ele>935</ele></trkpt><trkpt lat="62.697761" lon="9.131576"><ele>951</ele></trkpt><trkpt lat="62.698207" lon="9.131488"><ele>977</ele></trkpt><trkpt lat="62.698654" lon="9.131399"><ele>992</ele></trkpt><trkpt lat="62.699124" lon="9.131893"><ele>1009</ele></trkpt><trkpt lat="62.699612" lon="9.132776"><ele>1024</ele></trkpt><trkpt lat="62.700066" lon="9.132882"><ele>1035</ele></trkpt><trkpt lat="62.700513" lon="9.132793"><ele>1049</ele></trkpt><trkpt lat="62.700959" lon="9.132705"><ele>1057</ele></trkpt><trkpt lat="62.701406" lon="9.132616"><ele>1061</ele></trkpt><trkpt lat="62.701852" lon="9.132527"><ele>1060</ele></trkpt><trkpt lat="62.702298" lon="9.132438"><ele>1060</ele></trkpt><trkpt lat="62.702745" lon="9.132350"><ele>1061</ele></trkpt><trkpt lat="62.703191" lon="9.132261"><ele>1056</ele></trkpt><trkpt lat="62.703638" lon="9.132172"><ele>1057</ele></trkpt><trkpt lat="62.704084" lon="9.132083"><ele>1063</ele></trkpt><trkpt lat="62.704531" lon="9.131994"><ele>1068</ele></trkpt><trkpt lat="62.704977" lon="9.131906"><ele>1069</ele></trkpt><trkpt lat="62.705423" lon="9.131817"><ele>1064</ele></trkpt><trkpt lat="62.705870" lon="9.131728"><ele>1058</ele></trkpt><trkpt lat="62.706333" lon="9.132028"><ele>1046</ele></trkpt><trkpt lat="62.706787" lon="9.132134"><ele>1038</ele></trkpt><trkpt lat="62.707234" lon="9.132045"><ele>1036</ele></trkpt><trkpt lat="62.707680" lon="9.131956"><ele>1032</ele></trkpt><trkpt lat="62.708126" lon="9.131867"><ele>1031</ele></trkpt><trkpt lat="62.708573" lon="9.131779"><ele>1031</ele></trkpt><trkpt lat="62.709019" lon="9.131690"><ele>1029</ele></trkpt><trkpt lat="62.709466" lon="9.131601"><ele>1027</ele></trkpt><trkpt lat="62.709912" lon="9.131512"><ele>1024</ele></trkpt><trkpt lat="62.710359" lon="9.131423"><ele>1021</ele></trkpt><trkpt lat="62.710805" lon="9.131335"><ele>1022</ele></trkpt><trkpt lat="62.711260" lon="9.131440"><ele>1024</ele></trkpt><trkpt lat="62.711706" lon="9.131351"><ele>1026</ele></trkpt><trkpt lat="62.712153" lon="9.131263"><ele>1027</ele></trkpt><trkpt lat="62.712599" lon="9.131174"><ele>1034</ele></trkpt><trkpt lat="62.713045" lon="9.131085"><ele>1040</ele></trkpt><trkpt lat="62.713533" lon="9.131968"><ele>1044</ele></trkpt><trkpt lat="62.714020" lon="9.132852"><ele>1048</ele></trkpt><trkpt lat="62.714507" lon="9.133736"><ele>1049</ele></trkpt><trkpt lat="62.714994" lon="9.134619"><ele>1047</ele></trkpt><trkpt lat="62.715481" lon="9.135503"><ele>1053</ele></trkpt><trkpt lat="62.715969" lon="9.136387"><ele>1061</ele></trkpt><trkpt lat="62.716456" lon="9.137271"><ele>1071</ele></trkpt><trkpt lat="62.716935" lon="9.137960"><ele>1088</ele></trkpt><trkpt lat="62.717406" lon="9.138455"><ele>1101</ele></trkpt><trkpt lat="62.717868" lon="9.138755"><ele>1112</ele></trkpt><trkpt lat="62.718331" lon="9.139055"><ele>1125</ele></trkpt><trkpt lat="62.718778" lon="9.138967"><ele>1139</ele></trkpt><trkpt lat="62.719224" lon="9.138878"><ele>1151</ele></trkpt><trkpt lat="62.719670" lon="9.138789"><ele>1161</ele></trkpt><trkpt lat="62.720117" lon="9.138700"><ele>1169</ele></trkpt><trkpt lat="62.720563" lon="9.138612"><ele>1174</ele></trkpt><trkpt lat="62.721010" lon="9.138523"><ele>1177</ele></trkpt><trkpt lat="62.721456" lon="9.138434"><ele>1181</ele></trkpt><trkpt lat="62.721903" lon="9.138345"><ele>1186</ele></trkpt><trkpt lat="62.722349" lon="9.138257"><ele>1195</ele></trkpt><trkpt lat="62.722795" lon="9.138168"><ele>1196</ele></trkpt><trkpt lat="62.723250" lon="9.138274"><ele>1197</ele></trkpt><trkpt lat="62.723737" lon="9.139158"><ele>1209</ele></trkpt><trkpt lat="62.724224" lon="9.140042"><ele>1216</ele></trkpt><trkpt lat="62.724712" lon="9.140926"><ele>1230</ele></trkpt><trkpt lat="62.725174" lon="9.141226"><ele>1239</ele></trkpt><trkpt lat="62.725621" lon="9.141137"><ele>1236</ele></trkpt><trkpt lat="62.726083" lon="9.141438"><ele>1232</ele></trkpt><trkpt lat="62.726571" lon="9.142322"><ele>1249</ele></trkpt><trkpt lat="62.727050" lon="9.143012"><ele>1265</ele></trkpt><trkpt lat="62.727496" lon="9.142923"><ele>1270</ele></trkpt><trkpt lat="62.727942" lon="9.142834"><ele>1273</ele></trkpt><trkpt lat="62.728389" lon="9.142745"><ele>1277</ele></trkpt><trkpt lat="62.728835" lon="9.142657"><ele>1279</ele></trkpt><trkpt lat="62.729314" lon="9.143346"><ele>1290</ele></trkpt><trkpt lat="62.729801" lon="9.144231"><ele>1299</ele></trkpt><trkpt lat="62.730289" lon="9.145115"><ele>1303</ele></trkpt><trkpt lat="62.730581" lon="9.145645"><ele>1308</ele></trkpt></trkseg></trk><wpt lat="62.719006" lon="9.168146"><ele>812</ele><name>Run end · Hyttdalskamben 1308 m</name></wpt><trk><name>Down · Hyttdalskamben 1308 m</name><desc>fall-line run: 629 m of 20–30°, 454 m drop, aspect 133°, max 32°, 0.8% ≥30°; ends 3.79 km from the car.</desc><trkseg><trkpt lat="62.730581" lon="9.145645"><ele>1308</ele></trkpt><trkpt lat="62.727691" lon="9.147593"><ele>1266</ele></trkpt><trkpt lat="62.727805" lon="9.148159"><ele>1251</ele></trkpt><trkpt lat="62.727919" lon="9.148725"><ele>1233</ele></trkpt><trkpt lat="62.727764" lon="9.149344"><ele>1223</ele></trkpt><trkpt lat="62.727521" lon="9.149981"><ele>1213</ele></trkpt><trkpt lat="62.727278" lon="9.150618"><ele>1200</ele></trkpt><trkpt lat="62.727123" lon="9.151237"><ele>1185</ele></trkpt><trkpt lat="62.726969" lon="9.151856"><ele>1168</ele></trkpt><trkpt lat="62.726815" lon="9.152475"><ele>1151</ele></trkpt><trkpt lat="62.726661" lon="9.153095"><ele>1135</ele></trkpt><trkpt lat="62.726507" lon="9.153714"><ele>1122</ele></trkpt><trkpt lat="62.726263" lon="9.154351"><ele>1106</ele></trkpt><trkpt lat="62.726109" lon="9.154970"><ele>1096</ele></trkpt><trkpt lat="62.725865" lon="9.155607"><ele>1087</ele></trkpt><trkpt lat="62.725622" lon="9.156243"><ele>1069</ele></trkpt><trkpt lat="62.725378" lon="9.156880"><ele>1055</ele></trkpt><trkpt lat="62.725135" lon="9.157517"><ele>1044</ele></trkpt><trkpt lat="62.724891" lon="9.158154"><ele>1033</ele></trkpt><trkpt lat="62.724648" lon="9.158791"><ele>1020</ele></trkpt><trkpt lat="62.724404" lon="9.159427"><ele>1011</ele></trkpt><trkpt lat="62.724161" lon="9.160064"><ele>1004</ele></trkpt><trkpt lat="62.724007" lon="9.160683"><ele>996</ele></trkpt><trkpt lat="62.723763" lon="9.161320"><ele>985</ele></trkpt><trkpt lat="62.723609" lon="9.161939"><ele>975</ele></trkpt><trkpt lat="62.723365" lon="9.162576"><ele>963</ele></trkpt><trkpt lat="62.723122" lon="9.163212"><ele>954</ele></trkpt><trkpt lat="62.722870" lon="9.163655"><ele>940</ele></trkpt><trkpt lat="62.722618" lon="9.164097"><ele>928</ele></trkpt><trkpt lat="62.722367" lon="9.164539"><ele>911</ele></trkpt><trkpt lat="62.722115" lon="9.164981"><ele>899</ele></trkpt><trkpt lat="62.721855" lon="9.165228"><ele>895</ele></trkpt><trkpt lat="62.721604" lon="9.165671"><ele>890</ele></trkpt><trkpt lat="62.721360" lon="9.166307"><ele>883</ele></trkpt><trkpt lat="62.721117" lon="9.166944"><ele>869</ele></trkpt><trkpt lat="62.720849" lon="9.166997"><ele>864</ele></trkpt><trkpt lat="62.720573" lon="9.166855"><ele>860</ele></trkpt><trkpt lat="62.720305" lon="9.166908"><ele>854</ele></trkpt><trkpt lat="62.720037" lon="9.166961"><ele>845</ele></trkpt><trkpt lat="62.719777" lon="9.167209"><ele>839</ele></trkpt><trkpt lat="62.719518" lon="9.167456"><ele>833</ele></trkpt><trkpt lat="62.719258" lon="9.167704"><ele>824</ele></trkpt><trkpt lat="62.719006" lon="9.168146"><ele>812</ele></trkpt><trkpt lat="62.719006" lon="9.168146"><ele>812</ele></trkpt></trkseg></trk></gpx>