<?xml version="1.0" encoding="UTF-8"?>
<gpx version="1.1" creator="Rando toppturs" xmlns="http://www.topografix.com/GPX/1/1"><metadata><name>048 Unnamed 1627 m</name><desc>This is an automatically generated list. I have not checked them all. Do not attempt these if you're a beginner. Generated 2026-09-13 17:42 from Kartverket 10 m terrain. Ascent lines are least-cost terrain paths under 35°, not verified routes. Not a snow-stability assessment.</desc></metadata><wpt lat="62.691923" lon="9.123331"><ele>702</ele><name>Car · Unnamed summit 1627 m</name></wpt><wpt lat="62.733782" lon="9.253328"><ele>1627</ele><name>Unnamed summit 1627 m</name></wpt><trk><name>Up · Unnamed summit 1627 m</name><desc>least-cost ascent: +1168 m over 9860 m, max 30°, 0.1% on 30–35°, ≈5.38 h at 4 km/h + 400 m/h. Terrain possibility, not a checked route.</desc><trkseg><trkpt lat="62.691923" lon="9.123331"><ele>702</ele></trkpt><trkpt lat="62.692385" lon="9.123631"><ele>715</ele></trkpt><trkpt lat="62.692873" lon="9.124513"><ele>729</ele></trkpt><trkpt lat="62.693335" lon="9.124813"><ele>745</ele></trkpt><trkpt lat="62.693790" lon="9.124919"><ele>768</ele></trkpt><trkpt lat="62.694236" lon="9.124830"><ele>792</ele></trkpt><trkpt lat="62.694683" lon="9.124741"><ele>810</ele></trkpt><trkpt lat="62.694991" lon="9.125660"><ele>833</ele></trkpt><trkpt lat="62.695032" lon="9.126631"><ele>842</ele></trkpt><trkpt lat="62.695341" lon="9.127550"><ele>855</ele></trkpt><trkpt lat="62.695812" lon="9.128044"><ele>877</ele></trkpt><trkpt lat="62.696299" lon="9.128927"><ele>898</ele></trkpt><trkpt lat="62.696786" lon="9.129810"><ele>916</ele></trkpt><trkpt lat="62.697273" lon="9.130693"><ele>935</ele></trkpt><trkpt lat="62.697761" lon="9.131576"><ele>951</ele></trkpt><trkpt lat="62.698207" lon="9.131488"><ele>977</ele></trkpt><trkpt lat="62.698654" lon="9.131399"><ele>992</ele></trkpt><trkpt lat="62.699124" lon="9.131893"><ele>1009</ele></trkpt><trkpt lat="62.699612" lon="9.132776"><ele>1024</ele></trkpt><trkpt lat="62.700066" lon="9.132882"><ele>1035</ele></trkpt><trkpt lat="62.700513" lon="9.132793"><ele>1049</ele></trkpt><trkpt lat="62.700959" lon="9.132705"><ele>1057</ele></trkpt><trkpt lat="62.701406" lon="9.132616"><ele>1061</ele></trkpt><trkpt lat="62.701852" lon="9.132527"><ele>1060</ele></trkpt><trkpt lat="62.702298" lon="9.132438"><ele>1060</ele></trkpt><trkpt lat="62.702745" lon="9.132350"><ele>1061</ele></trkpt><trkpt lat="62.703191" lon="9.132261"><ele>1056</ele></trkpt><trkpt lat="62.703638" lon="9.132172"><ele>1057</ele></trkpt><trkpt lat="62.704084" lon="9.132083"><ele>1063</ele></trkpt><trkpt lat="62.704531" lon="9.131994"><ele>1068</ele></trkpt><trkpt lat="62.704977" lon="9.131906"><ele>1069</ele></trkpt><trkpt lat="62.705423" lon="9.131817"><ele>1064</ele></trkpt><trkpt lat="62.705870" lon="9.131728"><ele>1058</ele></trkpt><trkpt lat="62.706333" lon="9.132028"><ele>1046</ele></trkpt><trkpt lat="62.706820" lon="9.132912"><ele>1029</ele></trkpt><trkpt lat="62.707307" lon="9.133795"><ele>1021</ele></trkpt><trkpt lat="62.707794" lon="9.134678"><ele>1020</ele></trkpt><trkpt lat="62.708281" lon="9.135562"><ele>1021</ele></trkpt><trkpt lat="62.708769" lon="9.136445"><ele>1022</ele></trkpt><trkpt lat="62.709256" lon="9.137329"><ele>1025</ele></trkpt><trkpt lat="62.709743" lon="9.138213"><ele>1030</ele></trkpt><trkpt lat="62.710230" lon="9.139096"><ele>1033</ele></trkpt><trkpt lat="62.710717" lon="9.139980"><ele>1046</ele></trkpt><trkpt lat="62.711204" lon="9.140864"><ele>1062</ele></trkpt><trkpt lat="62.711692" lon="9.141747"><ele>1075</ele></trkpt><trkpt lat="62.712179" lon="9.142631"><ele>1084</ele></trkpt><trkpt lat="62.712666" lon="9.143515"><ele>1090</ele></trkpt><trkpt lat="62.713153" lon="9.144399"><ele>1092</ele></trkpt><trkpt lat="62.713640" lon="9.145282"><ele>1084</ele></trkpt><trkpt lat="62.714127" lon="9.146166"><ele>1077</ele></trkpt><trkpt lat="62.714614" lon="9.147050"><ele>1070</ele></trkpt><trkpt lat="62.715101" lon="9.147934"><ele>1059</ele></trkpt><trkpt lat="62.715580" lon="9.148623"><ele>1060</ele></trkpt><trkpt lat="62.716051" lon="9.149118"><ele>1060</ele></trkpt><trkpt lat="62.716514" lon="9.149419"><ele>1055</ele></trkpt><trkpt lat="62.716977" lon="9.149719"><ele>1055</ele></trkpt><trkpt lat="62.717439" lon="9.150020"><ele>1053</ele></trkpt><trkpt lat="62.717910" lon="9.150515"><ele>1048</ele></trkpt><trkpt lat="62.718373" lon="9.150815"><ele>1049</ele></trkpt><trkpt lat="62.718860" lon="9.151699"><ele>1047</ele></trkpt><trkpt lat="62.719347" lon="9.152583"><ele>1052</ele></trkpt><trkpt lat="62.719834" lon="9.153468"><ele>1057</ele></trkpt><trkpt lat="62.720321" lon="9.154352"><ele>1056</ele></trkpt><trkpt lat="62.720808" lon="9.155236"><ele>1056</ele></trkpt><trkpt lat="62.721206" lon="9.156138"><ele>1045</ele></trkpt><trkpt lat="62.721693" lon="9.157022"><ele>1039</ele></trkpt><trkpt lat="62.722180" lon="9.157906"><ele>1028</ele></trkpt><trkpt lat="62.722578" lon="9.158808"><ele>1009</ele></trkpt><trkpt lat="62.723065" lon="9.159693"><ele>998</ele></trkpt><trkpt lat="62.723552" lon="9.160577"><ele>994</ele></trkpt><trkpt lat="62.724039" lon="9.161461"><ele>989</ele></trkpt><trkpt lat="62.724526" lon="9.162346"><ele>988</ele></trkpt><trkpt lat="62.725013" lon="9.163230"><ele>988</ele></trkpt><trkpt lat="62.725500" lon="9.164115"><ele>985</ele></trkpt><trkpt lat="62.725979" lon="9.164805"><ele>985</ele></trkpt><trkpt lat="62.726377" lon="9.165707"><ele>969</ele></trkpt><trkpt lat="62.726864" lon="9.166591"><ele>958</ele></trkpt><trkpt lat="62.727351" lon="9.167476"><ele>950</ele></trkpt><trkpt lat="62.727838" lon="9.168361"><ele>951</ele></trkpt><trkpt lat="62.728325" lon="9.169245"><ele>951</ele></trkpt><trkpt lat="62.728812" lon="9.170130"><ele>952</ele></trkpt><trkpt lat="62.729299" lon="9.171015"><ele>957</ele></trkpt><trkpt lat="62.729786" lon="9.171899"><ele>963</ele></trkpt><trkpt lat="62.730273" lon="9.172784"><ele>981</ele></trkpt><trkpt lat="62.730670" lon="9.173687"><ele>1003</ele></trkpt><trkpt lat="62.731157" lon="9.174571"><ele>1026</ele></trkpt><trkpt lat="62.731644" lon="9.175456"><ele>1048</ele></trkpt><trkpt lat="62.731863" lon="9.176394"><ele>1074</ele></trkpt><trkpt lat="62.731725" lon="9.177403"><ele>1096</ele></trkpt><trkpt lat="62.731855" lon="9.178358"><ele>1124</ele></trkpt><trkpt lat="62.731806" lon="9.179349"><ele>1146</ele></trkpt><trkpt lat="62.731936" lon="9.180304"><ele>1169</ele></trkpt><trkpt lat="62.732066" lon="9.181260"><ele>1189</ele></trkpt><trkpt lat="62.732106" lon="9.182233"><ele>1205</ele></trkpt><trkpt lat="62.732146" lon="9.183206"><ele>1217</ele></trkpt><trkpt lat="62.732187" lon="9.184179"><ele>1225</ele></trkpt><trkpt lat="62.732227" lon="9.185152"><ele>1232</ele></trkpt><trkpt lat="62.732268" lon="9.186125"><ele>1241</ele></trkpt><trkpt lat="62.732308" lon="9.187098"><ele>1248</ele></trkpt><trkpt lat="62.732348" lon="9.188072"><ele>1252</ele></trkpt><trkpt lat="62.732389" lon="9.189045"><ele>1255</ele></trkpt><trkpt lat="62.732429" lon="9.190018"><ele>1257</ele></trkpt><trkpt lat="62.732470" lon="9.190991"><ele>1261</ele></trkpt><trkpt lat="62.732510" lon="9.191964"><ele>1263</ele></trkpt><trkpt lat="62.732550" lon="9.192937"><ele>1267</ele></trkpt><trkpt lat="62.732591" lon="9.193911"><ele>1271</ele></trkpt><trkpt lat="62.732631" lon="9.194884"><ele>1275</ele></trkpt><trkpt lat="62.732671" lon="9.195857"><ele>1275</ele></trkpt><trkpt lat="62.732712" lon="9.196830"><ele>1278</ele></trkpt><trkpt lat="62.732752" lon="9.197803"><ele>1280</ele></trkpt><trkpt lat="62.732792" lon="9.198776"><ele>1280</ele></trkpt><trkpt lat="62.732833" lon="9.199750"><ele>1280</ele></trkpt><trkpt lat="62.732873" lon="9.200723"><ele>1281</ele></trkpt><trkpt lat="62.732913" lon="9.201696"><ele>1283</ele></trkpt><trkpt lat="62.732954" lon="9.202669"><ele>1285</ele></trkpt><trkpt lat="62.732994" lon="9.203642"><ele>1286</ele></trkpt><trkpt lat="62.733034" lon="9.204615"><ele>1291</ele></trkpt><trkpt lat="62.733074" lon="9.205589"><ele>1304</ele></trkpt><trkpt lat="62.733115" lon="9.206562"><ele>1318</ele></trkpt><trkpt lat="62.733155" lon="9.207535"><ele>1330</ele></trkpt><trkpt lat="62.733195" lon="9.208508"><ele>1341</ele></trkpt><trkpt lat="62.733236" lon="9.209481"><ele>1352</ele></trkpt><trkpt lat="62.733276" lon="9.210455"><ele>1358</ele></trkpt><trkpt lat="62.733316" lon="9.211428"><ele>1362</ele></trkpt><trkpt lat="62.733356" lon="9.212401"><ele>1370</ele></trkpt><trkpt lat="62.733396" lon="9.213374"><ele>1378</ele></trkpt><trkpt lat="62.733437" lon="9.214348"><ele>1384</ele></trkpt><trkpt lat="62.733477" lon="9.215321"><ele>1392</ele></trkpt><trkpt lat="62.733517" lon="9.216294"><ele>1401</ele></trkpt><trkpt lat="62.733557" lon="9.217267"><ele>1413</ele></trkpt><trkpt lat="62.733597" lon="9.218240"><ele>1428</ele></trkpt><trkpt lat="62.734084" lon="9.219126"><ele>1435</ele></trkpt><trkpt lat="62.734303" lon="9.220064"><ele>1443</ele></trkpt><trkpt lat="62.734611" lon="9.220985"><ele>1449</ele></trkpt><trkpt lat="62.734740" lon="9.221941"><ele>1460</ele></trkpt><trkpt lat="62.734781" lon="9.222914"><ele>1466</ele></trkpt><trkpt lat="62.734910" lon="9.223870"><ele>1468</ele></trkpt><trkpt lat="62.734950" lon="9.224843"><ele>1470</ele></trkpt><trkpt lat="62.734990" lon="9.225817"><ele>1474</ele></trkpt><trkpt lat="62.735031" lon="9.226790"><ele>1477</ele></trkpt><trkpt lat="62.735071" lon="9.227763"><ele>1477</ele></trkpt><trkpt lat="62.735111" lon="9.228736"><ele>1479</ele></trkpt><trkpt lat="62.735151" lon="9.229710"><ele>1480</ele></trkpt><trkpt lat="62.735191" lon="9.230683"><ele>1484</ele></trkpt><trkpt lat="62.735231" lon="9.231656"><ele>1492</ele></trkpt><trkpt lat="62.735271" lon="9.232630"><ele>1498</ele></trkpt><trkpt lat="62.735311" lon="9.233603"><ele>1502</ele></trkpt><trkpt lat="62.735351" lon="9.234576"><ele>1508</ele></trkpt><trkpt lat="62.735391" lon="9.235550"><ele>1514</ele></trkpt><trkpt lat="62.735431" lon="9.236523"><ele>1519</ele></trkpt><trkpt lat="62.735472" lon="9.237496"><ele>1525</ele></trkpt><trkpt lat="62.735512" lon="9.238470"><ele>1530</ele></trkpt><trkpt lat="62.735552" lon="9.239443"><ele>1535</ele></trkpt><trkpt lat="62.735592" lon="9.240416"><ele>1540</ele></trkpt><trkpt lat="62.735632" lon="9.241390"><ele>1546</ele></trkpt><trkpt lat="62.735672" lon="9.242363"><ele>1553</ele></trkpt><trkpt lat="62.735712" lon="9.243336"><ele>1562</ele></trkpt><trkpt lat="62.735752" lon="9.244310"><ele>1573</ele></trkpt><trkpt lat="62.735792" lon="9.245283"><ele>1582</ele></trkpt><trkpt lat="62.735832" lon="9.246256"><ele>1590</ele></trkpt><trkpt lat="62.735872" lon="9.247230"><ele>1597</ele></trkpt><trkpt lat="62.735733" lon="9.248238"><ele>1605</ele></trkpt><trkpt lat="62.735327" lon="9.249298"><ele>1611</ele></trkpt><trkpt lat="62.734920" lon="9.250359"><ele>1615</ele></trkpt><trkpt lat="62.734513" lon="9.251419"><ele>1618</ele></trkpt><trkpt lat="62.734107" lon="9.252480"><ele>1621</ele></trkpt><trkpt lat="62.733782" lon="9.253328"><ele>1627</ele></trkpt></trkseg></trk><wpt lat="62.743225" lon="9.261889"><ele>1259</ele><name>Run end · Unnamed summit 1627 m</name></wpt><trk><name>Down · Unnamed summit 1627 m</name><desc>fall-line run: 592 m of 20–30°, 314 m drop, aspect 37°, max 31°, 1.7% ≥30°; ends 9.11 km from the car.</desc><trkseg><trkpt lat="62.733782" lon="9.253328"><ele>1627</ele></trkpt><trkpt lat="62.737832" lon="9.253323"><ele>1573</ele></trkpt><trkpt lat="62.738124" lon="9.253855"><ele>1559</ele></trkpt><trkpt lat="62.738416" lon="9.254387"><ele>1545</ele></trkpt><trkpt lat="62.738700" lon="9.254724"><ele>1531</ele></trkpt><trkpt lat="62.738968" lon="9.254672"><ele>1518</ele></trkpt><trkpt lat="62.739236" lon="9.254619"><ele>1502</ele></trkpt><trkpt lat="62.739520" lon="9.254957"><ele>1484</ele></trkpt><trkpt lat="62.739812" lon="9.255488"><ele>1466</ele></trkpt><trkpt lat="62.740103" lon="9.256020"><ele>1450</ele></trkpt><trkpt lat="62.740395" lon="9.256552"><ele>1436</ele></trkpt><trkpt lat="62.740687" lon="9.257084"><ele>1423</ele></trkpt><trkpt lat="62.740979" lon="9.257616"><ele>1411</ele></trkpt><trkpt lat="62.741271" lon="9.258148"><ele>1399</ele></trkpt><trkpt lat="62.741563" lon="9.258680"><ele>1385</ele></trkpt><trkpt lat="62.741855" lon="9.259212"><ele>1366</ele></trkpt><trkpt lat="62.742146" lon="9.259744"><ele>1345</ele></trkpt><trkpt lat="62.742438" lon="9.260276"><ele>1322</ele></trkpt><trkpt lat="62.742730" lon="9.260808"><ele>1299</ele></trkpt><trkpt lat="62.743022" lon="9.261340"><ele>1276</ele></trkpt><trkpt lat="62.743225" lon="9.261889"><ele>1259</ele></trkpt><trkpt lat="62.743225" lon="9.261889"><ele>1259</ele></trkpt></trkseg></trk></gpx>