<?xml version="1.0" encoding="UTF-8"?>
<gpx version="1.1" creator="Rando toppturs" xmlns="http://www.topografix.com/GPX/1/1"><metadata><name>049 Storhaugen 1413 m</name><desc>This is an automatically generated list. I have not checked them all. Do not attempt these if you're a beginner. Generated 2026-09-13 17:42 from Kartverket 10 m terrain. Ascent lines are least-cost terrain paths under 35°, not verified routes. Not a snow-stability assessment.</desc></metadata><wpt lat="62.660700" lon="9.238374"><ele>596</ele><name>Car · Storhaugen 1413 m</name></wpt><wpt lat="62.643411" lon="9.236068"><ele>1413</ele><name>Storhaugen 1413 m</name></wpt><trk><name>Up · Storhaugen 1413 m</name><desc>least-cost ascent: +817 m over 2461 m, max 35°, 10.0% on 30–35°, ≈2.66 h at 4 km/h + 400 m/h. Terrain possibility, not a checked route.</desc><trkseg><trkpt lat="62.660700" lon="9.238374"><ele>596</ele></trkpt><trkpt lat="62.660238" lon="9.238072"><ele>602</ele></trkpt><trkpt lat="62.659751" lon="9.237189"><ele>610</ele></trkpt><trkpt lat="62.659264" lon="9.236305"><ele>622</ele></trkpt><trkpt lat="62.658778" lon="9.235421"><ele>635</ele></trkpt><trkpt lat="62.658307" lon="9.234926"><ele>655</ele></trkpt><trkpt lat="62.657837" lon="9.234430"><ele>677</ele></trkpt><trkpt lat="62.657358" lon="9.233741"><ele>697</ele></trkpt><trkpt lat="62.656904" lon="9.233634"><ele>722</ele></trkpt><trkpt lat="62.656425" lon="9.232944"><ele>749</ele></trkpt><trkpt lat="62.655979" lon="9.233031"><ele>770</ele></trkpt><trkpt lat="62.655516" lon="9.232730"><ele>794</ele></trkpt><trkpt lat="62.655070" lon="9.232817"><ele>814</ele></trkpt><trkpt lat="62.654623" lon="9.232904"><ele>839</ele></trkpt><trkpt lat="62.654177" lon="9.232991"><ele>864</ele></trkpt><trkpt lat="62.653722" lon="9.232884"><ele>888</ele></trkpt><trkpt lat="62.653268" lon="9.232777"><ele>917</ele></trkpt><trkpt lat="62.652821" lon="9.232864"><ele>947</ele></trkpt><trkpt lat="62.652610" lon="9.232122"><ele>965</ele></trkpt><trkpt lat="62.652392" lon="9.231187"><ele>982</ele></trkpt><trkpt lat="62.652084" lon="9.230268"><ele>1009</ele></trkpt><trkpt lat="62.651597" lon="9.229385"><ele>1040</ele></trkpt><trkpt lat="62.651159" lon="9.229666"><ele>1073</ele></trkpt><trkpt lat="62.650712" lon="9.229753"><ele>1106</ele></trkpt><trkpt lat="62.650266" lon="9.229840"><ele>1134</ele></trkpt><trkpt lat="62.649859" lon="9.230898"><ele>1167</ele></trkpt><trkpt lat="62.649437" lon="9.231567"><ele>1190</ele></trkpt><trkpt lat="62.649022" lon="9.232431"><ele>1209</ele></trkpt><trkpt lat="62.648616" lon="9.233488"><ele>1229</ele></trkpt><trkpt lat="62.648209" lon="9.234546"><ele>1247</ele></trkpt><trkpt lat="62.647763" lon="9.234633"><ele>1263</ele></trkpt><trkpt lat="62.647316" lon="9.234720"><ele>1279</ele></trkpt><trkpt lat="62.646870" lon="9.234807"><ele>1293</ele></trkpt><trkpt lat="62.646423" lon="9.234894"><ele>1304</ele></trkpt><trkpt lat="62.645977" lon="9.234981"><ele>1317</ele></trkpt><trkpt lat="62.645530" lon="9.235068"><ele>1332</ele></trkpt><trkpt lat="62.645084" lon="9.235155"><ele>1348</ele></trkpt><trkpt lat="62.644645" lon="9.235436"><ele>1368</ele></trkpt><trkpt lat="62.644215" lon="9.235911"><ele>1386</ele></trkpt><trkpt lat="62.643768" lon="9.235998"><ele>1407</ele></trkpt><trkpt lat="62.643411" lon="9.236068"><ele>1413</ele></trkpt></trkseg></trk><wpt lat="62.639426" lon="9.270486"><ele>796</ele><name>Run end · Storhaugen 1413 m</name></wpt><trk><name>Down · Storhaugen 1413 m</name><desc>fall-line run: 590 m of 20–30°, 425 m drop, aspect 101°, max 31°, 1.0% ≥30°; ends 2.89 km from the car.</desc><trkseg><trkpt lat="62.643411" lon="9.236068"><ele>1413</ele></trkpt><trkpt lat="62.639106" lon="9.240818"><ele>1221</ele></trkpt><trkpt lat="62.638838" lon="9.240870"><ele>1206</ele></trkpt><trkpt lat="62.638570" lon="9.240923"><ele>1189</ele></trkpt><trkpt lat="62.638302" lon="9.240975"><ele>1176</ele></trkpt><trkpt lat="62.638034" lon="9.241027"><ele>1164</ele></trkpt><trkpt lat="62.637766" lon="9.241079"><ele>1151</ele></trkpt><trkpt lat="62.637498" lon="9.241131"><ele>1139</ele></trkpt><trkpt lat="62.637238" lon="9.241377"><ele>1122</ele></trkpt><trkpt lat="62.636971" lon="9.241429"><ele>1108</ele></trkpt><trkpt lat="62.636703" lon="9.241482"><ele>1095</ele></trkpt><trkpt lat="62.636435" lon="9.241534"><ele>1087</ele></trkpt><trkpt lat="62.636167" lon="9.241586"><ele>1082</ele></trkpt><trkpt lat="62.635899" lon="9.241638"><ele>1076</ele></trkpt><trkpt lat="62.635631" lon="9.241690"><ele>1069</ele></trkpt><trkpt lat="62.635363" lon="9.241742"><ele>1059</ele></trkpt><trkpt lat="62.635095" lon="9.241794"><ele>1044</ele></trkpt><trkpt lat="62.634827" lon="9.241846"><ele>1032</ele></trkpt><trkpt lat="62.634567" lon="9.242093"><ele>1018</ele></trkpt><trkpt lat="62.634315" lon="9.242533"><ele>1004</ele></trkpt><trkpt lat="62.634063" lon="9.242973"><ele>987</ele></trkpt><trkpt lat="62.633820" lon="9.243607"><ele>970</ele></trkpt><trkpt lat="62.633576" lon="9.244241"><ele>957</ele></trkpt><trkpt lat="62.633316" lon="9.244487"><ele>952</ele></trkpt><trkpt lat="62.633250" lon="9.245086"><ele>950</ele></trkpt><trkpt lat="62.633274" lon="9.245668"><ele>948</ele></trkpt><trkpt lat="62.633298" lon="9.246250"><ele>946</ele></trkpt><trkpt lat="62.633412" lon="9.246815"><ele>944</ele></trkpt><trkpt lat="62.633525" lon="9.247380"><ele>942</ele></trkpt><trkpt lat="62.633638" lon="9.247944"><ele>940</ele></trkpt><trkpt lat="62.633751" lon="9.248509"><ele>937</ele></trkpt><trkpt lat="62.633954" lon="9.249056"><ele>935</ele></trkpt><trkpt lat="62.634067" lon="9.249621"><ele>933</ele></trkpt><trkpt lat="62.634181" lon="9.250186"><ele>931</ele></trkpt><trkpt lat="62.634294" lon="9.250750"><ele>929</ele></trkpt><trkpt lat="62.634318" lon="9.251332"><ele>927</ele></trkpt><trkpt lat="62.634342" lon="9.251914"><ele>924</ele></trkpt><trkpt lat="62.634455" lon="9.252479"><ele>922</ele></trkpt><trkpt lat="62.634568" lon="9.253044"><ele>920</ele></trkpt><trkpt lat="62.634771" lon="9.253591"><ele>917</ele></trkpt><trkpt lat="62.634973" lon="9.254138"><ele>914</ele></trkpt><trkpt lat="62.635257" lon="9.254474"><ele>912</ele></trkpt><trkpt lat="62.635549" lon="9.255005"><ele>908</ele></trkpt><trkpt lat="62.635752" lon="9.255552"><ele>904</ele></trkpt><trkpt lat="62.635954" lon="9.256099"><ele>901</ele></trkpt><trkpt lat="62.636246" lon="9.256629"><ele>898</ele></trkpt><trkpt lat="62.636538" lon="9.257159"><ele>894</ele></trkpt><trkpt lat="62.636740" lon="9.257707"><ele>892</ele></trkpt><trkpt lat="62.636943" lon="9.258254"><ele>889</ele></trkpt><trkpt lat="62.637145" lon="9.258802"><ele>885</ele></trkpt><trkpt lat="62.637348" lon="9.259349"><ele>881</ele></trkpt><trkpt lat="62.637461" lon="9.259914"><ele>878</ele></trkpt><trkpt lat="62.637574" lon="9.260479"><ele>874</ele></trkpt><trkpt lat="62.637777" lon="9.261026"><ele>870</ele></trkpt><trkpt lat="62.637890" lon="9.261591"><ele>867</ele></trkpt><trkpt lat="62.637914" lon="9.262173"><ele>865</ele></trkpt><trkpt lat="62.638027" lon="9.262738"><ele>861</ele></trkpt><trkpt lat="62.638141" lon="9.263303"><ele>858</ele></trkpt><trkpt lat="62.638343" lon="9.263850"><ele>853</ele></trkpt><trkpt lat="62.638456" lon="9.264415"><ele>850</ele></trkpt><trkpt lat="62.638480" lon="9.264997"><ele>846</ele></trkpt><trkpt lat="62.638593" lon="9.265562"><ele>842</ele></trkpt><trkpt lat="62.638617" lon="9.266144"><ele>839</ele></trkpt><trkpt lat="62.638820" lon="9.266692"><ele>835</ele></trkpt><trkpt lat="62.638933" lon="9.267256"><ele>832</ele></trkpt><trkpt lat="62.639046" lon="9.267821"><ele>826</ele></trkpt><trkpt lat="62.639070" lon="9.268403"><ele>821</ele></trkpt><trkpt lat="62.639183" lon="9.268968"><ele>817</ele></trkpt><trkpt lat="62.639296" lon="9.269533"><ele>810</ele></trkpt><trkpt lat="62.639410" lon="9.270098"><ele>805</ele></trkpt><trkpt lat="62.639426" lon="9.270486"><ele>796</ele></trkpt></trkseg></trk></gpx>