<?xml version="1.0" encoding="UTF-8"?>
<gpx version="1.1" creator="Rando toppturs" xmlns="http://www.topografix.com/GPX/1/1"><metadata><name>050 Indre Grynningshøa 1467 m</name><desc>This is an automatically generated list. I have not checked them all. Do not attempt these if you're a beginner. Generated 2026-09-13 17:42 from Kartverket 10 m terrain. Ascent lines are least-cost terrain paths under 35°, not verified routes. Not a snow-stability assessment.</desc></metadata><wpt lat="62.694114" lon="9.045283"><ele>732</ele><name>Car · Indre Grynningshøa 1467 m</name></wpt><wpt lat="62.645410" lon="9.043350"><ele>1467</ele><name>Indre Grynningshøa 1467 m</name></wpt><trk><name>Up · Indre Grynningshøa 1467 m</name><desc>least-cost ascent: +795 m over 5789 m, max 28°, 0.0% on 30–35°, ≈3.43 h at 4 km/h + 400 m/h. Terrain possibility, not a checked route.</desc><trkseg><trkpt lat="62.694114" lon="9.045283"><ele>732</ele></trkpt><trkpt lat="62.693667" lon="9.045373"><ele>723</ele></trkpt><trkpt lat="62.693229" lon="9.045657"><ele>735</ele></trkpt><trkpt lat="62.692783" lon="9.045747"><ele>744</ele></trkpt><trkpt lat="62.692336" lon="9.045838"><ele>760</ele></trkpt><trkpt lat="62.691890" lon="9.045928"><ele>758</ele></trkpt><trkpt lat="62.691444" lon="9.046018"><ele>763</ele></trkpt><trkpt lat="62.690997" lon="9.046108"><ele>776</ele></trkpt><trkpt lat="62.690551" lon="9.046198"><ele>778</ele></trkpt><trkpt lat="62.690105" lon="9.046288"><ele>786</ele></trkpt><trkpt lat="62.689658" lon="9.046378"><ele>787</ele></trkpt><trkpt lat="62.689212" lon="9.046468"><ele>791</ele></trkpt><trkpt lat="62.688765" lon="9.046558"><ele>791</ele></trkpt><trkpt lat="62.688319" lon="9.046648"><ele>799</ele></trkpt><trkpt lat="62.687881" lon="9.046932"><ele>819</ele></trkpt><trkpt lat="62.687435" lon="9.047022"><ele>832</ele></trkpt><trkpt lat="62.686988" lon="9.047112"><ele>839</ele></trkpt><trkpt lat="62.686542" lon="9.047202"><ele>842</ele></trkpt><trkpt lat="62.686096" lon="9.047292"><ele>837</ele></trkpt><trkpt lat="62.685649" lon="9.047382"><ele>831</ele></trkpt><trkpt lat="62.685203" lon="9.047472"><ele>834</ele></trkpt><trkpt lat="62.684756" lon="9.047562"><ele>838</ele></trkpt><trkpt lat="62.684310" lon="9.047652"><ele>845</ele></trkpt><trkpt lat="62.683864" lon="9.047742"><ele>847</ele></trkpt><trkpt lat="62.683417" lon="9.047832"><ele>847</ele></trkpt><trkpt lat="62.682971" lon="9.047922"><ele>850</ele></trkpt><trkpt lat="62.682525" lon="9.048012"><ele>853</ele></trkpt><trkpt lat="62.682078" lon="9.048102"><ele>856</ele></trkpt><trkpt lat="62.681632" lon="9.048192"><ele>862</ele></trkpt><trkpt lat="62.681186" lon="9.048282"><ele>869</ele></trkpt><trkpt lat="62.680739" lon="9.048372"><ele>875</ele></trkpt><trkpt lat="62.680293" lon="9.048462"><ele>880</ele></trkpt><trkpt lat="62.679846" lon="9.048552"><ele>881</ele></trkpt><trkpt lat="62.679400" lon="9.048642"><ele>886</ele></trkpt><trkpt lat="62.678954" lon="9.048732"><ele>887</ele></trkpt><trkpt lat="62.678507" lon="9.048821"><ele>888</ele></trkpt><trkpt lat="62.678061" lon="9.048911"><ele>887</ele></trkpt><trkpt lat="62.677615" lon="9.049001"><ele>878</ele></trkpt><trkpt lat="62.677168" lon="9.049091"><ele>875</ele></trkpt><trkpt lat="62.676722" lon="9.049181"><ele>873</ele></trkpt><trkpt lat="62.676275" lon="9.049271"><ele>868</ele></trkpt><trkpt lat="62.675829" lon="9.049361"><ele>863</ele></trkpt><trkpt lat="62.675383" lon="9.049451"><ele>863</ele></trkpt><trkpt lat="62.674936" lon="9.049541"><ele>864</ele></trkpt><trkpt lat="62.674490" lon="9.049631"><ele>870</ele></trkpt><trkpt lat="62.674044" lon="9.049721"><ele>878</ele></trkpt><trkpt lat="62.673597" lon="9.049811"><ele>884</ele></trkpt><trkpt lat="62.673151" lon="9.049901"><ele>889</ele></trkpt><trkpt lat="62.672705" lon="9.049990"><ele>895</ele></trkpt><trkpt lat="62.672258" lon="9.050080"><ele>901</ele></trkpt><trkpt lat="62.671812" lon="9.050170"><ele>907</ele></trkpt><trkpt lat="62.671374" lon="9.050454"><ele>912</ele></trkpt><trkpt lat="62.670927" lon="9.050544"><ele>919</ele></trkpt><trkpt lat="62.670481" lon="9.050634"><ele>927</ele></trkpt><trkpt lat="62.670035" lon="9.050724"><ele>938</ele></trkpt><trkpt lat="62.669588" lon="9.050814"><ele>949</ele></trkpt><trkpt lat="62.669142" lon="9.050904"><ele>959</ele></trkpt><trkpt lat="62.668696" lon="9.050994"><ele>973</ele></trkpt><trkpt lat="62.668257" lon="9.051278"><ele>986</ele></trkpt><trkpt lat="62.667819" lon="9.051562"><ele>1002</ele></trkpt><trkpt lat="62.667373" lon="9.051652"><ele>1014</ele></trkpt><trkpt lat="62.666935" lon="9.051936"><ele>1030</ele></trkpt><trkpt lat="62.666488" lon="9.052025"><ele>1041</ele></trkpt><trkpt lat="62.666042" lon="9.052115"><ele>1049</ele></trkpt><trkpt lat="62.665596" lon="9.052205"><ele>1058</ele></trkpt><trkpt lat="62.665149" lon="9.052295"><ele>1067</ele></trkpt><trkpt lat="62.664703" lon="9.052385"><ele>1077</ele></trkpt><trkpt lat="62.664257" lon="9.052475"><ele>1086</ele></trkpt><trkpt lat="62.663810" lon="9.052564"><ele>1095</ele></trkpt><trkpt lat="62.663364" lon="9.052654"><ele>1105</ele></trkpt><trkpt lat="62.662918" lon="9.052744"><ele>1114</ele></trkpt><trkpt lat="62.662471" lon="9.052834"><ele>1122</ele></trkpt><trkpt lat="62.662025" lon="9.052924"><ele>1131</ele></trkpt><trkpt lat="62.661578" lon="9.053013"><ele>1140</ele></trkpt><trkpt lat="62.661132" lon="9.053103"><ele>1150</ele></trkpt><trkpt lat="62.660686" lon="9.053193"><ele>1160</ele></trkpt><trkpt lat="62.660239" lon="9.053283"><ele>1167</ele></trkpt><trkpt lat="62.659793" lon="9.053373"><ele>1178</ele></trkpt><trkpt lat="62.659347" lon="9.053463"><ele>1189</ele></trkpt><trkpt lat="62.658884" lon="9.053164"><ele>1207</ele></trkpt><trkpt lat="62.658396" lon="9.052283"><ele>1226</ele></trkpt><trkpt lat="62.657908" lon="9.051403"><ele>1235</ele></trkpt><trkpt lat="62.657421" lon="9.050522"><ele>1243</ele></trkpt><trkpt lat="62.656933" lon="9.049642"><ele>1261</ele></trkpt><trkpt lat="62.656454" lon="9.048955"><ele>1283</ele></trkpt><trkpt lat="62.655974" lon="9.048269"><ele>1306</ele></trkpt><trkpt lat="62.655528" lon="9.048358"><ele>1316</ele></trkpt><trkpt lat="62.655081" lon="9.048448"><ele>1329</ele></trkpt><trkpt lat="62.654635" lon="9.048538"><ele>1339</ele></trkpt><trkpt lat="62.654172" lon="9.048240"><ele>1352</ele></trkpt><trkpt lat="62.653709" lon="9.047942"><ele>1368</ele></trkpt><trkpt lat="62.653263" lon="9.048031"><ele>1377</ele></trkpt><trkpt lat="62.652816" lon="9.048121"><ele>1382</ele></trkpt><trkpt lat="62.652345" lon="9.047629"><ele>1389</ele></trkpt><trkpt lat="62.651858" lon="9.046749"><ele>1400</ele></trkpt><trkpt lat="62.651370" lon="9.045868"><ele>1417</ele></trkpt><trkpt lat="62.650890" lon="9.045182"><ele>1426</ele></trkpt><trkpt lat="62.650436" lon="9.045078"><ele>1435</ele></trkpt><trkpt lat="62.649989" lon="9.045168"><ele>1437</ele></trkpt><trkpt lat="62.649543" lon="9.045258"><ele>1435</ele></trkpt><trkpt lat="62.649097" lon="9.045347"><ele>1434</ele></trkpt><trkpt lat="62.648650" lon="9.045437"><ele>1434</ele></trkpt><trkpt lat="62.648204" lon="9.045527"><ele>1437</ele></trkpt><trkpt lat="62.647758" lon="9.045617"><ele>1441</ele></trkpt><trkpt lat="62.647311" lon="9.045707"><ele>1442</ele></trkpt><trkpt lat="62.646865" lon="9.045797"><ele>1446</ele></trkpt><trkpt lat="62.646385" lon="9.045111"><ele>1451</ele></trkpt><trkpt lat="62.645898" lon="9.044230"><ele>1456</ele></trkpt><trkpt lat="62.645410" lon="9.043350"><ele>1467</ele></trkpt><trkpt lat="62.645410" lon="9.043350"><ele>1467</ele></trkpt></trkseg></trk><wpt lat="62.648430" lon="9.017106"><ele>1038</ele><name>Run end · Indre Grynningshøa 1467 m</name></wpt><trk><name>Down · Indre Grynningshøa 1467 m</name><desc>fall-line run: 579 m of 20–30°, 283 m drop, aspect 273°, max 31°, 1.3% ≥30°; ends 5.3 km from the car.</desc><trkseg><trkpt lat="62.645410" lon="9.043350"><ele>1467</ele></trkpt><trkpt lat="62.649401" lon="9.031391"><ele>1321</ele></trkpt><trkpt lat="62.649644" lon="9.030755"><ele>1302</ele></trkpt><trkpt lat="62.649887" lon="9.030119"><ele>1280</ele></trkpt><trkpt lat="62.650130" lon="9.029483"><ele>1257</ele></trkpt><trkpt lat="62.650373" lon="9.028847"><ele>1242</ele></trkpt><trkpt lat="62.650616" lon="9.028210"><ele>1234</ele></trkpt><trkpt lat="62.650859" lon="9.027574"><ele>1226</ele></trkpt><trkpt lat="62.650923" lon="9.026974"><ele>1222</ele></trkpt><trkpt lat="62.650899" lon="9.026392"><ele>1218</ele></trkpt><trkpt lat="62.650874" lon="9.025810"><ele>1214</ele></trkpt><trkpt lat="62.650849" lon="9.025228"><ele>1209</ele></trkpt><trkpt lat="62.650824" lon="9.024646"><ele>1204</ele></trkpt><trkpt lat="62.650799" lon="9.024064"><ele>1199</ele></trkpt><trkpt lat="62.650863" lon="9.023463"><ele>1188</ele></trkpt><trkpt lat="62.650749" lon="9.022899"><ele>1176</ele></trkpt><trkpt lat="62.650546" lon="9.022353"><ele>1166</ele></trkpt><trkpt lat="62.650342" lon="9.021807"><ele>1155</ele></trkpt><trkpt lat="62.650139" lon="9.021261"><ele>1146</ele></trkpt><trkpt lat="62.649846" lon="9.020733"><ele>1134</ele></trkpt><trkpt lat="62.649553" lon="9.020205"><ele>1118</ele></trkpt><trkpt lat="62.649261" lon="9.019678"><ele>1100</ele></trkpt><trkpt lat="62.649057" lon="9.019132"><ele>1084</ele></trkpt><trkpt lat="62.648854" lon="9.018586"><ele>1070</ele></trkpt><trkpt lat="62.648650" lon="9.018040"><ele>1058</ele></trkpt><trkpt lat="62.648536" lon="9.017476"><ele>1047</ele></trkpt><trkpt lat="62.648430" lon="9.017106"><ele>1038</ele></trkpt></trkseg></trk></gpx>