<?xml version="1.0" encoding="UTF-8"?>
<gpx version="1.1" creator="Rando toppturs" xmlns="http://www.topografix.com/GPX/1/1"><metadata><name>052 Blåhøa 1427 m</name><desc>This is an automatically generated list. I have not checked them all. Do not attempt these if you're a beginner. Generated 2026-09-13 17:42 from Kartverket 10 m terrain. Ascent lines are least-cost terrain paths under 35°, not verified routes. Not a snow-stability assessment.</desc></metadata><wpt lat="62.513874" lon="8.978731"><ele>732</ele><name>Car · Blåhøa 1427 m</name></wpt><wpt lat="62.512397" lon="8.932274"><ele>1427</ele><name>Blåhøa 1427 m</name></wpt><trk><name>Up · Blåhøa 1427 m</name><desc>least-cost ascent: +701 m over 2837 m, max 32°, 0.4% on 30–35°, ≈2.46 h at 4 km/h + 400 m/h. Terrain possibility, not a checked route.</desc><trkseg><trkpt lat="62.513874" lon="8.978731"><ele>732</ele></trkpt><trkpt lat="62.514011" lon="8.977729"><ele>741</ele></trkpt><trkpt lat="62.514059" lon="8.976745"><ele>754</ele></trkpt><trkpt lat="62.514285" lon="8.975725"><ele>769</ele></trkpt><trkpt lat="62.514243" lon="8.974760"><ele>783</ele></trkpt><trkpt lat="62.514290" lon="8.973776"><ele>793</ele></trkpt><trkpt lat="62.514248" lon="8.972810"><ele>809</ele></trkpt><trkpt lat="62.514207" lon="8.971845"><ele>822</ele></trkpt><trkpt lat="62.514165" lon="8.970879"><ele>846</ele></trkpt><trkpt lat="62.514488" lon="8.970034"><ele>875</ele></trkpt><trkpt lat="62.514625" lon="8.969032"><ele>903</ele></trkpt><trkpt lat="62.514940" lon="8.967994"><ele>938</ele></trkpt><trkpt lat="62.515077" lon="8.966992"><ele>957</ele></trkpt><trkpt lat="62.515035" lon="8.966027"><ele>963</ele></trkpt><trkpt lat="62.514993" lon="8.965061"><ele>968</ele></trkpt><trkpt lat="62.514951" lon="8.964095"><ele>974</ele></trkpt><trkpt lat="62.514910" lon="8.963130"><ele>985</ele></trkpt><trkpt lat="62.514868" lon="8.962164"><ele>995</ele></trkpt><trkpt lat="62.515004" lon="8.961162"><ele>1006</ele></trkpt><trkpt lat="62.515319" lon="8.960124"><ele>1022</ele></trkpt><trkpt lat="62.515367" lon="8.959140"><ele>1040</ele></trkpt><trkpt lat="62.515503" lon="8.958138"><ele>1067</ele></trkpt><trkpt lat="62.515819" lon="8.957100"><ele>1096</ele></trkpt><trkpt lat="62.515866" lon="8.956116"><ele>1117</ele></trkpt><trkpt lat="62.516270" lon="8.955060"><ele>1150</ele></trkpt><trkpt lat="62.516318" lon="8.954076"><ele>1170</ele></trkpt><trkpt lat="62.516276" lon="8.953110"><ele>1191</ele></trkpt><trkpt lat="62.516412" lon="8.952108"><ele>1215</ele></trkpt><trkpt lat="62.516370" lon="8.951143"><ele>1236</ele></trkpt><trkpt lat="62.516239" lon="8.950195"><ele>1259</ele></trkpt><trkpt lat="62.516197" lon="8.949230"><ele>1276</ele></trkpt><trkpt lat="62.516155" lon="8.948264"><ele>1291</ele></trkpt><trkpt lat="62.516113" lon="8.947298"><ele>1303</ele></trkpt><trkpt lat="62.516071" lon="8.946333"><ele>1312</ele></trkpt><trkpt lat="62.516029" lon="8.945367"><ele>1319</ele></trkpt><trkpt lat="62.515987" lon="8.944401"><ele>1323</ele></trkpt><trkpt lat="62.515856" lon="8.943454"><ele>1334</ele></trkpt><trkpt lat="62.515814" lon="8.942488"><ele>1340</ele></trkpt><trkpt lat="62.515593" lon="8.941559"><ele>1347</ele></trkpt><trkpt lat="62.515284" lon="8.940648"><ele>1353</ele></trkpt><trkpt lat="62.514974" lon="8.939737"><ele>1360</ele></trkpt><trkpt lat="62.514575" lon="8.938844"><ele>1366</ele></trkpt><trkpt lat="62.514086" lon="8.937969"><ele>1376</ele></trkpt><trkpt lat="62.513777" lon="8.937058"><ele>1385</ele></trkpt><trkpt lat="62.513735" lon="8.936093"><ele>1388</ele></trkpt><trkpt lat="62.513603" lon="8.935145"><ele>1390</ele></trkpt><trkpt lat="62.513383" lon="8.934216"><ele>1398</ele></trkpt><trkpt lat="62.512984" lon="8.933323"><ele>1406</ele></trkpt><trkpt lat="62.512495" lon="8.932449"><ele>1424</ele></trkpt><trkpt lat="62.512397" lon="8.932274"><ele>1427</ele></trkpt></trkseg></trk><wpt lat="62.504612" lon="8.931330"><ele>1118</ele><name>Run end · Blåhøa 1427 m</name></wpt><trk><name>Down · Blåhøa 1427 m</name><desc>fall-line run: 564 m of 20–30°, 290 m drop, aspect 184°, max 30°, 0.0% ≥30°; ends 2.65 km from the car.</desc><trkseg><trkpt lat="62.512397" lon="8.932274"><ele>1427</ele></trkpt><trkpt lat="62.511535" lon="8.931086"><ele>1407</ele></trkpt><trkpt lat="62.511267" lon="8.931141"><ele>1395</ele></trkpt><trkpt lat="62.511000" lon="8.931196"><ele>1382</ele></trkpt><trkpt lat="62.510732" lon="8.931250"><ele>1367</ele></trkpt><trkpt lat="62.510464" lon="8.931305"><ele>1353</ele></trkpt><trkpt lat="62.510196" lon="8.931359"><ele>1341</ele></trkpt><trkpt lat="62.509929" lon="8.931414"><ele>1335</ele></trkpt><trkpt lat="62.509644" lon="8.931083"><ele>1333</ele></trkpt><trkpt lat="62.509351" lon="8.930558"><ele>1328</ele></trkpt><trkpt lat="62.509058" lon="8.930033"><ele>1324</ele></trkpt><trkpt lat="62.508790" lon="8.930088"><ele>1315</ele></trkpt><trkpt lat="62.508522" lon="8.930143"><ele>1301</ele></trkpt><trkpt lat="62.508255" lon="8.930197"><ele>1286</ele></trkpt><trkpt lat="62.507987" lon="8.930252"><ele>1274</ele></trkpt><trkpt lat="62.507719" lon="8.930307"><ele>1261</ele></trkpt><trkpt lat="62.507451" lon="8.930361"><ele>1245</ele></trkpt><trkpt lat="62.507184" lon="8.930416"><ele>1231</ele></trkpt><trkpt lat="62.506916" lon="8.930470"><ele>1220</ele></trkpt><trkpt lat="62.506648" lon="8.930525"><ele>1210</ele></trkpt><trkpt lat="62.506380" lon="8.930580"><ele>1195</ele></trkpt><trkpt lat="62.506113" lon="8.930634"><ele>1184</ele></trkpt><trkpt lat="62.505845" lon="8.930689"><ele>1173</ele></trkpt><trkpt lat="62.505577" lon="8.930744"><ele>1162</ele></trkpt><trkpt lat="62.505309" lon="8.930798"><ele>1146</ele></trkpt><trkpt lat="62.505041" lon="8.930853"><ele>1138</ele></trkpt><trkpt lat="62.504774" lon="8.930907"><ele>1128</ele></trkpt><trkpt lat="62.504612" lon="8.931330"><ele>1118</ele></trkpt></trkseg></trk></gpx>