<?xml version="1.0" encoding="UTF-8"?>
<gpx version="1.1" creator="Rando toppturs" xmlns="http://www.topografix.com/GPX/1/1"><metadata><name>053 Unnamed 1879 m</name><desc>This is an automatically generated list. I have not checked them all. Do not attempt these if you're a beginner. Generated 2026-09-13 17:42 from Kartverket 10 m terrain. Ascent lines are least-cost terrain paths under 35°, not verified routes. Not a snow-stability assessment.</desc></metadata><wpt lat="62.451926" lon="9.530006"><ele>1267</ele><name>Car · Unnamed summit 1879 m</name></wpt><wpt lat="62.373694" lon="9.414065"><ele>1879</ele><name>Unnamed summit 1879 m</name></wpt><trk><name>Up · Unnamed summit 1879 m</name><desc>least-cost ascent: +834 m over 11059 m, max 29°, 0.0% on 30–35°, ≈4.85 h at 4 km/h + 400 m/h. Terrain possibility, not a checked route.</desc><trkseg><trkpt lat="62.451926" lon="9.530006"><ele>1267</ele></trkpt><trkpt lat="62.451449" lon="9.529316"><ele>1271</ele></trkpt><trkpt lat="62.450964" lon="9.528434"><ele>1276</ele></trkpt><trkpt lat="62.450480" lon="9.527551"><ele>1280</ele></trkpt><trkpt lat="62.449995" lon="9.526669"><ele>1287</ele></trkpt><trkpt lat="62.449510" lon="9.525786"><ele>1291</ele></trkpt><trkpt lat="62.449025" lon="9.524903"><ele>1295</ele></trkpt><trkpt lat="62.448541" lon="9.524021"><ele>1300</ele></trkpt><trkpt lat="62.448056" lon="9.523138"><ele>1307</ele></trkpt><trkpt lat="62.447571" lon="9.522256"><ele>1317</ele></trkpt><trkpt lat="62.447087" lon="9.521374"><ele>1322</ele></trkpt><trkpt lat="62.446602" lon="9.520491"><ele>1329</ele></trkpt><trkpt lat="62.446117" lon="9.519609"><ele>1333</ele></trkpt><trkpt lat="62.445632" lon="9.518726"><ele>1340</ele></trkpt><trkpt lat="62.445148" lon="9.517844"><ele>1349</ele></trkpt><trkpt lat="62.444663" lon="9.516962"><ele>1360</ele></trkpt><trkpt lat="62.444178" lon="9.516080"><ele>1366</ele></trkpt><trkpt lat="62.443693" lon="9.515197"><ele>1380</ele></trkpt><trkpt lat="62.443208" lon="9.514315"><ele>1390</ele></trkpt><trkpt lat="62.442739" lon="9.513819"><ele>1406</ele></trkpt><trkpt lat="62.442292" lon="9.513901"><ele>1417</ele></trkpt><trkpt lat="62.441845" lon="9.513983"><ele>1428</ele></trkpt><trkpt lat="62.441399" lon="9.514065"><ele>1436</ele></trkpt><trkpt lat="62.440929" lon="9.513569"><ele>1445</ele></trkpt><trkpt lat="62.440475" lon="9.513458"><ele>1457</ele></trkpt><trkpt lat="62.440028" lon="9.513540"><ele>1467</ele></trkpt><trkpt lat="62.439581" lon="9.513622"><ele>1475</ele></trkpt><trkpt lat="62.439134" lon="9.513704"><ele>1481</ele></trkpt><trkpt lat="62.438688" lon="9.513786"><ele>1483</ele></trkpt><trkpt lat="62.438241" lon="9.513868"><ele>1486</ele></trkpt><trkpt lat="62.437794" lon="9.513951"><ele>1486</ele></trkpt><trkpt lat="62.437348" lon="9.514033"><ele>1485</ele></trkpt><trkpt lat="62.436901" lon="9.514115"><ele>1483</ele></trkpt><trkpt lat="62.436454" lon="9.514197"><ele>1482</ele></trkpt><trkpt lat="62.436007" lon="9.514279"><ele>1480</ele></trkpt><trkpt lat="62.435561" lon="9.514361"><ele>1483</ele></trkpt><trkpt lat="62.435114" lon="9.514443"><ele>1485</ele></trkpt><trkpt lat="62.434667" lon="9.514525"><ele>1487</ele></trkpt><trkpt lat="62.434220" lon="9.514607"><ele>1488</ele></trkpt><trkpt lat="62.433774" lon="9.514689"><ele>1488</ele></trkpt><trkpt lat="62.433327" lon="9.514771"><ele>1486</ele></trkpt><trkpt lat="62.432880" lon="9.514853"><ele>1484</ele></trkpt><trkpt lat="62.432433" lon="9.514935"><ele>1482</ele></trkpt><trkpt lat="62.431987" lon="9.515017"><ele>1480</ele></trkpt><trkpt lat="62.431540" lon="9.515099"><ele>1480</ele></trkpt><trkpt lat="62.431093" lon="9.515182"><ele>1479</ele></trkpt><trkpt lat="62.430608" lon="9.514300"><ele>1472</ele></trkpt><trkpt lat="62.430124" lon="9.513418"><ele>1463</ele></trkpt><trkpt lat="62.429639" lon="9.512536"><ele>1456</ele></trkpt><trkpt lat="62.429154" lon="9.511654"><ele>1449</ele></trkpt><trkpt lat="62.428669" lon="9.510773"><ele>1446</ele></trkpt><trkpt lat="62.428184" lon="9.509891"><ele>1445</ele></trkpt><trkpt lat="62.427700" lon="9.509009"><ele>1444</ele></trkpt><trkpt lat="62.427215" lon="9.508128"><ele>1442</ele></trkpt><trkpt lat="62.426730" lon="9.507246"><ele>1439</ele></trkpt><trkpt lat="62.426245" lon="9.506365"><ele>1439</ele></trkpt><trkpt lat="62.425760" lon="9.505483"><ele>1437</ele></trkpt><trkpt lat="62.425275" lon="9.504601"><ele>1439</ele></trkpt><trkpt lat="62.424791" lon="9.503720"><ele>1436</ele></trkpt><trkpt lat="62.424306" lon="9.502839"><ele>1432</ele></trkpt><trkpt lat="62.423821" lon="9.501957"><ele>1429</ele></trkpt><trkpt lat="62.423336" lon="9.501076"><ele>1427</ele></trkpt><trkpt lat="62.422851" lon="9.500194"><ele>1427</ele></trkpt><trkpt lat="62.422366" lon="9.499313"><ele>1428</ele></trkpt><trkpt lat="62.421881" lon="9.498432"><ele>1426</ele></trkpt><trkpt lat="62.421397" lon="9.497550"><ele>1423</ele></trkpt><trkpt lat="62.420912" lon="9.496669"><ele>1423</ele></trkpt><trkpt lat="62.420427" lon="9.495788"><ele>1426</ele></trkpt><trkpt lat="62.419942" lon="9.494907"><ele>1428</ele></trkpt><trkpt lat="62.419457" lon="9.494026"><ele>1428</ele></trkpt><trkpt lat="62.418972" lon="9.493144"><ele>1431</ele></trkpt><trkpt lat="62.418487" lon="9.492263"><ele>1440</ele></trkpt><trkpt lat="62.418002" lon="9.491382"><ele>1445</ele></trkpt><trkpt lat="62.417517" lon="9.490501"><ele>1451</ele></trkpt><trkpt lat="62.417032" lon="9.489620"><ele>1460</ele></trkpt><trkpt lat="62.416548" lon="9.488739"><ele>1467</ele></trkpt><trkpt lat="62.416063" lon="9.487858"><ele>1477</ele></trkpt><trkpt lat="62.415578" lon="9.486977"><ele>1488</ele></trkpt><trkpt lat="62.415093" lon="9.486096"><ele>1502</ele></trkpt><trkpt lat="62.414608" lon="9.485215"><ele>1509</ele></trkpt><trkpt lat="62.414123" lon="9.484334"><ele>1516</ele></trkpt><trkpt lat="62.413638" lon="9.483454"><ele>1527</ele></trkpt><trkpt lat="62.413153" lon="9.482573"><ele>1533</ele></trkpt><trkpt lat="62.412668" lon="9.481692"><ele>1542</ele></trkpt><trkpt lat="62.412183" lon="9.480811"><ele>1546</ele></trkpt><trkpt lat="62.411698" lon="9.479931"><ele>1552</ele></trkpt><trkpt lat="62.411213" lon="9.479050"><ele>1557</ele></trkpt><trkpt lat="62.410728" lon="9.478169"><ele>1562</ele></trkpt><trkpt lat="62.410243" lon="9.477289"><ele>1569</ele></trkpt><trkpt lat="62.409758" lon="9.476408"><ele>1576</ele></trkpt><trkpt lat="62.409273" lon="9.475527"><ele>1576</ele></trkpt><trkpt lat="62.408788" lon="9.474647"><ele>1577</ele></trkpt><trkpt lat="62.408303" lon="9.473766"><ele>1585</ele></trkpt><trkpt lat="62.407818" lon="9.472886"><ele>1592</ele></trkpt><trkpt lat="62.407333" lon="9.472005"><ele>1596</ele></trkpt><trkpt lat="62.406848" lon="9.471125"><ele>1603</ele></trkpt><trkpt lat="62.406363" lon="9.470245"><ele>1606</ele></trkpt><trkpt lat="62.405878" lon="9.469364"><ele>1603</ele></trkpt><trkpt lat="62.405393" lon="9.468484"><ele>1602</ele></trkpt><trkpt lat="62.404908" lon="9.467604"><ele>1595</ele></trkpt><trkpt lat="62.404423" lon="9.466723"><ele>1590</ele></trkpt><trkpt lat="62.403938" lon="9.465843"><ele>1584</ele></trkpt><trkpt lat="62.403452" lon="9.464963"><ele>1584</ele></trkpt><trkpt lat="62.402967" lon="9.464083"><ele>1582</ele></trkpt><trkpt lat="62.402482" lon="9.463202"><ele>1576</ele></trkpt><trkpt lat="62.401997" lon="9.462322"><ele>1572</ele></trkpt><trkpt lat="62.401512" lon="9.461442"><ele>1571</ele></trkpt><trkpt lat="62.401027" lon="9.460562"><ele>1568</ele></trkpt><trkpt lat="62.400542" lon="9.459682"><ele>1572</ele></trkpt><trkpt lat="62.400057" lon="9.458802"><ele>1563</ele></trkpt><trkpt lat="62.399572" lon="9.457922"><ele>1565</ele></trkpt><trkpt lat="62.399102" lon="9.457427"><ele>1569</ele></trkpt><trkpt lat="62.398655" lon="9.457510"><ele>1571</ele></trkpt><trkpt lat="62.398186" lon="9.457015"><ele>1560</ele></trkpt><trkpt lat="62.397716" lon="9.456520"><ele>1559</ele></trkpt><trkpt lat="62.397231" lon="9.455640"><ele>1561</ele></trkpt><trkpt lat="62.396746" lon="9.454760"><ele>1559</ele></trkpt><trkpt lat="62.396260" lon="9.453881"><ele>1554</ele></trkpt><trkpt lat="62.395798" lon="9.453578"><ele>1546</ele></trkpt><trkpt lat="62.395321" lon="9.452891"><ele>1537</ele></trkpt><trkpt lat="62.394836" lon="9.452011"><ele>1531</ele></trkpt><trkpt lat="62.394351" lon="9.451131"><ele>1528</ele></trkpt><trkpt lat="62.393865" lon="9.450252"><ele>1529</ele></trkpt><trkpt lat="62.393380" lon="9.449372"><ele>1526</ele></trkpt><trkpt lat="62.392895" lon="9.448492"><ele>1524</ele></trkpt><trkpt lat="62.392410" lon="9.447613"><ele>1523</ele></trkpt><trkpt lat="62.391925" lon="9.446733"><ele>1523</ele></trkpt><trkpt lat="62.391440" lon="9.445854"><ele>1524</ele></trkpt><trkpt lat="62.390954" lon="9.444974"><ele>1529</ele></trkpt><trkpt lat="62.390469" lon="9.444095"><ele>1536</ele></trkpt><trkpt lat="62.389984" lon="9.443215"><ele>1543</ele></trkpt><trkpt lat="62.389499" lon="9.442336"><ele>1553</ele></trkpt><trkpt lat="62.389013" lon="9.441456"><ele>1564</ele></trkpt><trkpt lat="62.388528" lon="9.440577"><ele>1576</ele></trkpt><trkpt lat="62.388043" lon="9.439697"><ele>1593</ele></trkpt><trkpt lat="62.387558" lon="9.438818"><ele>1607</ele></trkpt><trkpt lat="62.387073" lon="9.437939"><ele>1623</ele></trkpt><trkpt lat="62.386587" lon="9.437059"><ele>1636</ele></trkpt><trkpt lat="62.386102" lon="9.436180"><ele>1649</ele></trkpt><trkpt lat="62.385617" lon="9.435301"><ele>1660</ele></trkpt><trkpt lat="62.385132" lon="9.434422"><ele>1669</ele></trkpt><trkpt lat="62.384646" lon="9.433543"><ele>1673</ele></trkpt><trkpt lat="62.384161" lon="9.432663"><ele>1676</ele></trkpt><trkpt lat="62.383676" lon="9.431784"><ele>1680</ele></trkpt><trkpt lat="62.383191" lon="9.430905"><ele>1683</ele></trkpt><trkpt lat="62.382705" lon="9.430026"><ele>1687</ele></trkpt><trkpt lat="62.382220" lon="9.429147"><ele>1691</ele></trkpt><trkpt lat="62.381735" lon="9.428268"><ele>1695</ele></trkpt><trkpt lat="62.381249" lon="9.427389"><ele>1700</ele></trkpt><trkpt lat="62.380764" lon="9.426510"><ele>1701</ele></trkpt><trkpt lat="62.380279" lon="9.425631"><ele>1700</ele></trkpt><trkpt lat="62.379793" lon="9.424752"><ele>1702</ele></trkpt><trkpt lat="62.379308" lon="9.423873"><ele>1699</ele></trkpt><trkpt lat="62.378823" lon="9.422995"><ele>1687</ele></trkpt><trkpt lat="62.378338" lon="9.422116"><ele>1683</ele></trkpt><trkpt lat="62.377852" lon="9.421237"><ele>1693</ele></trkpt><trkpt lat="62.377367" lon="9.420358"><ele>1703</ele></trkpt><trkpt lat="62.376889" lon="9.419672"><ele>1723</ele></trkpt><trkpt lat="62.376404" lon="9.418793"><ele>1740</ele></trkpt><trkpt lat="62.375919" lon="9.417915"><ele>1761</ele></trkpt><trkpt lat="62.375449" lon="9.417421"><ele>1784</ele></trkpt><trkpt lat="62.374963" lon="9.416542"><ele>1815</ele></trkpt><trkpt lat="62.374478" lon="9.415663"><ele>1841</ele></trkpt><trkpt lat="62.373993" lon="9.414785"><ele>1864</ele></trkpt><trkpt lat="62.373694" lon="9.414065"><ele>1879</ele></trkpt></trkseg></trk><wpt lat="62.373971" lon="9.400834"><ele>1612</ele><name>Run end · Unnamed summit 1879 m</name></wpt><trk><name>Down · Unnamed summit 1879 m</name><desc>fall-line run: 564 m of 20–30°, 218 m drop, aspect 336°, max 31°, 4.1% ≥30°; ends 10.96 km from the car.</desc><trkseg><trkpt lat="62.373694" lon="9.414065"><ele>1879</ele></trkpt><trkpt lat="62.369970" lon="9.404295"><ele>1830</ele></trkpt><trkpt lat="62.370215" lon="9.403668"><ele>1807</ele></trkpt><trkpt lat="62.370281" lon="9.403074"><ele>1790</ele></trkpt><trkpt lat="62.370525" lon="9.402447"><ele>1775</ele></trkpt><trkpt lat="62.370786" lon="9.402205"><ele>1759</ele></trkpt><trkpt lat="62.371054" lon="9.402154"><ele>1749</ele></trkpt><trkpt lat="62.371322" lon="9.402104"><ele>1737</ele></trkpt><trkpt lat="62.371590" lon="9.402054"><ele>1727</ele></trkpt><trkpt lat="62.371858" lon="9.402004"><ele>1716</ele></trkpt><trkpt lat="62.372118" lon="9.401762"><ele>1704</ele></trkpt><trkpt lat="62.372378" lon="9.401519"><ele>1691</ele></trkpt><trkpt lat="62.372631" lon="9.401084"><ele>1675</ele></trkpt><trkpt lat="62.372899" lon="9.401034"><ele>1663</ele></trkpt><trkpt lat="62.373167" lon="9.400984"><ele>1650</ele></trkpt><trkpt lat="62.373435" lon="9.400934"><ele>1637</ele></trkpt><trkpt lat="62.373703" lon="9.400884"><ele>1624</ele></trkpt><trkpt lat="62.373971" lon="9.400834"><ele>1612</ele></trkpt><trkpt lat="62.373971" lon="9.400834"><ele>1612</ele></trkpt></trkseg></trk></gpx>