<?xml version="1.0" encoding="UTF-8"?>
<gpx version="1.1" creator="Rando toppturs" xmlns="http://www.topografix.com/GPX/1/1"><metadata><name>054 Trollhøtta 1380 m</name><desc>Generated 2026-09-13 17:42 from Kartverket 10 m terrain. Ascent lines are least-cost terrain paths under 35°, not verified routes. Not a snow-stability assessment.</desc></metadata><wpt lat="62.707181" lon="9.787875"><ele>748</ele><name>Car · Trollhøtta 1380 m</name></wpt><wpt lat="62.732434" lon="9.736541"><ele>1380</ele><name>Trollhøtta 1380 m</name></wpt><trk><name>Up · Trollhøtta 1380 m</name><desc>least-cost ascent: +657 m over 4093 m, max 30°, 0.0% on 30–35°, ≈2.67 h at 4 km/h + 400 m/h. Terrain possibility, not a checked route.</desc><trkseg><trkpt lat="62.707181" lon="9.787875"><ele>748</ele></trkpt><trkpt lat="62.707614" lon="9.787406"><ele>751</ele></trkpt><trkpt lat="62.708025" lon="9.786354"><ele>760</ele></trkpt><trkpt lat="62.708435" lon="9.785302"><ele>767</ele></trkpt><trkpt lat="62.708846" lon="9.784250"><ele>774</ele></trkpt><trkpt lat="62.709257" lon="9.783197"><ele>782</ele></trkpt><trkpt lat="62.709667" lon="9.782145"><ele>789</ele></trkpt><trkpt lat="62.710078" lon="9.781093"><ele>796</ele></trkpt><trkpt lat="62.710488" lon="9.780040"><ele>801</ele></trkpt><trkpt lat="62.710899" lon="9.778988"><ele>806</ele></trkpt><trkpt lat="62.711310" lon="9.777935"><ele>811</ele></trkpt><trkpt lat="62.711720" lon="9.776883"><ele>818</ele></trkpt><trkpt lat="62.712131" lon="9.775830"><ele>825</ele></trkpt><trkpt lat="62.712542" lon="9.774778"><ele>832</ele></trkpt><trkpt lat="62.712952" lon="9.773725"><ele>842</ele></trkpt><trkpt lat="62.713363" lon="9.772672"><ele>850</ele></trkpt><trkpt lat="62.713773" lon="9.771620"><ele>860</ele></trkpt><trkpt lat="62.714184" lon="9.770567"><ele>870</ele></trkpt><trkpt lat="62.714594" lon="9.769514"><ele>883</ele></trkpt><trkpt lat="62.715034" lon="9.769241"><ele>890</ele></trkpt><trkpt lat="62.715481" lon="9.769161"><ele>896</ele></trkpt><trkpt lat="62.715928" lon="9.769082"><ele>903</ele></trkpt><trkpt lat="62.716375" lon="9.769003"><ele>910</ele></trkpt><trkpt lat="62.716807" lon="9.768534"><ele>921</ele></trkpt><trkpt lat="62.717218" lon="9.767481"><ele>937</ele></trkpt><trkpt lat="62.717628" lon="9.766429"><ele>952</ele></trkpt><trkpt lat="62.718039" lon="9.765376"><ele>966</ele></trkpt><trkpt lat="62.718449" lon="9.764323"><ele>979</ele></trkpt><trkpt lat="62.718860" lon="9.763270"><ele>987</ele></trkpt><trkpt lat="62.719270" lon="9.762217"><ele>992</ele></trkpt><trkpt lat="62.719681" lon="9.761164"><ele>1001</ele></trkpt><trkpt lat="62.720091" lon="9.760111"><ele>1015</ele></trkpt><trkpt lat="62.720502" lon="9.759058"><ele>1030</ele></trkpt><trkpt lat="62.720912" lon="9.758005"><ele>1036</ele></trkpt><trkpt lat="62.721323" lon="9.756952"><ele>1042</ele></trkpt><trkpt lat="62.721733" lon="9.755898"><ele>1050</ele></trkpt><trkpt lat="62.722144" lon="9.754845"><ele>1065</ele></trkpt><trkpt lat="62.722554" lon="9.753792"><ele>1071</ele></trkpt><trkpt lat="62.722964" lon="9.752739"><ele>1075</ele></trkpt><trkpt lat="62.723375" lon="9.751686"><ele>1089</ele></trkpt><trkpt lat="62.723800" lon="9.751022"><ele>1088</ele></trkpt><trkpt lat="62.724210" lon="9.749968"><ele>1086</ele></trkpt><trkpt lat="62.724621" lon="9.748915"><ele>1079</ele></trkpt><trkpt lat="62.725031" lon="9.747862"><ele>1075</ele></trkpt><trkpt lat="62.725441" lon="9.746808"><ele>1073</ele></trkpt><trkpt lat="62.725852" lon="9.745755"><ele>1080</ele></trkpt><trkpt lat="62.726262" lon="9.744701"><ele>1088</ele></trkpt><trkpt lat="62.726673" lon="9.743648"><ele>1100</ele></trkpt><trkpt lat="62.727083" lon="9.742594"><ele>1120</ele></trkpt><trkpt lat="62.727501" lon="9.741736"><ele>1141</ele></trkpt><trkpt lat="62.727940" lon="9.741461"><ele>1158</ele></trkpt><trkpt lat="62.728380" lon="9.741187"><ele>1180</ele></trkpt><trkpt lat="62.728827" lon="9.741107"><ele>1198</ele></trkpt><trkpt lat="62.729266" lon="9.740833"><ele>1218</ele></trkpt><trkpt lat="62.729691" lon="9.740169"><ele>1250</ele></trkpt><trkpt lat="62.730109" lon="9.739310"><ele>1282</ele></trkpt><trkpt lat="62.730541" lon="9.738840"><ele>1305</ele></trkpt><trkpt lat="62.730959" lon="9.737981"><ele>1326</ele></trkpt><trkpt lat="62.731398" lon="9.737707"><ele>1343</ele></trkpt><trkpt lat="62.731830" lon="9.737238"><ele>1363</ele></trkpt><trkpt lat="62.732270" lon="9.736963"><ele>1379</ele></trkpt><trkpt lat="62.732434" lon="9.736541"><ele>1380</ele></trkpt></trkseg></trk><wpt lat="62.729850" lon="9.746807"><ele>1142</ele><name>Run end · Trollhøtta 1380 m</name></wpt><trk><name>Down · Trollhøtta 1380 m</name><desc>fall-line run: 563 m of 20–30°, 222 m drop, aspect 132°, max 30°, 2.7% ≥30°; ends 3.29 km from the car.</desc><trkseg><trkpt lat="62.732434" lon="9.736541"><ele>1380</ele></trkpt><trkpt lat="62.732626" lon="9.739253"><ele>1364</ele></trkpt><trkpt lat="62.732380" lon="9.739885"><ele>1345</ele></trkpt><trkpt lat="62.732134" lon="9.740517"><ele>1327</ele></trkpt><trkpt lat="62.731887" lon="9.741150"><ele>1310</ele></trkpt><trkpt lat="62.731641" lon="9.741782"><ele>1290</ele></trkpt><trkpt lat="62.731395" lon="9.742414"><ele>1273</ele></trkpt><trkpt lat="62.731238" lon="9.743030"><ele>1257</ele></trkpt><trkpt lat="62.731081" lon="9.743647"><ele>1239</ele></trkpt><trkpt lat="62.730835" lon="9.744279"><ele>1220</ele></trkpt><trkpt lat="62.730589" lon="9.744911"><ele>1199</ele></trkpt><trkpt lat="62.730343" lon="9.745543"><ele>1180</ele></trkpt><trkpt lat="62.730096" lon="9.746175"><ele>1159</ele></trkpt><trkpt lat="62.729850" lon="9.746807"><ele>1142</ele></trkpt><trkpt lat="62.729850" lon="9.746807"><ele>1142</ele></trkpt></trkseg></trk></gpx>