<?xml version="1.0" encoding="UTF-8"?>
<gpx version="1.1" creator="Rando toppturs" xmlns="http://www.topografix.com/GPX/1/1"><metadata><name>055 Vanghøa 1277 m</name><desc>This is an automatically generated list. I have not checked them all. Do not attempt these if you're a beginner. Generated 2026-09-13 17:42 from Kartverket 10 m terrain. Ascent lines are least-cost terrain paths under 35°, not verified routes. Not a snow-stability assessment.</desc></metadata><wpt lat="62.543922" lon="8.959379"><ele>739</ele><name>Car · Vanghøa 1277 m</name></wpt><wpt lat="62.533931" lon="8.907796"><ele>1277</ele><name>Vanghøa 1277 m</name></wpt><trk><name>Up · Vanghøa 1277 m</name><desc>least-cost ascent: +552 m over 3209 m, max 27°, 0.0% on 30–35°, ≈2.18 h at 4 km/h + 400 m/h. Terrain possibility, not a checked route.</desc><trkseg><trkpt lat="62.543922" lon="8.959379"><ele>739</ele></trkpt><trkpt lat="62.543880" lon="8.958413"><ele>737</ele></trkpt><trkpt lat="62.543838" lon="8.957446"><ele>735</ele></trkpt><trkpt lat="62.543796" lon="8.956479"><ele>736</ele></trkpt><trkpt lat="62.543754" lon="8.955513"><ele>737</ele></trkpt><trkpt lat="62.543713" lon="8.954546"><ele>736</ele></trkpt><trkpt lat="62.543671" lon="8.953580"><ele>735</ele></trkpt><trkpt lat="62.543629" lon="8.952613"><ele>735</ele></trkpt><trkpt lat="62.543587" lon="8.951647"><ele>735</ele></trkpt><trkpt lat="62.543545" lon="8.950680"><ele>735</ele></trkpt><trkpt lat="62.543503" lon="8.949713"><ele>737</ele></trkpt><trkpt lat="62.543461" lon="8.948747"><ele>737</ele></trkpt><trkpt lat="62.543419" lon="8.947780"><ele>737</ele></trkpt><trkpt lat="62.543377" lon="8.946814"><ele>738</ele></trkpt><trkpt lat="62.543335" lon="8.945847"><ele>744</ele></trkpt><trkpt lat="62.543293" lon="8.944881"><ele>754</ele></trkpt><trkpt lat="62.543251" lon="8.943914"><ele>760</ele></trkpt><trkpt lat="62.543566" lon="8.942875"><ele>772</ele></trkpt><trkpt lat="62.543524" lon="8.941908"><ele>788</ele></trkpt><trkpt lat="62.543482" lon="8.940942"><ele>799</ele></trkpt><trkpt lat="62.543440" lon="8.939975"><ele>808</ele></trkpt><trkpt lat="62.543308" lon="8.939027"><ele>823</ele></trkpt><trkpt lat="62.543266" lon="8.938060"><ele>837</ele></trkpt><trkpt lat="62.543224" lon="8.937094"><ele>846</ele></trkpt><trkpt lat="62.543182" lon="8.936127"><ele>858</ele></trkpt><trkpt lat="62.543140" lon="8.935161"><ele>870</ele></trkpt><trkpt lat="62.543009" lon="8.934212"><ele>882</ele></trkpt><trkpt lat="62.542877" lon="8.933264"><ele>898</ele></trkpt><trkpt lat="62.542746" lon="8.932316"><ele>914</ele></trkpt><trkpt lat="62.542704" lon="8.931349"><ele>931</ele></trkpt><trkpt lat="62.542662" lon="8.930383"><ele>947</ele></trkpt><trkpt lat="62.542620" lon="8.929416"><ele>959</ele></trkpt><trkpt lat="62.542578" lon="8.928450"><ele>972</ele></trkpt><trkpt lat="62.542536" lon="8.927483"><ele>989</ele></trkpt><trkpt lat="62.542493" lon="8.926517"><ele>1002</ele></trkpt><trkpt lat="62.542451" lon="8.925551"><ele>1017</ele></trkpt><trkpt lat="62.542409" lon="8.924584"><ele>1030</ele></trkpt><trkpt lat="62.542367" lon="8.923618"><ele>1040</ele></trkpt><trkpt lat="62.541879" lon="8.922742"><ele>1048</ele></trkpt><trkpt lat="62.541479" lon="8.921849"><ele>1061</ele></trkpt><trkpt lat="62.541080" lon="8.920956"><ele>1078</ele></trkpt><trkpt lat="62.540592" lon="8.920081"><ele>1101</ele></trkpt><trkpt lat="62.540103" lon="8.919206"><ele>1121</ele></trkpt><trkpt lat="62.539615" lon="8.918330"><ele>1134</ele></trkpt><trkpt lat="62.539126" lon="8.917455"><ele>1142</ele></trkpt><trkpt lat="62.538638" lon="8.916581"><ele>1154</ele></trkpt><trkpt lat="62.538149" lon="8.915706"><ele>1168</ele></trkpt><trkpt lat="62.537839" lon="8.914794"><ele>1172</ele></trkpt><trkpt lat="62.537351" lon="8.913919"><ele>1181</ele></trkpt><trkpt lat="62.536862" lon="8.913044"><ele>1200</ele></trkpt><trkpt lat="62.536374" lon="8.912170"><ele>1217</ele></trkpt><trkpt lat="62.535885" lon="8.911295"><ele>1232</ele></trkpt><trkpt lat="62.535397" lon="8.910420"><ele>1247</ele></trkpt><trkpt lat="62.534908" lon="8.909545"><ele>1264</ele></trkpt><trkpt lat="62.534420" lon="8.908670"><ele>1273</ele></trkpt><trkpt lat="62.533931" lon="8.907796"><ele>1277</ele></trkpt><trkpt lat="62.533931" lon="8.907796"><ele>1277</ele></trkpt></trkseg></trk><wpt lat="62.544691" lon="8.935624"><ele>820</ele><name>Run end · Vanghøa 1277 m</name></wpt><trk><name>Down · Vanghøa 1277 m</name><desc>fall-line run: 554 m of 20–30°, 409 m drop, aspect 44°, max 29°, 0.0% ≥30°; ends 1.23 km from the car.</desc><trkseg><trkpt lat="62.533931" lon="8.907796"><ele>1277</ele></trkpt><trkpt lat="62.535755" lon="8.920680"><ele>1229</ele></trkpt><trkpt lat="62.536023" lon="8.920626"><ele>1215</ele></trkpt><trkpt lat="62.536291" lon="8.920571"><ele>1203</ele></trkpt><trkpt lat="62.536575" lon="8.920902"><ele>1199</ele></trkpt><trkpt lat="62.536843" lon="8.920848"><ele>1193</ele></trkpt><trkpt lat="62.537119" lon="8.920986"><ele>1189</ele></trkpt><trkpt lat="62.537404" lon="8.921318"><ele>1185</ele></trkpt><trkpt lat="62.537672" lon="8.921263"><ele>1182</ele></trkpt><trkpt lat="62.537948" lon="8.921402"><ele>1171</ele></trkpt><trkpt lat="62.538216" lon="8.921347"><ele>1158</ele></trkpt><trkpt lat="62.538500" lon="8.921679"><ele>1149</ele></trkpt><trkpt lat="62.538776" lon="8.921817"><ele>1140</ele></trkpt><trkpt lat="62.539044" lon="8.921762"><ele>1134</ele></trkpt><trkpt lat="62.539312" lon="8.921707"><ele>1131</ele></trkpt><trkpt lat="62.539588" lon="8.921846"><ele>1129</ele></trkpt><trkpt lat="62.539864" lon="8.921984"><ele>1125</ele></trkpt><trkpt lat="62.539979" lon="8.922546"><ele>1123</ele></trkpt><trkpt lat="62.540183" lon="8.923089"><ele>1119</ele></trkpt><trkpt lat="62.540450" lon="8.923035"><ele>1107</ele></trkpt><trkpt lat="62.540718" lon="8.922980"><ele>1094</ele></trkpt><trkpt lat="62.540986" lon="8.922925"><ele>1085</ele></trkpt><trkpt lat="62.541254" lon="8.922870"><ele>1071</ele></trkpt><trkpt lat="62.541522" lon="8.922815"><ele>1057</ele></trkpt><trkpt lat="62.541815" lon="8.923341"><ele>1043</ele></trkpt><trkpt lat="62.542018" lon="8.923884"><ele>1035</ele></trkpt><trkpt lat="62.542133" lon="8.924446"><ele>1032</ele></trkpt><trkpt lat="62.542247" lon="8.925007"><ele>1027</ele></trkpt><trkpt lat="62.542362" lon="8.925569"><ele>1018</ele></trkpt><trkpt lat="62.542477" lon="8.926130"><ele>1009</ele></trkpt><trkpt lat="62.542502" lon="8.926710"><ele>999</ele></trkpt><trkpt lat="62.542706" lon="8.927254"><ele>991</ele></trkpt><trkpt lat="62.542731" lon="8.927834"><ele>979</ele></trkpt><trkpt lat="62.542756" lon="8.928413"><ele>971</ele></trkpt><trkpt lat="62.542960" lon="8.928957"><ele>959</ele></trkpt><trkpt lat="62.543245" lon="8.929289"><ele>941</ele></trkpt><trkpt lat="62.543538" lon="8.929814"><ele>925</ele></trkpt><trkpt lat="62.543652" lon="8.930376"><ele>914</ele></trkpt><trkpt lat="62.543677" lon="8.930956"><ele>905</ele></trkpt><trkpt lat="62.543792" lon="8.931517"><ele>896</ele></trkpt><trkpt lat="62.543817" lon="8.932097"><ele>886</ele></trkpt><trkpt lat="62.544021" lon="8.932641"><ele>877</ele></trkpt><trkpt lat="62.544135" lon="8.933202"><ele>869</ele></trkpt><trkpt lat="62.544339" lon="8.933746"><ele>859</ele></trkpt><trkpt lat="62.544364" lon="8.934326"><ele>847</ele></trkpt><trkpt lat="62.544479" lon="8.934887"><ele>835</ele></trkpt><trkpt lat="62.544593" lon="8.935449"><ele>824</ele></trkpt><trkpt lat="62.544691" lon="8.935624"><ele>820</ele></trkpt></trkseg></trk></gpx>