<?xml version="1.0" encoding="UTF-8"?>
<gpx version="1.1" creator="Rando toppturs" xmlns="http://www.topografix.com/GPX/1/1"><metadata><name>057 Digerhøa 1246 m</name><desc>This is an automatically generated list. I have not checked them all. Do not attempt these if you're a beginner. Generated 2026-09-13 17:42 from Kartverket 10 m terrain. Ascent lines are least-cost terrain paths under 35°, not verified routes. Not a snow-stability assessment.</desc></metadata><wpt lat="62.769221" lon="9.714650"><ele>746</ele><name>Car · Digerhøa 1246 m</name></wpt><wpt lat="62.767765" lon="9.788738"><ele>1246</ele><name>Digerhøa 1246 m</name></wpt><trk><name>Up · Digerhøa 1246 m</name><desc>least-cost ascent: +597 m over 4130 m, max 28°, 0.0% on 30–35°, ≈2.53 h at 4 km/h + 400 m/h. Terrain possibility, not a checked route.</desc><trkseg><trkpt lat="62.769221" lon="9.714650"><ele>746</ele></trkpt><trkpt lat="62.769258" lon="9.715625"><ele>748</ele></trkpt><trkpt lat="62.769295" lon="9.716600"><ele>751</ele></trkpt><trkpt lat="62.769331" lon="9.717576"><ele>752</ele></trkpt><trkpt lat="62.769368" lon="9.718551"><ele>748</ele></trkpt><trkpt lat="62.769405" lon="9.719526"><ele>754</ele></trkpt><trkpt lat="62.769442" lon="9.720501"><ele>763</ele></trkpt><trkpt lat="62.769836" lon="9.721412"><ele>771</ele></trkpt><trkpt lat="62.769962" lon="9.722372"><ele>779</ele></trkpt><trkpt lat="62.769999" lon="9.723347"><ele>789</ele></trkpt><trkpt lat="62.769767" lon="9.724370"><ele>800</ele></trkpt><trkpt lat="62.769804" lon="9.725346"><ele>814</ele></trkpt><trkpt lat="62.769840" lon="9.726321"><ele>826</ele></trkpt><trkpt lat="62.769877" lon="9.727296"><ele>833</ele></trkpt><trkpt lat="62.769914" lon="9.728271"><ele>841</ele></trkpt><trkpt lat="62.769950" lon="9.729247"><ele>853</ele></trkpt><trkpt lat="62.769987" lon="9.730222"><ele>864</ele></trkpt><trkpt lat="62.770024" lon="9.731197"><ele>880</ele></trkpt><trkpt lat="62.770060" lon="9.732172"><ele>895</ele></trkpt><trkpt lat="62.770097" lon="9.733148"><ele>910</ele></trkpt><trkpt lat="62.769955" lon="9.734155"><ele>918</ele></trkpt><trkpt lat="62.769992" lon="9.735130"><ele>912</ele></trkpt><trkpt lat="62.770028" lon="9.736106"><ele>907</ele></trkpt><trkpt lat="62.770065" lon="9.737081"><ele>912</ele></trkpt><trkpt lat="62.769923" lon="9.738088"><ele>929</ele></trkpt><trkpt lat="62.769959" lon="9.739063"><ele>944</ele></trkpt><trkpt lat="62.769996" lon="9.740039"><ele>957</ele></trkpt><trkpt lat="62.769943" lon="9.741030"><ele>964</ele></trkpt><trkpt lat="62.769890" lon="9.742021"><ele>981</ele></trkpt><trkpt lat="62.770105" lon="9.742965"><ele>1002</ele></trkpt><trkpt lat="62.770142" lon="9.743940"><ele>1009</ele></trkpt><trkpt lat="62.770179" lon="9.744915"><ele>1025</ele></trkpt><trkpt lat="62.770215" lon="9.745890"><ele>1034</ele></trkpt><trkpt lat="62.770252" lon="9.746866"><ele>1035</ele></trkpt><trkpt lat="62.770288" lon="9.747841"><ele>1033</ele></trkpt><trkpt lat="62.770325" lon="9.748816"><ele>1033</ele></trkpt><trkpt lat="62.770361" lon="9.749792"><ele>1032</ele></trkpt><trkpt lat="62.770219" lon="9.750799"><ele>1028</ele></trkpt><trkpt lat="62.770256" lon="9.751774"><ele>1040</ele></trkpt><trkpt lat="62.770292" lon="9.752750"><ele>1051</ele></trkpt><trkpt lat="62.770329" lon="9.753725"><ele>1052</ele></trkpt><trkpt lat="62.770007" lon="9.754764"><ele>1070</ele></trkpt><trkpt lat="62.769776" lon="9.755787"><ele>1083</ele></trkpt><trkpt lat="62.769812" lon="9.756762"><ele>1087</ele></trkpt><trkpt lat="62.769849" lon="9.757738"><ele>1086</ele></trkpt><trkpt lat="62.769706" lon="9.758745"><ele>1076</ele></trkpt><trkpt lat="62.769296" lon="9.759800"><ele>1065</ele></trkpt><trkpt lat="62.768886" lon="9.760854"><ele>1052</ele></trkpt><trkpt lat="62.768475" lon="9.761909"><ele>1049</ele></trkpt><trkpt lat="62.768333" lon="9.762916"><ele>1049</ele></trkpt><trkpt lat="62.768190" lon="9.763923"><ele>1043</ele></trkpt><trkpt lat="62.768227" lon="9.764899"><ele>1040</ele></trkpt><trkpt lat="62.768263" lon="9.765874"><ele>1040</ele></trkpt><trkpt lat="62.768300" lon="9.766849"><ele>1037</ele></trkpt><trkpt lat="62.768336" lon="9.767824"><ele>1035</ele></trkpt><trkpt lat="62.768372" lon="9.768800"><ele>1036</ele></trkpt><trkpt lat="62.768409" lon="9.769775"><ele>1037</ele></trkpt><trkpt lat="62.768445" lon="9.770750"><ele>1036</ele></trkpt><trkpt lat="62.768481" lon="9.771726"><ele>1036</ele></trkpt><trkpt lat="62.768518" lon="9.772701"><ele>1042</ele></trkpt><trkpt lat="62.768554" lon="9.773676"><ele>1039</ele></trkpt><trkpt lat="62.768591" lon="9.774652"><ele>1039</ele></trkpt><trkpt lat="62.768627" lon="9.775627"><ele>1041</ele></trkpt><trkpt lat="62.768663" lon="9.776602"><ele>1046</ele></trkpt><trkpt lat="62.768700" lon="9.777577"><ele>1058</ele></trkpt><trkpt lat="62.768378" lon="9.778616"><ele>1072</ele></trkpt><trkpt lat="62.767968" lon="9.779671"><ele>1088</ele></trkpt><trkpt lat="62.767825" lon="9.780678"><ele>1109</ele></trkpt><trkpt lat="62.767862" lon="9.781653"><ele>1125</ele></trkpt><trkpt lat="62.768166" lon="9.782581"><ele>1144</ele></trkpt><trkpt lat="62.768024" lon="9.783588"><ele>1164</ele></trkpt><trkpt lat="62.768060" lon="9.784563"><ele>1181</ele></trkpt><trkpt lat="62.768096" lon="9.785538"><ele>1190</ele></trkpt><trkpt lat="62.768132" lon="9.786514"><ele>1200</ele></trkpt><trkpt lat="62.768169" lon="9.787489"><ele>1221</ele></trkpt><trkpt lat="62.767937" lon="9.788512"><ele>1240</ele></trkpt><trkpt lat="62.767765" lon="9.788738"><ele>1246</ele></trkpt></trkseg></trk><wpt lat="62.758198" lon="9.785524"><ele>965</ele><name>Run end · Digerhøa 1246 m</name></wpt><trk><name>Down · Digerhøa 1246 m</name><desc>fall-line run: 542 m of 20–30°, 242 m drop, aspect 189°, max 30°, 0.0% ≥30°; ends 3.82 km from the car.</desc><trkseg><trkpt lat="62.767765" lon="9.788738"><ele>1246</ele></trkpt><trkpt lat="62.762994" lon="9.786245"><ele>1207</ele></trkpt><trkpt lat="62.762883" lon="9.785676"><ele>1193</ele></trkpt><trkpt lat="62.762772" lon="9.785107"><ele>1181</ele></trkpt><trkpt lat="62.762489" lon="9.784764"><ele>1167</ele></trkpt><trkpt lat="62.762206" lon="9.784422"><ele>1155</ele></trkpt><trkpt lat="62.761931" lon="9.784274"><ele>1138</ele></trkpt><trkpt lat="62.761670" lon="9.784517"><ele>1123</ele></trkpt><trkpt lat="62.761409" lon="9.784759"><ele>1112</ele></trkpt><trkpt lat="62.761148" lon="9.785002"><ele>1103</ele></trkpt><trkpt lat="62.760880" lon="9.785049"><ele>1092</ele></trkpt><trkpt lat="62.760612" lon="9.785097"><ele>1079</ele></trkpt><trkpt lat="62.760344" lon="9.785144"><ele>1065</ele></trkpt><trkpt lat="62.760076" lon="9.785192"><ele>1050</ele></trkpt><trkpt lat="62.759807" lon="9.785239"><ele>1033</ele></trkpt><trkpt lat="62.759539" lon="9.785286"><ele>1016</ele></trkpt><trkpt lat="62.759271" lon="9.785334"><ele>1004</ele></trkpt><trkpt lat="62.759003" lon="9.785381"><ele>998</ele></trkpt><trkpt lat="62.758735" lon="9.785429"><ele>989</ele></trkpt><trkpt lat="62.758467" lon="9.785476"><ele>978</ele></trkpt><trkpt lat="62.758198" lon="9.785524"><ele>965</ele></trkpt><trkpt lat="62.758198" lon="9.785524"><ele>965</ele></trkpt></trkseg></trk></gpx>