<?xml version="1.0" encoding="UTF-8"?>
<gpx version="1.1" creator="Rando toppturs" xmlns="http://www.topografix.com/GPX/1/1"><metadata><name>058 Kaldvellegga 1628 m</name><desc>This is an automatically generated list. I have not checked them all. Do not attempt these if you're a beginner. Generated 2026-09-13 17:42 from Kartverket 10 m terrain. Ascent lines are least-cost terrain paths under 35°, not verified routes. Not a snow-stability assessment.</desc></metadata><wpt lat="62.307054" lon="9.606304"><ele>885</ele><name>Car · Kaldvellegga 1628 m</name></wpt><wpt lat="62.346067" lon="9.508867"><ele>1627</ele><name>Kaldvellegga 1628 m</name></wpt><trk><name>Up · Kaldvellegga 1628 m</name><desc>least-cost ascent: +981 m over 7262 m, max 32°, 0.2% on 30–35°, ≈4.27 h at 4 km/h + 400 m/h. Terrain possibility, not a checked route.</desc><trkseg><trkpt lat="62.307054" lon="9.606304"><ele>885</ele></trkpt><trkpt lat="62.307016" lon="9.605344"><ele>886</ele></trkpt><trkpt lat="62.306979" lon="9.604384"><ele>896</ele></trkpt><trkpt lat="62.306942" lon="9.603423"><ele>912</ele></trkpt><trkpt lat="62.306904" lon="9.602463"><ele>921</ele></trkpt><trkpt lat="62.306867" lon="9.601503"><ele>937</ele></trkpt><trkpt lat="62.306830" lon="9.600543"><ele>950</ele></trkpt><trkpt lat="62.306792" lon="9.599583"><ele>965</ele></trkpt><trkpt lat="62.306755" lon="9.598623"><ele>983</ele></trkpt><trkpt lat="62.306985" lon="9.597615"><ele>1015</ele></trkpt><trkpt lat="62.307395" lon="9.596575"><ele>1026</ele></trkpt><trkpt lat="62.307804" lon="9.595534"><ele>1048</ele></trkpt><trkpt lat="62.308214" lon="9.594494"><ele>1063</ele></trkpt><trkpt lat="62.308623" lon="9.593453"><ele>1078</ele></trkpt><trkpt lat="62.309032" lon="9.592412"><ele>1093</ele></trkpt><trkpt lat="62.309442" lon="9.591372"><ele>1108</ele></trkpt><trkpt lat="62.309851" lon="9.590331"><ele>1121</ele></trkpt><trkpt lat="62.310260" lon="9.589291"><ele>1138</ele></trkpt><trkpt lat="62.310670" lon="9.588250"><ele>1147</ele></trkpt><trkpt lat="62.311079" lon="9.587209"><ele>1149</ele></trkpt><trkpt lat="62.311399" lon="9.586185"><ele>1154</ele></trkpt><trkpt lat="62.311808" lon="9.585144"><ele>1159</ele></trkpt><trkpt lat="62.312218" lon="9.584103"><ele>1163</ele></trkpt><trkpt lat="62.312627" lon="9.583062"><ele>1166</ele></trkpt><trkpt lat="62.313036" lon="9.582021"><ele>1164</ele></trkpt><trkpt lat="62.313445" lon="9.580981"><ele>1162</ele></trkpt><trkpt lat="62.313855" lon="9.579940"><ele>1162</ele></trkpt><trkpt lat="62.314264" lon="9.578899"><ele>1161</ele></trkpt><trkpt lat="62.314673" lon="9.577858"><ele>1156</ele></trkpt><trkpt lat="62.315082" lon="9.576817"><ele>1154</ele></trkpt><trkpt lat="62.315492" lon="9.575776"><ele>1153</ele></trkpt><trkpt lat="62.315901" lon="9.574735"><ele>1153</ele></trkpt><trkpt lat="62.316310" lon="9.573694"><ele>1148</ele></trkpt><trkpt lat="62.316719" lon="9.572653"><ele>1136</ele></trkpt><trkpt lat="62.317128" lon="9.571611"><ele>1128</ele></trkpt><trkpt lat="62.317538" lon="9.570570"><ele>1130</ele></trkpt><trkpt lat="62.317947" lon="9.569529"><ele>1135</ele></trkpt><trkpt lat="62.318356" lon="9.568488"><ele>1143</ele></trkpt><trkpt lat="62.318765" lon="9.567447"><ele>1144</ele></trkpt><trkpt lat="62.319174" lon="9.566405"><ele>1152</ele></trkpt><trkpt lat="62.319584" lon="9.565364"><ele>1165</ele></trkpt><trkpt lat="62.319903" lon="9.564339"><ele>1182</ele></trkpt><trkpt lat="62.320223" lon="9.563314"><ele>1199</ele></trkpt><trkpt lat="62.320364" lon="9.562321"><ele>1219</ele></trkpt><trkpt lat="62.320773" lon="9.561280"><ele>1242</ele></trkpt><trkpt lat="62.321182" lon="9.560238"><ele>1269</ele></trkpt><trkpt lat="62.321591" lon="9.559197"><ele>1291</ele></trkpt><trkpt lat="62.322001" lon="9.558155"><ele>1311</ele></trkpt><trkpt lat="62.322410" lon="9.557114"><ele>1322</ele></trkpt><trkpt lat="62.322819" lon="9.556072"><ele>1334</ele></trkpt><trkpt lat="62.323228" lon="9.555031"><ele>1351</ele></trkpt><trkpt lat="62.323637" lon="9.553989"><ele>1355</ele></trkpt><trkpt lat="62.324046" lon="9.552947"><ele>1360</ele></trkpt><trkpt lat="62.324455" lon="9.551906"><ele>1361</ele></trkpt><trkpt lat="62.324864" lon="9.550864"><ele>1362</ele></trkpt><trkpt lat="62.325273" lon="9.549822"><ele>1363</ele></trkpt><trkpt lat="62.325682" lon="9.548781"><ele>1366</ele></trkpt><trkpt lat="62.326091" lon="9.547739"><ele>1369</ele></trkpt><trkpt lat="62.326500" lon="9.546697"><ele>1372</ele></trkpt><trkpt lat="62.326909" lon="9.545655"><ele>1374</ele></trkpt><trkpt lat="62.327318" lon="9.544614"><ele>1375</ele></trkpt><trkpt lat="62.327727" lon="9.543572"><ele>1378</ele></trkpt><trkpt lat="62.328136" lon="9.542530"><ele>1388</ele></trkpt><trkpt lat="62.328545" lon="9.541488"><ele>1397</ele></trkpt><trkpt lat="62.328954" lon="9.540446"><ele>1404</ele></trkpt><trkpt lat="62.329363" lon="9.539404"><ele>1406</ele></trkpt><trkpt lat="62.329772" lon="9.538362"><ele>1407</ele></trkpt><trkpt lat="62.330181" lon="9.537320"><ele>1412</ele></trkpt><trkpt lat="62.330590" lon="9.536278"><ele>1420</ele></trkpt><trkpt lat="62.330999" lon="9.535236"><ele>1422</ele></trkpt><trkpt lat="62.331408" lon="9.534194"><ele>1420</ele></trkpt><trkpt lat="62.331816" lon="9.533151"><ele>1419</ele></trkpt><trkpt lat="62.332225" lon="9.532109"><ele>1417</ele></trkpt><trkpt lat="62.332634" lon="9.531067"><ele>1411</ele></trkpt><trkpt lat="62.333043" lon="9.530025"><ele>1403</ele></trkpt><trkpt lat="62.333452" lon="9.528982"><ele>1392</ele></trkpt><trkpt lat="62.333861" lon="9.527940"><ele>1384</ele></trkpt><trkpt lat="62.334270" lon="9.526898"><ele>1371</ele></trkpt><trkpt lat="62.334679" lon="9.525856"><ele>1355</ele></trkpt><trkpt lat="62.335087" lon="9.524813"><ele>1333</ele></trkpt><trkpt lat="62.335407" lon="9.523787"><ele>1311</ele></trkpt><trkpt lat="62.335816" lon="9.522745"><ele>1291</ele></trkpt><trkpt lat="62.336232" lon="9.521894"><ele>1269</ele></trkpt><trkpt lat="62.336671" lon="9.521621"><ele>1249</ele></trkpt><trkpt lat="62.337118" lon="9.521539"><ele>1235</ele></trkpt><trkpt lat="62.337527" lon="9.520496"><ele>1228</ele></trkpt><trkpt lat="62.337936" lon="9.519454"><ele>1230</ele></trkpt><trkpt lat="62.338344" lon="9.518411"><ele>1232</ele></trkpt><trkpt lat="62.338753" lon="9.517369"><ele>1235</ele></trkpt><trkpt lat="62.339162" lon="9.516326"><ele>1248</ele></trkpt><trkpt lat="62.339571" lon="9.515283"><ele>1271</ele></trkpt><trkpt lat="62.340010" lon="9.515009"><ele>1288</ele></trkpt><trkpt lat="62.340434" lon="9.514351"><ele>1314</ele></trkpt><trkpt lat="62.340858" lon="9.513693"><ele>1334</ele></trkpt><trkpt lat="62.341274" lon="9.512842"><ele>1361</ele></trkpt><trkpt lat="62.341721" lon="9.512760"><ele>1381</ele></trkpt><trkpt lat="62.342168" lon="9.512679"><ele>1401</ele></trkpt><trkpt lat="62.342630" lon="9.512981"><ele>1423</ele></trkpt><trkpt lat="62.343107" lon="9.513668"><ele>1444</ele></trkpt><trkpt lat="62.343576" lon="9.514163"><ele>1470</ele></trkpt><trkpt lat="62.344038" lon="9.514466"><ele>1493</ele></trkpt><trkpt lat="62.344455" lon="9.513615"><ele>1528</ele></trkpt><trkpt lat="62.344863" lon="9.512572"><ele>1557</ele></trkpt><trkpt lat="62.345272" lon="9.511530"><ele>1585</ele></trkpt><trkpt lat="62.345413" lon="9.510536"><ele>1600</ele></trkpt><trkpt lat="62.345821" lon="9.509493"><ele>1618</ele></trkpt><trkpt lat="62.346067" lon="9.508867"><ele>1627</ele></trkpt></trkseg></trk><wpt lat="62.350197" lon="9.524570"><ele>1319</ele><name>Run end · Kaldvellegga 1628 m</name></wpt><trk><name>Down · Kaldvellegga 1628 m</name><desc>fall-line run: 540 m of 20–30°, 242 m drop, aspect 106°, max 30°, 1.9% ≥30°; ends 6.41 km from the car.</desc><trkseg><trkpt lat="62.346067" lon="9.508867"><ele>1627</ele></trkpt><trkpt lat="62.350688" lon="9.514217"><ele>1561</ele></trkpt><trkpt lat="62.350711" lon="9.514794"><ele>1547</ele></trkpt><trkpt lat="62.350734" lon="9.515371"><ele>1533</ele></trkpt><trkpt lat="62.350756" lon="9.515947"><ele>1519</ele></trkpt><trkpt lat="62.350779" lon="9.516524"><ele>1504</ele></trkpt><trkpt lat="62.350802" lon="9.517101"><ele>1491</ele></trkpt><trkpt lat="62.350736" lon="9.517694"><ele>1473</ele></trkpt><trkpt lat="62.350580" lon="9.518304"><ele>1456</ele></trkpt><trkpt lat="62.350602" lon="9.518880"><ele>1442</ele></trkpt><trkpt lat="62.350446" lon="9.519490"><ele>1426</ele></trkpt><trkpt lat="62.350291" lon="9.520099"><ele>1411</ele></trkpt><trkpt lat="62.350224" lon="9.520692"><ele>1397</ele></trkpt><trkpt lat="62.350247" lon="9.521269"><ele>1383</ele></trkpt><trkpt lat="62.350270" lon="9.521846"><ele>1372</ele></trkpt><trkpt lat="62.350114" lon="9.522455"><ele>1361</ele></trkpt><trkpt lat="62.350136" lon="9.523032"><ele>1353</ele></trkpt><trkpt lat="62.350159" lon="9.523609"><ele>1342</ele></trkpt><trkpt lat="62.350182" lon="9.524186"><ele>1328</ele></trkpt><trkpt lat="62.350197" lon="9.524570"><ele>1319</ele></trkpt></trkseg></trk></gpx>