<?xml version="1.0" encoding="UTF-8"?>
<gpx version="1.1" creator="Rando toppturs" xmlns="http://www.topografix.com/GPX/1/1"><metadata><name>059 Storbekkhøa 1502 m</name><desc>This is an automatically generated list. I have not checked them all. Do not attempt these if you're a beginner. Generated 2026-09-13 17:42 from Kartverket 10 m terrain. Ascent lines are least-cost terrain paths under 35°, not verified routes. Not a snow-stability assessment.</desc></metadata><wpt lat="62.697607" lon="9.072413"><ele>688</ele><name>Car · Storbekkhøa 1502 m</name></wpt><wpt lat="62.730267" lon="9.080366"><ele>1502</ele><name>Storbekkhøa 1502 m</name></wpt><trk><name>Up · Storbekkhøa 1502 m</name><desc>least-cost ascent: +839 m over 4048 m, max 34°, 1.1% on 30–35°, ≈3.11 h at 4 km/h + 400 m/h. Terrain possibility, not a checked route.</desc><trkseg><trkpt lat="62.697607" lon="9.072413"><ele>688</ele></trkpt><trkpt lat="62.698053" lon="9.072323"><ele>694</ele></trkpt><trkpt lat="62.698500" lon="9.072233"><ele>698</ele></trkpt><trkpt lat="62.698946" lon="9.072144"><ele>701</ele></trkpt><trkpt lat="62.699392" lon="9.072054"><ele>704</ele></trkpt><trkpt lat="62.699839" lon="9.071964"><ele>711</ele></trkpt><trkpt lat="62.700285" lon="9.071875"><ele>717</ele></trkpt><trkpt lat="62.700732" lon="9.071785"><ele>716</ele></trkpt><trkpt lat="62.701203" lon="9.072278"><ele>726</ele></trkpt><trkpt lat="62.701690" lon="9.073161"><ele>739</ele></trkpt><trkpt lat="62.702178" lon="9.074043"><ele>758</ele></trkpt><trkpt lat="62.702665" lon="9.074925"><ele>778</ele></trkpt><trkpt lat="62.703153" lon="9.075808"><ele>800</ele></trkpt><trkpt lat="62.703608" lon="9.075912"><ele>818</ele></trkpt><trkpt lat="62.704054" lon="9.075823"><ele>833</ele></trkpt><trkpt lat="62.704500" lon="9.075733"><ele>847</ele></trkpt><trkpt lat="62.704947" lon="9.075643"><ele>861</ele></trkpt><trkpt lat="62.705393" lon="9.075554"><ele>873</ele></trkpt><trkpt lat="62.705839" lon="9.075464"><ele>891</ele></trkpt><trkpt lat="62.706294" lon="9.075569"><ele>902</ele></trkpt><trkpt lat="62.706749" lon="9.075674"><ele>923</ele></trkpt><trkpt lat="62.707195" lon="9.075584"><ele>939</ele></trkpt><trkpt lat="62.707683" lon="9.076467"><ele>976</ele></trkpt><trkpt lat="62.708081" lon="9.077367"><ele>996</ele></trkpt><trkpt lat="62.708568" lon="9.078250"><ele>1014</ele></trkpt><trkpt lat="62.709023" lon="9.078354"><ele>1038</ele></trkpt><trkpt lat="62.709469" lon="9.078265"><ele>1054</ele></trkpt><trkpt lat="62.709916" lon="9.078175"><ele>1061</ele></trkpt><trkpt lat="62.710387" lon="9.078669"><ele>1077</ele></trkpt><trkpt lat="62.710833" lon="9.078579"><ele>1088</ele></trkpt><trkpt lat="62.711296" lon="9.078878"><ele>1101</ele></trkpt><trkpt lat="62.711743" lon="9.078789"><ele>1118</ele></trkpt><trkpt lat="62.712197" lon="9.078894"><ele>1132</ele></trkpt><trkpt lat="62.712644" lon="9.078804"><ele>1139</ele></trkpt><trkpt lat="62.713090" lon="9.078714"><ele>1142</ele></trkpt><trkpt lat="62.713536" lon="9.078625"><ele>1148</ele></trkpt><trkpt lat="62.713983" lon="9.078535"><ele>1155</ele></trkpt><trkpt lat="62.714429" lon="9.078446"><ele>1161</ele></trkpt><trkpt lat="62.714875" lon="9.078356"><ele>1169</ele></trkpt><trkpt lat="62.715322" lon="9.078266"><ele>1177</ele></trkpt><trkpt lat="62.715768" lon="9.078177"><ele>1182</ele></trkpt><trkpt lat="62.716215" lon="9.078087"><ele>1180</ele></trkpt><trkpt lat="62.716661" lon="9.077997"><ele>1174</ele></trkpt><trkpt lat="62.717107" lon="9.077908"><ele>1174</ele></trkpt><trkpt lat="62.717554" lon="9.077818"><ele>1174</ele></trkpt><trkpt lat="62.718000" lon="9.077728"><ele>1173</ele></trkpt><trkpt lat="62.718447" lon="9.077639"><ele>1178</ele></trkpt><trkpt lat="62.718926" lon="9.078327"><ele>1189</ele></trkpt><trkpt lat="62.719389" lon="9.078626"><ele>1207</ele></trkpt><trkpt lat="62.719835" lon="9.078537"><ele>1214</ele></trkpt><trkpt lat="62.720281" lon="9.078447"><ele>1212</ele></trkpt><trkpt lat="62.720728" lon="9.078358"><ele>1204</ele></trkpt><trkpt lat="62.721174" lon="9.078268"><ele>1202</ele></trkpt><trkpt lat="62.721621" lon="9.078178"><ele>1202</ele></trkpt><trkpt lat="62.722067" lon="9.078089"><ele>1207</ele></trkpt><trkpt lat="62.722513" lon="9.077999"><ele>1218</ele></trkpt><trkpt lat="62.722960" lon="9.077909"><ele>1225</ele></trkpt><trkpt lat="62.723406" lon="9.077820"><ele>1232</ele></trkpt><trkpt lat="62.723853" lon="9.077730"><ele>1240</ele></trkpt><trkpt lat="62.724299" lon="9.077640"><ele>1250</ele></trkpt><trkpt lat="62.724745" lon="9.077550"><ele>1255</ele></trkpt><trkpt lat="62.725200" lon="9.077655"><ele>1262</ele></trkpt><trkpt lat="62.725688" lon="9.078538"><ele>1278</ele></trkpt><trkpt lat="62.726167" lon="9.079227"><ele>1298</ele></trkpt><trkpt lat="62.726613" lon="9.079137"><ele>1314</ele></trkpt><trkpt lat="62.727068" lon="9.079242"><ele>1333</ele></trkpt><trkpt lat="62.727522" lon="9.079347"><ele>1359</ele></trkpt><trkpt lat="62.727985" lon="9.079646"><ele>1388</ele></trkpt><trkpt lat="62.728423" lon="9.079362"><ele>1411</ele></trkpt><trkpt lat="62.728862" lon="9.079078"><ele>1441</ele></trkpt><trkpt lat="62.729308" lon="9.078988"><ele>1466</ele></trkpt><trkpt lat="62.729779" lon="9.079482"><ele>1486</ele></trkpt><trkpt lat="62.730267" lon="9.080366"><ele>1502</ele></trkpt><trkpt lat="62.730267" lon="9.080366"><ele>1502</ele></trkpt></trkseg></trk><wpt lat="62.740189" lon="9.072287"><ele>1172</ele><name>Run end · Storbekkhøa 1502 m</name></wpt><trk><name>Down · Storbekkhøa 1502 m</name><desc>fall-line run: 532 m of 20–30°, 235 m drop, aspect 23°, max 30°, 1.9% ≥30°; ends 4.75 km from the car.</desc><trkseg><trkpt lat="62.730267" lon="9.080366"><ele>1502</ele></trkpt><trkpt lat="62.735593" lon="9.070071"><ele>1408</ele></trkpt><trkpt lat="62.735878" lon="9.070406"><ele>1392</ele></trkpt><trkpt lat="62.736145" lon="9.070352"><ele>1379</ele></trkpt><trkpt lat="62.736421" lon="9.070493"><ele>1362</ele></trkpt><trkpt lat="62.736689" lon="9.070439"><ele>1348</ele></trkpt><trkpt lat="62.736957" lon="9.070385"><ele>1333</ele></trkpt><trkpt lat="62.737225" lon="9.070331"><ele>1320</ele></trkpt><trkpt lat="62.737493" lon="9.070277"><ele>1308</ele></trkpt><trkpt lat="62.737761" lon="9.070223"><ele>1298</ele></trkpt><trkpt lat="62.738028" lon="9.070170"><ele>1286</ele></trkpt><trkpt lat="62.738296" lon="9.070116"><ele>1275</ele></trkpt><trkpt lat="62.738564" lon="9.070062"><ele>1265</ele></trkpt><trkpt lat="62.738832" lon="9.070008"><ele>1253</ele></trkpt><trkpt lat="62.739100" lon="9.069954"><ele>1242</ele></trkpt><trkpt lat="62.739384" lon="9.070289"><ele>1229</ele></trkpt><trkpt lat="62.739677" lon="9.070819"><ele>1212</ele></trkpt><trkpt lat="62.739969" lon="9.071349"><ele>1194</ele></trkpt><trkpt lat="62.740172" lon="9.071897"><ele>1179</ele></trkpt><trkpt lat="62.740189" lon="9.072287"><ele>1172</ele></trkpt></trkseg></trk></gpx>