<?xml version="1.0" encoding="UTF-8"?>
<gpx version="1.1" creator="Rando toppturs" xmlns="http://www.topografix.com/GPX/1/1"><metadata><name>060 Storgruvpiken 1387 m</name><desc>This is an automatically generated list. I have not checked them all. Do not attempt these if you're a beginner. Generated 2026-09-13 17:42 from Kartverket 10 m terrain. Ascent lines are least-cost terrain paths under 35°, not verified routes. Not a snow-stability assessment.</desc></metadata><wpt lat="62.702060" lon="9.565620"><ele>896</ele><name>Car · Storgruvpiken 1387 m</name></wpt><wpt lat="62.700641" lon="9.589393"><ele>1387</ele><name>Storgruvpiken 1387 m</name></wpt><trk><name>Up · Storgruvpiken 1387 m</name><desc>least-cost ascent: +491 m over 1533 m, max 33°, 1.5% on 30–35°, ≈1.61 h at 4 km/h + 400 m/h. Terrain possibility, not a checked route.</desc><trkseg><trkpt lat="62.702060" lon="9.565620"><ele>896</ele></trkpt><trkpt lat="62.702097" lon="9.566593"><ele>909</ele></trkpt><trkpt lat="62.702135" lon="9.567565"><ele>924</ele></trkpt><trkpt lat="62.702173" lon="9.568538"><ele>938</ele></trkpt><trkpt lat="62.702211" lon="9.569511"><ele>954</ele></trkpt><trkpt lat="62.702248" lon="9.570484"><ele>965</ele></trkpt><trkpt lat="62.702286" lon="9.571457"><ele>974</ele></trkpt><trkpt lat="62.702324" lon="9.572429"><ele>984</ele></trkpt><trkpt lat="62.702361" lon="9.573402"><ele>997</ele></trkpt><trkpt lat="62.702399" lon="9.574375"><ele>1014</ele></trkpt><trkpt lat="62.702437" lon="9.575348"><ele>1032</ele></trkpt><trkpt lat="62.702475" lon="9.576321"><ele>1048</ele></trkpt><trkpt lat="62.702512" lon="9.577293"><ele>1064</ele></trkpt><trkpt lat="62.702639" lon="9.578250"><ele>1083</ele></trkpt><trkpt lat="62.702677" lon="9.579223"><ele>1107</ele></trkpt><trkpt lat="62.702715" lon="9.580195"><ele>1135</ele></trkpt><trkpt lat="62.702752" lon="9.581168"><ele>1156</ele></trkpt><trkpt lat="62.702433" lon="9.582207"><ele>1183</ele></trkpt><trkpt lat="62.702113" lon="9.583245"><ele>1210</ele></trkpt><trkpt lat="62.702150" lon="9.584218"><ele>1232</ele></trkpt><trkpt lat="62.702188" lon="9.585191"><ele>1258</ele></trkpt><trkpt lat="62.702226" lon="9.586163"><ele>1281</ele></trkpt><trkpt lat="62.702531" lon="9.587087"><ele>1301</ele></trkpt><trkpt lat="62.702480" lon="9.588076"><ele>1327</ele></trkpt><trkpt lat="62.702063" lon="9.588937"><ele>1349</ele></trkpt><trkpt lat="62.701616" lon="9.589018"><ele>1361</ele></trkpt><trkpt lat="62.701184" lon="9.589489"><ele>1376</ele></trkpt><trkpt lat="62.700738" lon="9.589571"><ele>1385</ele></trkpt><trkpt lat="62.700641" lon="9.589393"><ele>1387</ele></trkpt></trkseg></trk><wpt lat="62.693274" lon="9.568804"><ele>970</ele><name>Run end · Storgruvpiken 1387 m</name></wpt><trk><name>Down · Storgruvpiken 1387 m</name><desc>fall-line run: 531 m of 20–30°, 302 m drop, aspect 278°, max 32°, 1.1% ≥30°; ends 0.99 km from the car.</desc><trkseg><trkpt lat="62.700641" lon="9.589393"><ele>1387</ele></trkpt><trkpt lat="62.693669" lon="9.585969"><ele>1272</ele></trkpt><trkpt lat="62.693647" lon="9.585386"><ele>1260</ele></trkpt><trkpt lat="62.693624" lon="9.584802"><ele>1249</ele></trkpt><trkpt lat="62.693601" lon="9.584218"><ele>1238</ele></trkpt><trkpt lat="62.693579" lon="9.583635"><ele>1226</ele></trkpt><trkpt lat="62.693556" lon="9.583051"><ele>1215</ele></trkpt><trkpt lat="62.693534" lon="9.582468"><ele>1202</ele></trkpt><trkpt lat="62.693511" lon="9.581884"><ele>1188</ele></trkpt><trkpt lat="62.693488" lon="9.581301"><ele>1177</ele></trkpt><trkpt lat="62.693466" lon="9.580717"><ele>1163</ele></trkpt><trkpt lat="62.693443" lon="9.580134"><ele>1148</ele></trkpt><trkpt lat="62.693421" lon="9.579550"><ele>1135</ele></trkpt><trkpt lat="62.693398" lon="9.578967"><ele>1123</ele></trkpt><trkpt lat="62.693375" lon="9.578383"><ele>1112</ele></trkpt><trkpt lat="62.693353" lon="9.577800"><ele>1103</ele></trkpt><trkpt lat="62.693330" lon="9.577216"><ele>1095</ele></trkpt><trkpt lat="62.693308" lon="9.576633"><ele>1089</ele></trkpt><trkpt lat="62.693285" lon="9.576049"><ele>1084</ele></trkpt><trkpt lat="62.693262" lon="9.575466"><ele>1077</ele></trkpt><trkpt lat="62.693240" lon="9.574882"><ele>1069</ele></trkpt><trkpt lat="62.693217" lon="9.574299"><ele>1063</ele></trkpt><trkpt lat="62.693195" lon="9.573715"><ele>1057</ele></trkpt><trkpt lat="62.693172" lon="9.573132"><ele>1052</ele></trkpt><trkpt lat="62.693149" lon="9.572548"><ele>1044</ele></trkpt><trkpt lat="62.693127" lon="9.571965"><ele>1037</ele></trkpt><trkpt lat="62.693104" lon="9.571381"><ele>1029</ele></trkpt><trkpt lat="62.693081" lon="9.570798"><ele>1020</ele></trkpt><trkpt lat="62.693148" lon="9.570198"><ele>1009</ele></trkpt><trkpt lat="62.693125" lon="9.569614"><ele>992</ele></trkpt><trkpt lat="62.693281" lon="9.568998"><ele>975</ele></trkpt><trkpt lat="62.693274" lon="9.568804"><ele>970</ele></trkpt></trkseg></trk></gpx>