<?xml version="1.0" encoding="UTF-8"?>
<gpx version="1.1" creator="Rando toppturs" xmlns="http://www.topografix.com/GPX/1/1"><metadata><name>061 Unnamed 1315 m</name><desc>Generated 2026-09-13 17:42 from Kartverket 10 m terrain. Ascent lines are least-cost terrain paths under 35°, not verified routes. Not a snow-stability assessment.</desc></metadata><wpt lat="62.435460" lon="9.692642"><ele>1039</ele><name>Car · Unnamed summit 1315 m</name></wpt><wpt lat="62.430680" lon="9.671166"><ele>1315</ele><name>Unnamed summit 1315 m</name></wpt><trk><name>Up · Unnamed summit 1315 m</name><desc>least-cost ascent: +284 m over 1377 m, max 29°, 0.0% on 30–35°, ≈1.05 h at 4 km/h + 400 m/h. Terrain possibility, not a checked route.</desc><trkseg><trkpt lat="62.435460" lon="9.692642"><ele>1039</ele></trkpt><trkpt lat="62.435423" lon="9.691678"><ele>1061</ele></trkpt><trkpt lat="62.435387" lon="9.690714"><ele>1082</ele></trkpt><trkpt lat="62.435260" lon="9.689765"><ele>1097</ele></trkpt><trkpt lat="62.434866" lon="9.688865"><ele>1118</ele></trkpt><trkpt lat="62.434561" lon="9.687948"><ele>1136</ele></trkpt><trkpt lat="62.434524" lon="9.686984"><ele>1158</ele></trkpt><trkpt lat="62.434398" lon="9.686035"><ele>1181</ele></trkpt><trkpt lat="62.434182" lon="9.685103"><ele>1206</ele></trkpt><trkpt lat="62.433877" lon="9.684186"><ele>1229</ele></trkpt><trkpt lat="62.433572" lon="9.683270"><ele>1248</ele></trkpt><trkpt lat="62.433536" lon="9.682306"><ele>1260</ele></trkpt><trkpt lat="62.433499" lon="9.681341"><ele>1268</ele></trkpt><trkpt lat="62.433462" lon="9.680377"><ele>1277</ele></trkpt><trkpt lat="62.433425" lon="9.679413"><ele>1283</ele></trkpt><trkpt lat="62.432941" lon="9.678528"><ele>1292</ele></trkpt><trkpt lat="62.432457" lon="9.677644"><ele>1303</ele></trkpt><trkpt lat="62.431974" lon="9.676759"><ele>1306</ele></trkpt><trkpt lat="62.431490" lon="9.675875"><ele>1312</ele></trkpt><trkpt lat="62.431006" lon="9.674990"><ele>1307</ele></trkpt><trkpt lat="62.430790" lon="9.674058"><ele>1307</ele></trkpt><trkpt lat="62.430753" lon="9.673094"><ele>1311</ele></trkpt><trkpt lat="62.430717" lon="9.672130"><ele>1312</ele></trkpt><trkpt lat="62.430680" lon="9.671166"><ele>1315</ele></trkpt><trkpt lat="62.430680" lon="9.671166"><ele>1315</ele></trkpt></trkseg></trk><wpt lat="62.438835" lon="9.689130"><ele>1007</ele><name>Run end · Unnamed summit 1315 m</name></wpt><trk><name>Down · Unnamed summit 1315 m</name><desc>fall-line run: 530 m of 20–30°, 253 m drop, aspect 67°, max 31°, 5.6% ≥30°; ends 0.42 km from the car.</desc><trkseg><trkpt lat="62.430680" lon="9.671166"><ele>1315</ele></trkpt><trkpt lat="62.435763" lon="9.679385"><ele>1260</ele></trkpt><trkpt lat="62.435964" lon="9.679931"><ele>1248</ele></trkpt><trkpt lat="62.436076" lon="9.680494"><ele>1243</ele></trkpt><trkpt lat="62.436098" lon="9.681073"><ele>1236</ele></trkpt><trkpt lat="62.436299" lon="9.681619"><ele>1226</ele></trkpt><trkpt lat="62.436410" lon="9.682182"><ele>1213</ele></trkpt><trkpt lat="62.436611" lon="9.682729"><ele>1200</ele></trkpt><trkpt lat="62.436633" lon="9.683307"><ele>1190</ele></trkpt><trkpt lat="62.436834" lon="9.683854"><ele>1175</ele></trkpt><trkpt lat="62.437035" lon="9.684401"><ele>1156</ele></trkpt><trkpt lat="62.437325" lon="9.684932"><ele>1141</ele></trkpt><trkpt lat="62.437615" lon="9.685463"><ele>1124</ele></trkpt><trkpt lat="62.437816" lon="9.686010"><ele>1108</ele></trkpt><trkpt lat="62.438017" lon="9.686556"><ele>1091</ele></trkpt><trkpt lat="62.438307" lon="9.687087"><ele>1073</ele></trkpt><trkpt lat="62.438330" lon="9.687666"><ele>1056</ele></trkpt><trkpt lat="62.438530" lon="9.688213"><ele>1037</ele></trkpt><trkpt lat="62.438731" lon="9.688760"><ele>1017</ele></trkpt><trkpt lat="62.438835" lon="9.689130"><ele>1007</ele></trkpt></trkseg></trk></gpx>