<?xml version="1.0" encoding="UTF-8"?>
<gpx version="1.1" creator="Rando toppturs" xmlns="http://www.topografix.com/GPX/1/1"><metadata><name>062 Leverkinna 1188 m</name><desc>This is an automatically generated list. I have not checked them all. Do not attempt these if you're a beginner. Generated 2026-09-13 17:42 from Kartverket 10 m terrain. Ascent lines are least-cost terrain paths under 35°, not verified routes. Not a snow-stability assessment.</desc></metadata><wpt lat="62.773889" lon="9.678656"><ele>810</ele><name>Car · Leverkinna 1188 m</name></wpt><wpt lat="62.766877" lon="9.659895"><ele>1188</ele><name>Leverkinna 1188 m</name></wpt><trk><name>Up · Leverkinna 1188 m</name><desc>least-cost ascent: +378 m over 1396 m, max 34°, 12.6% on 30–35°, ≈1.29 h at 4 km/h + 400 m/h. Terrain possibility, not a checked route.</desc><trkseg><trkpt lat="62.773889" lon="9.678656"><ele>810</ele></trkpt><trkpt lat="62.773494" lon="9.677746"><ele>819</ele></trkpt><trkpt lat="62.773010" lon="9.676851"><ele>825</ele></trkpt><trkpt lat="62.772526" lon="9.675957"><ele>841</ele></trkpt><trkpt lat="62.772042" lon="9.675062"><ele>856</ele></trkpt><trkpt lat="62.771559" lon="9.674168"><ele>875</ele></trkpt><trkpt lat="62.771075" lon="9.673273"><ele>902</ele></trkpt><trkpt lat="62.770591" lon="9.672379"><ele>923</ele></trkpt><trkpt lat="62.770107" lon="9.671485"><ele>938</ele></trkpt><trkpt lat="62.769712" lon="9.670574"><ele>974</ele></trkpt><trkpt lat="62.769407" lon="9.669648"><ele>1000</ele></trkpt><trkpt lat="62.769102" lon="9.668721"><ele>1038</ele></trkpt><trkpt lat="62.769244" lon="9.667713"><ele>1063</ele></trkpt><trkpt lat="62.768939" lon="9.666787"><ele>1092</ele></trkpt><trkpt lat="62.768633" lon="9.665860"><ele>1117</ele></trkpt><trkpt lat="62.768596" lon="9.664885"><ele>1133</ele></trkpt><trkpt lat="62.768559" lon="9.663910"><ele>1145</ele></trkpt><trkpt lat="62.768522" lon="9.662935"><ele>1154</ele></trkpt><trkpt lat="62.768038" lon="9.662041"><ele>1161</ele></trkpt><trkpt lat="62.767554" lon="9.661147"><ele>1170</ele></trkpt><trkpt lat="62.767070" lon="9.660253"><ele>1186</ele></trkpt><trkpt lat="62.766877" lon="9.659895"><ele>1188</ele></trkpt></trkseg></trk><wpt lat="62.775523" lon="9.648309"><ele>829</ele><name>Run end · Leverkinna 1188 m</name></wpt><trk><name>Down · Leverkinna 1188 m</name><desc>fall-line run: 505 m of 20–30°, 249 m drop, aspect 359°, max 35°, 3.4% ≥30°; ends 1.56 km from the car.</desc><trkseg><trkpt lat="62.766877" lon="9.659895"><ele>1188</ele></trkpt><trkpt lat="62.770824" lon="9.650145"><ele>1078</ele></trkpt><trkpt lat="62.770802" lon="9.649560"><ele>1066</ele></trkpt><trkpt lat="62.770958" lon="9.648942"><ele>1053</ele></trkpt><trkpt lat="62.771204" lon="9.648309"><ele>1039</ele></trkpt><trkpt lat="62.771450" lon="9.647675"><ele>1025</ele></trkpt><trkpt lat="62.771703" lon="9.647236"><ele>1014</ele></trkpt><trkpt lat="62.771971" lon="9.647187"><ele>1006</ele></trkpt><trkpt lat="62.772232" lon="9.646943"><ele>995</ele></trkpt><trkpt lat="62.772500" lon="9.646895"><ele>984</ele></trkpt><trkpt lat="62.772783" lon="9.647236"><ele>964</ele></trkpt><trkpt lat="62.773058" lon="9.647382"><ele>954</ele></trkpt><trkpt lat="62.773341" lon="9.647724"><ele>936</ele></trkpt><trkpt lat="62.773609" lon="9.647675"><ele>922</ele></trkpt><trkpt lat="62.773877" lon="9.647626"><ele>911</ele></trkpt><trkpt lat="62.774146" lon="9.647577"><ele>897</ele></trkpt><trkpt lat="62.774436" lon="9.648114"><ele>878</ele></trkpt><trkpt lat="62.774711" lon="9.648260"><ele>864</ele></trkpt><trkpt lat="62.774980" lon="9.648211"><ele>852</ele></trkpt><trkpt lat="62.775255" lon="9.648358"><ele>840</ele></trkpt><trkpt lat="62.775523" lon="9.648309"><ele>829</ele></trkpt><trkpt lat="62.775523" lon="9.648309"><ele>829</ele></trkpt></trkseg></trk></gpx>