<?xml version="1.0" encoding="UTF-8"?>
<gpx version="1.1" creator="Rando toppturs" xmlns="http://www.topografix.com/GPX/1/1"><metadata><name>063 Storlifjellet 1582 m</name><desc>This is an automatically generated list. I have not checked them all. Do not attempt these if you're a beginner. Generated 2026-09-13 17:42 from Kartverket 10 m terrain. Ascent lines are least-cost terrain paths under 35°, not verified routes. Not a snow-stability assessment.</desc></metadata><wpt lat="62.691923" lon="9.123331"><ele>702</ele><name>Car · Storlifjellet 1582 m</name></wpt><wpt lat="62.769303" lon="9.204350"><ele>1582</ele><name>Storlifjellet 1582 m</name></wpt><trk><name>Up · Storlifjellet 1582 m</name><desc>least-cost ascent: +1318 m over 10635 m, max 35°, 0.2% on 30–35°, ≈5.95 h at 4 km/h + 400 m/h. Terrain possibility, not a checked route.</desc><trkseg><trkpt lat="62.691923" lon="9.123331"><ele>702</ele></trkpt><trkpt lat="62.692385" lon="9.123631"><ele>715</ele></trkpt><trkpt lat="62.692873" lon="9.124513"><ele>729</ele></trkpt><trkpt lat="62.693335" lon="9.124813"><ele>745</ele></trkpt><trkpt lat="62.693790" lon="9.124919"><ele>768</ele></trkpt><trkpt lat="62.694236" lon="9.124830"><ele>792</ele></trkpt><trkpt lat="62.694683" lon="9.124741"><ele>810</ele></trkpt><trkpt lat="62.694991" lon="9.125660"><ele>833</ele></trkpt><trkpt lat="62.695032" lon="9.126631"><ele>842</ele></trkpt><trkpt lat="62.695341" lon="9.127550"><ele>855</ele></trkpt><trkpt lat="62.695812" lon="9.128044"><ele>877</ele></trkpt><trkpt lat="62.696299" lon="9.128927"><ele>898</ele></trkpt><trkpt lat="62.696786" lon="9.129810"><ele>916</ele></trkpt><trkpt lat="62.697273" lon="9.130693"><ele>935</ele></trkpt><trkpt lat="62.697761" lon="9.131576"><ele>951</ele></trkpt><trkpt lat="62.698207" lon="9.131488"><ele>977</ele></trkpt><trkpt lat="62.698654" lon="9.131399"><ele>992</ele></trkpt><trkpt lat="62.699124" lon="9.131893"><ele>1009</ele></trkpt><trkpt lat="62.699612" lon="9.132776"><ele>1024</ele></trkpt><trkpt lat="62.700066" lon="9.132882"><ele>1035</ele></trkpt><trkpt lat="62.700513" lon="9.132793"><ele>1049</ele></trkpt><trkpt lat="62.700959" lon="9.132705"><ele>1057</ele></trkpt><trkpt lat="62.701406" lon="9.132616"><ele>1061</ele></trkpt><trkpt lat="62.701852" lon="9.132527"><ele>1060</ele></trkpt><trkpt lat="62.702298" lon="9.132438"><ele>1060</ele></trkpt><trkpt lat="62.702745" lon="9.132350"><ele>1061</ele></trkpt><trkpt lat="62.703191" lon="9.132261"><ele>1056</ele></trkpt><trkpt lat="62.703638" lon="9.132172"><ele>1057</ele></trkpt><trkpt lat="62.704084" lon="9.132083"><ele>1063</ele></trkpt><trkpt lat="62.704531" lon="9.131994"><ele>1068</ele></trkpt><trkpt lat="62.704977" lon="9.131906"><ele>1069</ele></trkpt><trkpt lat="62.705423" lon="9.131817"><ele>1064</ele></trkpt><trkpt lat="62.705870" lon="9.131728"><ele>1058</ele></trkpt><trkpt lat="62.706333" lon="9.132028"><ele>1046</ele></trkpt><trkpt lat="62.706820" lon="9.132912"><ele>1029</ele></trkpt><trkpt lat="62.707307" lon="9.133795"><ele>1021</ele></trkpt><trkpt lat="62.707794" lon="9.134678"><ele>1020</ele></trkpt><trkpt lat="62.708281" lon="9.135562"><ele>1021</ele></trkpt><trkpt lat="62.708769" lon="9.136445"><ele>1022</ele></trkpt><trkpt lat="62.709256" lon="9.137329"><ele>1025</ele></trkpt><trkpt lat="62.709743" lon="9.138213"><ele>1030</ele></trkpt><trkpt lat="62.710230" lon="9.139096"><ele>1033</ele></trkpt><trkpt lat="62.710717" lon="9.139980"><ele>1046</ele></trkpt><trkpt lat="62.711204" lon="9.140864"><ele>1062</ele></trkpt><trkpt lat="62.711692" lon="9.141747"><ele>1075</ele></trkpt><trkpt lat="62.712179" lon="9.142631"><ele>1084</ele></trkpt><trkpt lat="62.712666" lon="9.143515"><ele>1090</ele></trkpt><trkpt lat="62.713153" lon="9.144399"><ele>1092</ele></trkpt><trkpt lat="62.713640" lon="9.145282"><ele>1084</ele></trkpt><trkpt lat="62.714127" lon="9.146166"><ele>1077</ele></trkpt><trkpt lat="62.714614" lon="9.147050"><ele>1070</ele></trkpt><trkpt lat="62.715101" lon="9.147934"><ele>1059</ele></trkpt><trkpt lat="62.715580" lon="9.148623"><ele>1060</ele></trkpt><trkpt lat="62.716051" lon="9.149118"><ele>1060</ele></trkpt><trkpt lat="62.716514" lon="9.149419"><ele>1055</ele></trkpt><trkpt lat="62.716977" lon="9.149719"><ele>1055</ele></trkpt><trkpt lat="62.717439" lon="9.150020"><ele>1053</ele></trkpt><trkpt lat="62.717910" lon="9.150515"><ele>1048</ele></trkpt><trkpt lat="62.718373" lon="9.150815"><ele>1049</ele></trkpt><trkpt lat="62.718860" lon="9.151699"><ele>1047</ele></trkpt><trkpt lat="62.719347" lon="9.152583"><ele>1052</ele></trkpt><trkpt lat="62.719834" lon="9.153468"><ele>1057</ele></trkpt><trkpt lat="62.720321" lon="9.154352"><ele>1056</ele></trkpt><trkpt lat="62.720808" lon="9.155236"><ele>1056</ele></trkpt><trkpt lat="62.721206" lon="9.156138"><ele>1045</ele></trkpt><trkpt lat="62.721693" lon="9.157022"><ele>1039</ele></trkpt><trkpt lat="62.722180" lon="9.157906"><ele>1028</ele></trkpt><trkpt lat="62.722578" lon="9.158808"><ele>1009</ele></trkpt><trkpt lat="62.723065" lon="9.159693"><ele>998</ele></trkpt><trkpt lat="62.723552" lon="9.160577"><ele>994</ele></trkpt><trkpt lat="62.724039" lon="9.161461"><ele>989</ele></trkpt><trkpt lat="62.724526" lon="9.162346"><ele>988</ele></trkpt><trkpt lat="62.725013" lon="9.163230"><ele>988</ele></trkpt><trkpt lat="62.725500" lon="9.164115"><ele>985</ele></trkpt><trkpt lat="62.725971" lon="9.164610"><ele>988</ele></trkpt><trkpt lat="62.726450" lon="9.165300"><ele>978</ele></trkpt><trkpt lat="62.726937" lon="9.166185"><ele>964</ele></trkpt><trkpt lat="62.727424" lon="9.167069"><ele>953</ele></trkpt><trkpt lat="62.727911" lon="9.167954"><ele>950</ele></trkpt><trkpt lat="62.728398" lon="9.168838"><ele>951</ele></trkpt><trkpt lat="62.728885" lon="9.169723"><ele>952</ele></trkpt><trkpt lat="62.729372" lon="9.170608"><ele>955</ele></trkpt><trkpt lat="62.729859" lon="9.171493"><ele>962</ele></trkpt><trkpt lat="62.730346" lon="9.172377"><ele>979</ele></trkpt><trkpt lat="62.730833" lon="9.173262"><ele>999</ele></trkpt><trkpt lat="62.731320" lon="9.174147"><ele>1024</ele></trkpt><trkpt lat="62.731807" lon="9.175032"><ele>1045</ele></trkpt><trkpt lat="62.732294" lon="9.175917"><ele>1063</ele></trkpt><trkpt lat="62.732594" lon="9.176642"><ele>1069</ele></trkpt><trkpt lat="62.733065" lon="9.177138"><ele>1100</ele></trkpt><trkpt lat="62.733551" lon="9.178023"><ele>1139</ele></trkpt><trkpt lat="62.733592" lon="9.178996"><ele>1161</ele></trkpt><trkpt lat="62.733632" lon="9.179969"><ele>1177</ele></trkpt><trkpt lat="62.733941" lon="9.180889"><ele>1195</ele></trkpt><trkpt lat="62.734428" lon="9.181774"><ele>1212</ele></trkpt><trkpt lat="62.734915" lon="9.182660"><ele>1227</ele></trkpt><trkpt lat="62.735401" lon="9.183545"><ele>1243</ele></trkpt><trkpt lat="62.735880" lon="9.184235"><ele>1259</ele></trkpt><trkpt lat="62.736335" lon="9.184342"><ele>1276</ele></trkpt><trkpt lat="62.736781" lon="9.184254"><ele>1285</ele></trkpt><trkpt lat="62.737228" lon="9.184165"><ele>1287</ele></trkpt><trkpt lat="62.737674" lon="9.184077"><ele>1285</ele></trkpt><trkpt lat="62.738121" lon="9.183989"><ele>1275</ele></trkpt><trkpt lat="62.738583" lon="9.184290"><ele>1274</ele></trkpt><trkpt lat="62.739070" lon="9.185176"><ele>1275</ele></trkpt><trkpt lat="62.739557" lon="9.186061"><ele>1271</ele></trkpt><trkpt lat="62.740036" lon="9.186751"><ele>1265</ele></trkpt><trkpt lat="62.740490" lon="9.186858"><ele>1253</ele></trkpt><trkpt lat="62.740937" lon="9.186770"><ele>1248</ele></trkpt><trkpt lat="62.741383" lon="9.186682"><ele>1244</ele></trkpt><trkpt lat="62.741830" lon="9.186594"><ele>1244</ele></trkpt><trkpt lat="62.742276" lon="9.186506"><ele>1245</ele></trkpt><trkpt lat="62.742723" lon="9.186418"><ele>1249</ele></trkpt><trkpt lat="62.743169" lon="9.186329"><ele>1256</ele></trkpt><trkpt lat="62.743616" lon="9.186241"><ele>1261</ele></trkpt><trkpt lat="62.744062" lon="9.186153"><ele>1271</ele></trkpt><trkpt lat="62.744517" lon="9.186260"><ele>1284</ele></trkpt><trkpt lat="62.744963" lon="9.186172"><ele>1297</ele></trkpt><trkpt lat="62.745410" lon="9.186084"><ele>1309</ele></trkpt><trkpt lat="62.745856" lon="9.185995"><ele>1318</ele></trkpt><trkpt lat="62.746303" lon="9.185907"><ele>1330</ele></trkpt><trkpt lat="62.746757" lon="9.186014"><ele>1341</ele></trkpt><trkpt lat="62.747228" lon="9.186510"><ele>1351</ele></trkpt><trkpt lat="62.747699" lon="9.187006"><ele>1360</ele></trkpt><trkpt lat="62.748177" lon="9.187697"><ele>1370</ele></trkpt><trkpt lat="62.748640" lon="9.187998"><ele>1384</ele></trkpt><trkpt lat="62.749095" lon="9.188105"><ele>1395</ele></trkpt><trkpt lat="62.749549" lon="9.188211"><ele>1407</ele></trkpt><trkpt lat="62.750028" lon="9.188902"><ele>1419</ele></trkpt><trkpt lat="62.750515" lon="9.189788"><ele>1430</ele></trkpt><trkpt lat="62.751002" lon="9.190674"><ele>1444</ele></trkpt><trkpt lat="62.751456" lon="9.190780"><ele>1458</ele></trkpt><trkpt lat="62.751935" lon="9.191471"><ele>1453</ele></trkpt><trkpt lat="62.752414" lon="9.192162"><ele>1434</ele></trkpt><trkpt lat="62.752868" lon="9.192269"><ele>1413</ele></trkpt><trkpt lat="62.753347" lon="9.192960"><ele>1410</ele></trkpt><trkpt lat="62.753794" lon="9.192872"><ele>1396</ele></trkpt><trkpt lat="62.754272" lon="9.193563"><ele>1396</ele></trkpt><trkpt lat="62.754727" lon="9.193670"><ele>1385</ele></trkpt><trkpt lat="62.755173" lon="9.193582"><ele>1365</ele></trkpt><trkpt lat="62.755628" lon="9.193688"><ele>1351</ele></trkpt><trkpt lat="62.756107" lon="9.194379"><ele>1346</ele></trkpt><trkpt lat="62.756553" lon="9.194291"><ele>1337</ele></trkpt><trkpt lat="62.757000" lon="9.194203"><ele>1333</ele></trkpt><trkpt lat="62.757446" lon="9.194115"><ele>1334</ele></trkpt><trkpt lat="62.757917" lon="9.194612"><ele>1340</ele></trkpt><trkpt lat="62.758404" lon="9.195498"><ele>1353</ele></trkpt><trkpt lat="62.758891" lon="9.196384"><ele>1361</ele></trkpt><trkpt lat="62.759377" lon="9.197270"><ele>1372</ele></trkpt><trkpt lat="62.759864" lon="9.198156"><ele>1390</ele></trkpt><trkpt lat="62.760319" lon="9.198262"><ele>1408</ele></trkpt><trkpt lat="62.760773" lon="9.198369"><ele>1430</ele></trkpt><trkpt lat="62.761228" lon="9.198476"><ele>1445</ele></trkpt><trkpt lat="62.761690" lon="9.198778"><ele>1461</ele></trkpt><trkpt lat="62.762169" lon="9.199469"><ele>1489</ele></trkpt><trkpt lat="62.762648" lon="9.200160"><ele>1512</ele></trkpt><trkpt lat="62.763102" lon="9.200267"><ele>1528</ele></trkpt><trkpt lat="62.763549" lon="9.200179"><ele>1533</ele></trkpt><trkpt lat="62.763995" lon="9.200091"><ele>1535</ele></trkpt><trkpt lat="62.764442" lon="9.200003"><ele>1534</ele></trkpt><trkpt lat="62.764888" lon="9.199915"><ele>1530</ele></trkpt><trkpt lat="62.765359" lon="9.200412"><ele>1535</ele></trkpt><trkpt lat="62.765846" lon="9.201298"><ele>1543</ele></trkpt><trkpt lat="62.766325" lon="9.201990"><ele>1548</ele></trkpt><trkpt lat="62.766779" lon="9.202097"><ele>1544</ele></trkpt><trkpt lat="62.767250" lon="9.202593"><ele>1555</ele></trkpt><trkpt lat="62.767696" lon="9.202505"><ele>1559</ele></trkpt><trkpt lat="62.768143" lon="9.202417"><ele>1559</ele></trkpt><trkpt lat="62.768621" lon="9.203109"><ele>1569</ele></trkpt><trkpt lat="62.769108" lon="9.203995"><ele>1580</ele></trkpt><trkpt lat="62.769303" lon="9.204350"><ele>1582</ele></trkpt></trkseg></trk><wpt lat="62.773509" lon="9.199395"><ele>1342</ele><name>Run end · Storlifjellet 1582 m</name></wpt><trk><name>Down · Storlifjellet 1582 m</name><desc>fall-line run: 497 m of 20–30°, 233 m drop, aspect 335°, max 29°, 0.0% ≥30°; ends 9.9 km from the car.</desc><trkseg><trkpt lat="62.769571" lon="9.204297"><ele>1575</ele></trkpt><trkpt lat="62.769815" lon="9.203660"><ele>1553</ele></trkpt><trkpt lat="62.770058" lon="9.203022"><ele>1535</ele></trkpt><trkpt lat="62.770302" lon="9.202385"><ele>1517</ele></trkpt><trkpt lat="62.770546" lon="9.201747"><ele>1496</ele></trkpt><trkpt lat="62.770789" lon="9.201110"><ele>1476</ele></trkpt><trkpt lat="62.771033" lon="9.200472"><ele>1456</ele></trkpt><trkpt lat="62.771293" lon="9.200225"><ele>1440</ele></trkpt><trkpt lat="62.771553" lon="9.199977"><ele>1428</ele></trkpt><trkpt lat="62.771821" lon="9.199924"><ele>1417</ele></trkpt><trkpt lat="62.772089" lon="9.199871"><ele>1408</ele></trkpt><trkpt lat="62.772348" lon="9.199624"><ele>1396</ele></trkpt><trkpt lat="62.772616" lon="9.199571"><ele>1386</ele></trkpt><trkpt lat="62.772884" lon="9.199518"><ele>1376</ele></trkpt><trkpt lat="62.773152" lon="9.199465"><ele>1362</ele></trkpt><trkpt lat="62.773420" lon="9.199412"><ele>1347</ele></trkpt><trkpt lat="62.773509" lon="9.199395"><ele>1342</ele></trkpt></trkseg></trk></gpx>