<?xml version="1.0" encoding="UTF-8"?>
<gpx version="1.1" creator="Rando toppturs" xmlns="http://www.topografix.com/GPX/1/1"><metadata><name>064 Unnamed 1296 m</name><desc>This is an automatically generated list. I have not checked them all. Do not attempt these if you're a beginner. Generated 2026-09-13 17:42 from Kartverket 10 m terrain. Ascent lines are least-cost terrain paths under 35°, not verified routes. Not a snow-stability assessment.</desc></metadata><wpt lat="62.684994" lon="9.557205"><ele>883</ele><name>Car · Unnamed summit 1296 m</name></wpt><wpt lat="62.679613" lon="9.576209"><ele>1296</ele><name>Unnamed summit 1296 m</name></wpt><trk><name>Up · Unnamed summit 1296 m</name><desc>least-cost ascent: +415 m over 1372 m, max 34°, 2.9% on 30–35°, ≈1.38 h at 4 km/h + 400 m/h. Terrain possibility, not a checked route.</desc><trkseg><trkpt lat="62.684994" lon="9.557205"><ele>883</ele></trkpt><trkpt lat="62.684585" lon="9.558259"><ele>902</ele></trkpt><trkpt lat="62.684176" lon="9.559314"><ele>924</ele></trkpt><trkpt lat="62.683767" lon="9.560368"><ele>941</ele></trkpt><trkpt lat="62.683358" lon="9.561423"><ele>962</ele></trkpt><trkpt lat="62.683038" lon="9.562461"><ele>982</ele></trkpt><trkpt lat="62.683076" lon="9.563433"><ele>988</ele></trkpt><trkpt lat="62.682667" lon="9.564487"><ele>997</ele></trkpt><trkpt lat="62.682437" lon="9.565509"><ele>1014</ele></trkpt><trkpt lat="62.682385" lon="9.566497"><ele>1035</ele></trkpt><trkpt lat="62.682244" lon="9.567502"><ele>1058</ele></trkpt><trkpt lat="62.681925" lon="9.568540"><ele>1091</ele></trkpt><trkpt lat="62.681873" lon="9.569528"><ele>1117</ele></trkpt><trkpt lat="62.681553" lon="9.570566"><ele>1149</ele></trkpt><trkpt lat="62.681129" lon="9.571232"><ele>1181</ele></trkpt><trkpt lat="62.681078" lon="9.572220"><ele>1208</ele></trkpt><trkpt lat="62.681383" lon="9.573143"><ele>1225</ele></trkpt><trkpt lat="62.681064" lon="9.574181"><ele>1257</ele></trkpt><trkpt lat="62.680625" lon="9.574457"><ele>1273</ele></trkpt><trkpt lat="62.680185" lon="9.574734"><ele>1287</ele></trkpt><trkpt lat="62.679776" lon="9.575788"><ele>1292</ele></trkpt><trkpt lat="62.679613" lon="9.576209"><ele>1296</ele></trkpt></trkseg></trk><wpt lat="62.686790" lon="9.559420"><ele>892</ele><name>Run end · Unnamed summit 1296 m</name></wpt><trk><name>Down · Unnamed summit 1296 m</name><desc>fall-line run: 491 m of 20–30°, 319 m drop, aspect 292°, max 32°, 2.1% ≥30°; ends 0.23 km from the car.</desc><trkseg><trkpt lat="62.679613" lon="9.576209"><ele>1296</ele></trkpt><trkpt lat="62.684014" lon="9.575989"><ele>1211</ele></trkpt><trkpt lat="62.684259" lon="9.575356"><ele>1187</ele></trkpt><trkpt lat="62.684236" lon="9.574773"><ele>1177</ele></trkpt><trkpt lat="62.684214" lon="9.574190"><ele>1172</ele></trkpt><trkpt lat="62.684102" lon="9.573623"><ele>1162</ele></trkpt><trkpt lat="62.683990" lon="9.573056"><ele>1156</ele></trkpt><trkpt lat="62.683878" lon="9.572489"><ele>1150</ele></trkpt><trkpt lat="62.683945" lon="9.571889"><ele>1139</ele></trkpt><trkpt lat="62.684190" lon="9.571257"><ele>1123</ele></trkpt><trkpt lat="62.684167" lon="9.570673"><ele>1111</ele></trkpt><trkpt lat="62.684145" lon="9.570090"><ele>1099</ele></trkpt><trkpt lat="62.684122" lon="9.569507"><ele>1090</ele></trkpt><trkpt lat="62.684099" lon="9.568923"><ele>1079</ele></trkpt><trkpt lat="62.684077" lon="9.568340"><ele>1064</ele></trkpt><trkpt lat="62.684054" lon="9.567757"><ele>1051</ele></trkpt><trkpt lat="62.684032" lon="9.567174"><ele>1042</ele></trkpt><trkpt lat="62.684009" lon="9.566590"><ele>1033</ele></trkpt><trkpt lat="62.684076" lon="9.565990"><ele>1024</ele></trkpt><trkpt lat="62.684053" lon="9.565407"><ele>1013</ele></trkpt><trkpt lat="62.684313" lon="9.565163"><ele>1010</ele></trkpt><trkpt lat="62.684581" lon="9.565114"><ele>1009</ele></trkpt><trkpt lat="62.684850" lon="9.565065"><ele>1006</ele></trkpt><trkpt lat="62.685110" lon="9.564821"><ele>1002</ele></trkpt><trkpt lat="62.685363" lon="9.564383"><ele>991</ele></trkpt><trkpt lat="62.685608" lon="9.563750"><ele>976</ele></trkpt><trkpt lat="62.685854" lon="9.563118"><ele>957</ele></trkpt><trkpt lat="62.685920" lon="9.562518"><ele>944</ele></trkpt><trkpt lat="62.686166" lon="9.561885"><ele>937</ele></trkpt><trkpt lat="62.686411" lon="9.561252"><ele>930</ele></trkpt><trkpt lat="62.686657" lon="9.560620"><ele>918</ele></trkpt><trkpt lat="62.686813" lon="9.560003"><ele>905</ele></trkpt><trkpt lat="62.686790" lon="9.559420"><ele>892</ele></trkpt><trkpt lat="62.686790" lon="9.559420"><ele>892</ele></trkpt></trkseg></trk></gpx>