<?xml version="1.0" encoding="UTF-8"?>
<gpx version="1.1" creator="Rando toppturs" xmlns="http://www.topografix.com/GPX/1/1"><metadata><name>068 Eldåtangen 1223 m</name><desc>This is an automatically generated list. I have not checked them all. Do not attempt these if you're a beginner. Generated 2026-09-13 17:42 from Kartverket 10 m terrain. Ascent lines are least-cost terrain paths under 35°, not verified routes. Not a snow-stability assessment.</desc></metadata><wpt lat="62.744603" lon="9.578969"><ele>797</ele><name>Car · Eldåtangen 1223 m</name></wpt><wpt lat="62.744258" lon="9.616706"><ele>1223</ele><name>Eldåtangen 1223 m</name></wpt><trk><name>Up · Eldåtangen 1223 m</name><desc>least-cost ascent: +426 m over 2059 m, max 24°, 0.0% on 30–35°, ≈1.58 h at 4 km/h + 400 m/h. Terrain possibility, not a checked route.</desc><trkseg><trkpt lat="62.744603" lon="9.578969"><ele>797</ele></trkpt><trkpt lat="62.744640" lon="9.579943"><ele>807</ele></trkpt><trkpt lat="62.744678" lon="9.580917"><ele>821</ele></trkpt><trkpt lat="62.744716" lon="9.581891"><ele>834</ele></trkpt><trkpt lat="62.744753" lon="9.582865"><ele>846</ele></trkpt><trkpt lat="62.744791" lon="9.583840"><ele>859</ele></trkpt><trkpt lat="62.744829" lon="9.584814"><ele>869</ele></trkpt><trkpt lat="62.744866" lon="9.585788"><ele>877</ele></trkpt><trkpt lat="62.744904" lon="9.586762"><ele>882</ele></trkpt><trkpt lat="62.744942" lon="9.587737"><ele>888</ele></trkpt><trkpt lat="62.744979" lon="9.588711"><ele>893</ele></trkpt><trkpt lat="62.745017" lon="9.589685"><ele>898</ele></trkpt><trkpt lat="62.745055" lon="9.590659"><ele>904</ele></trkpt><trkpt lat="62.745092" lon="9.591633"><ele>910</ele></trkpt><trkpt lat="62.745130" lon="9.592608"><ele>914</ele></trkpt><trkpt lat="62.745167" lon="9.593582"><ele>918</ele></trkpt><trkpt lat="62.745205" lon="9.594556"><ele>925</ele></trkpt><trkpt lat="62.745242" lon="9.595530"><ele>935</ele></trkpt><trkpt lat="62.745101" lon="9.596537"><ele>947</ele></trkpt><trkpt lat="62.744781" lon="9.597577"><ele>968</ele></trkpt><trkpt lat="62.744819" lon="9.598551"><ele>985</ele></trkpt><trkpt lat="62.744857" lon="9.599526"><ele>1000</ele></trkpt><trkpt lat="62.744537" lon="9.600565"><ele>1025</ele></trkpt><trkpt lat="62.744306" lon="9.601589"><ele>1045</ele></trkpt><trkpt lat="62.743986" lon="9.602628"><ele>1066</ele></trkpt><trkpt lat="62.743845" lon="9.603635"><ele>1086</ele></trkpt><trkpt lat="62.743883" lon="9.604610"><ele>1099</ele></trkpt><trkpt lat="62.743920" lon="9.605584"><ele>1112</ele></trkpt><trkpt lat="62.743958" lon="9.606558"><ele>1128</ele></trkpt><trkpt lat="62.743995" lon="9.607532"><ele>1149</ele></trkpt><trkpt lat="62.744033" lon="9.608506"><ele>1167</ele></trkpt><trkpt lat="62.744070" lon="9.609481"><ele>1180</ele></trkpt><trkpt lat="62.744108" lon="9.610455"><ele>1191</ele></trkpt><trkpt lat="62.744056" lon="9.611446"><ele>1205</ele></trkpt><trkpt lat="62.744093" lon="9.612420"><ele>1205</ele></trkpt><trkpt lat="62.744131" lon="9.613394"><ele>1205</ele></trkpt><trkpt lat="62.744168" lon="9.614368"><ele>1207</ele></trkpt><trkpt lat="62.744205" lon="9.615342"><ele>1213</ele></trkpt><trkpt lat="62.744243" lon="9.616317"><ele>1219</ele></trkpt><trkpt lat="62.744258" lon="9.616706"><ele>1223</ele></trkpt></trkseg></trk><wpt lat="62.754496" lon="9.609143"><ele>919</ele><name>Run end · Eldåtangen 1223 m</name></wpt><trk><name>Down · Eldåtangen 1223 m</name><desc>fall-line run: 480 m of 20–30°, 207 m drop, aspect 347°, max 32°, 3.9% ≥30°; ends 1.9 km from the car.</desc><trkseg><trkpt lat="62.744258" lon="9.616706"><ele>1223</ele></trkpt><trkpt lat="62.750088" lon="9.611520"><ele>1125</ele></trkpt><trkpt lat="62.750356" lon="9.611471"><ele>1112</ele></trkpt><trkpt lat="62.750624" lon="9.611422"><ele>1095</ele></trkpt><trkpt lat="62.750892" lon="9.611373"><ele>1084</ele></trkpt><trkpt lat="62.751160" lon="9.611324"><ele>1078</ele></trkpt><trkpt lat="62.751428" lon="9.611275"><ele>1070</ele></trkpt><trkpt lat="62.751696" lon="9.611226"><ele>1060</ele></trkpt><trkpt lat="62.751964" lon="9.611177"><ele>1047</ele></trkpt><trkpt lat="62.752232" lon="9.611128"><ele>1036</ele></trkpt><trkpt lat="62.752500" lon="9.611079"><ele>1023</ele></trkpt><trkpt lat="62.752768" lon="9.611030"><ele>1012</ele></trkpt><trkpt lat="62.753022" lon="9.610591"><ele>994</ele></trkpt><trkpt lat="62.753290" lon="9.610542"><ele>982</ele></trkpt><trkpt lat="62.753550" lon="9.610298"><ele>968</ele></trkpt><trkpt lat="62.753803" lon="9.609859"><ele>953</ele></trkpt><trkpt lat="62.754071" lon="9.609810"><ele>942</ele></trkpt><trkpt lat="62.754317" lon="9.609176"><ele>926</ele></trkpt><trkpt lat="62.754496" lon="9.609143"><ele>919</ele></trkpt></trkseg></trk></gpx>