<?xml version="1.0" encoding="UTF-8"?>
<gpx version="1.1" creator="Rando toppturs" xmlns="http://www.topografix.com/GPX/1/1"><metadata><name>071 Ilfjellet 1217 m</name><desc>This is an automatically generated list. I have not checked them all. Do not attempt these if you're a beginner. Generated 2026-09-13 17:42 from Kartverket 10 m terrain. Ascent lines are least-cost terrain paths under 35°, not verified routes. Not a snow-stability assessment.</desc></metadata><wpt lat="62.896091" lon="9.937274"><ele>687</ele><name>Car · Ilfjellet 1217 m</name></wpt><wpt lat="62.945100" lon="9.939255"><ele>1217</ele><name>Ilfjellet 1217 m</name></wpt><trk><name>Up · Ilfjellet 1217 m</name><desc>least-cost ascent: +740 m over 5871 m, max 29°, 0.0% on 30–35°, ≈3.32 h at 4 km/h + 400 m/h. Terrain possibility, not a checked route.</desc><trkseg><trkpt lat="62.896091" lon="9.937274"><ele>687</ele></trkpt><trkpt lat="62.896538" lon="9.937197"><ele>683</ele></trkpt><trkpt lat="62.896985" lon="9.937120"><ele>681</ele></trkpt><trkpt lat="62.897432" lon="9.937043"><ele>688</ele></trkpt><trkpt lat="62.897879" lon="9.936965"><ele>693</ele></trkpt><trkpt lat="62.898326" lon="9.936888"><ele>698</ele></trkpt><trkpt lat="62.898773" lon="9.936811"><ele>704</ele></trkpt><trkpt lat="62.899220" lon="9.936733"><ele>713</ele></trkpt><trkpt lat="62.899667" lon="9.936656"><ele>718</ele></trkpt><trkpt lat="62.900114" lon="9.936579"><ele>723</ele></trkpt><trkpt lat="62.900561" lon="9.936502"><ele>730</ele></trkpt><trkpt lat="62.901008" lon="9.936424"><ele>735</ele></trkpt><trkpt lat="62.901455" lon="9.936347"><ele>738</ele></trkpt><trkpt lat="62.901902" lon="9.936270"><ele>743</ele></trkpt><trkpt lat="62.902349" lon="9.936192"><ele>754</ele></trkpt><trkpt lat="62.902796" lon="9.936115"><ele>758</ele></trkpt><trkpt lat="62.903243" lon="9.936038"><ele>760</ele></trkpt><trkpt lat="62.903690" lon="9.935960"><ele>766</ele></trkpt><trkpt lat="62.904137" lon="9.935883"><ele>765</ele></trkpt><trkpt lat="62.904584" lon="9.935806"><ele>770</ele></trkpt><trkpt lat="62.905031" lon="9.935728"><ele>779</ele></trkpt><trkpt lat="62.905478" lon="9.935651"><ele>787</ele></trkpt><trkpt lat="62.905926" lon="9.935574"><ele>789</ele></trkpt><trkpt lat="62.906373" lon="9.935496"><ele>783</ele></trkpt><trkpt lat="62.906820" lon="9.935419"><ele>771</ele></trkpt><trkpt lat="62.907267" lon="9.935342"><ele>768</ele></trkpt><trkpt lat="62.907714" lon="9.935264"><ele>766</ele></trkpt><trkpt lat="62.908161" lon="9.935187"><ele>770</ele></trkpt><trkpt lat="62.908608" lon="9.935110"><ele>773</ele></trkpt><trkpt lat="62.909055" lon="9.935032"><ele>772</ele></trkpt><trkpt lat="62.909502" lon="9.934955"><ele>766</ele></trkpt><trkpt lat="62.909949" lon="9.934878"><ele>780</ele></trkpt><trkpt lat="62.910382" lon="9.934408"><ele>798</ele></trkpt><trkpt lat="62.910829" lon="9.934331"><ele>806</ele></trkpt><trkpt lat="62.911276" lon="9.934254"><ele>812</ele></trkpt><trkpt lat="62.911723" lon="9.934176"><ele>821</ele></trkpt><trkpt lat="62.912170" lon="9.934099"><ele>831</ele></trkpt><trkpt lat="62.912631" lon="9.934414"><ele>835</ele></trkpt><trkpt lat="62.913106" lon="9.935121"><ele>848</ele></trkpt><trkpt lat="62.913560" lon="9.935239"><ele>868</ele></trkpt><trkpt lat="62.914007" lon="9.935162"><ele>881</ele></trkpt><trkpt lat="62.914454" lon="9.935085"><ele>881</ele></trkpt><trkpt lat="62.914915" lon="9.935399"><ele>893</ele></trkpt><trkpt lat="62.915362" lon="9.935322"><ele>895</ele></trkpt><trkpt lat="62.915823" lon="9.935637"><ele>907</ele></trkpt><trkpt lat="62.916277" lon="9.935755"><ele>911</ele></trkpt><trkpt lat="62.916760" lon="9.936659"><ele>906</ele></trkpt><trkpt lat="62.917214" lon="9.936777"><ele>923</ele></trkpt><trkpt lat="62.917689" lon="9.937484"><ele>939</ele></trkpt><trkpt lat="62.918143" lon="9.937603"><ele>945</ele></trkpt><trkpt lat="62.918618" lon="9.938310"><ele>932</ele></trkpt><trkpt lat="62.919065" lon="9.938233"><ele>929</ele></trkpt><trkpt lat="62.919519" lon="9.938352"><ele>938</ele></trkpt><trkpt lat="62.919988" lon="9.938863"><ele>951</ele></trkpt><trkpt lat="62.920449" lon="9.939178"><ele>967</ele></trkpt><trkpt lat="62.920896" lon="9.939100"><ele>979</ele></trkpt><trkpt lat="62.921343" lon="9.939023"><ele>977</ele></trkpt><trkpt lat="62.921804" lon="9.939338"><ele>993</ele></trkpt><trkpt lat="62.922251" lon="9.939261"><ele>1003</ele></trkpt><trkpt lat="62.922698" lon="9.939183"><ele>1004</ele></trkpt><trkpt lat="62.923145" lon="9.939106"><ele>1005</ele></trkpt><trkpt lat="62.923592" lon="9.939029"><ele>1002</ele></trkpt><trkpt lat="62.924039" lon="9.938951"><ele>998</ele></trkpt><trkpt lat="62.924486" lon="9.938874"><ele>992</ele></trkpt><trkpt lat="62.924940" lon="9.938993"><ele>1000</ele></trkpt><trkpt lat="62.925387" lon="9.938915"><ele>996</ele></trkpt><trkpt lat="62.925834" lon="9.938838"><ele>994</ele></trkpt><trkpt lat="62.926281" lon="9.938761"><ele>998</ele></trkpt><trkpt lat="62.926728" lon="9.938683"><ele>992</ele></trkpt><trkpt lat="62.927175" lon="9.938606"><ele>992</ele></trkpt><trkpt lat="62.927636" lon="9.938921"><ele>1000</ele></trkpt><trkpt lat="62.928083" lon="9.938844"><ele>988</ele></trkpt><trkpt lat="62.928516" lon="9.938374"><ele>966</ele></trkpt><trkpt lat="62.928956" lon="9.938100"><ele>966</ele></trkpt><trkpt lat="62.929410" lon="9.938219"><ele>964</ele></trkpt><trkpt lat="62.929857" lon="9.938142"><ele>964</ele></trkpt><trkpt lat="62.930304" lon="9.938065"><ele>968</ele></trkpt><trkpt lat="62.930744" lon="9.937791"><ele>982</ele></trkpt><trkpt lat="62.931191" lon="9.937714"><ele>990</ele></trkpt><trkpt lat="62.931638" lon="9.937636"><ele>991</ele></trkpt><trkpt lat="62.932099" lon="9.937951"><ele>994</ele></trkpt><trkpt lat="62.932539" lon="9.937678"><ele>1012</ele></trkpt><trkpt lat="62.932972" lon="9.937208"><ele>1024</ele></trkpt><trkpt lat="62.933398" lon="9.936542"><ele>1042</ele></trkpt><trkpt lat="62.933845" lon="9.936464"><ele>1055</ele></trkpt><trkpt lat="62.934292" lon="9.936387"><ele>1059</ele></trkpt><trkpt lat="62.934753" lon="9.936702"><ele>1067</ele></trkpt><trkpt lat="62.935200" lon="9.936625"><ele>1080</ele></trkpt><trkpt lat="62.935647" lon="9.936547"><ele>1089</ele></trkpt><trkpt lat="62.936094" lon="9.936470"><ele>1107</ele></trkpt><trkpt lat="62.936541" lon="9.936392"><ele>1109</ele></trkpt><trkpt lat="62.937002" lon="9.936707"><ele>1119</ele></trkpt><trkpt lat="62.937464" lon="9.937022"><ele>1121</ele></trkpt><trkpt lat="62.937918" lon="9.937141"><ele>1110</ele></trkpt><trkpt lat="62.938365" lon="9.937064"><ele>1113</ele></trkpt><trkpt lat="62.938812" lon="9.936986"><ele>1107</ele></trkpt><trkpt lat="62.939259" lon="9.936909"><ele>1100</ele></trkpt><trkpt lat="62.939741" lon="9.937813"><ele>1101</ele></trkpt><trkpt lat="62.940188" lon="9.937735"><ele>1119</ele></trkpt><trkpt lat="62.940635" lon="9.937658"><ele>1136</ele></trkpt><trkpt lat="62.941082" lon="9.937581"><ele>1145</ele></trkpt><trkpt lat="62.941529" lon="9.937503"><ele>1146</ele></trkpt><trkpt lat="62.942004" lon="9.938211"><ele>1153</ele></trkpt><trkpt lat="62.942472" lon="9.938722"><ele>1162</ele></trkpt><trkpt lat="62.942948" lon="9.939430"><ele>1176</ele></trkpt><trkpt lat="62.943395" lon="9.939353"><ele>1184</ele></trkpt><trkpt lat="62.943842" lon="9.939275"><ele>1187</ele></trkpt><trkpt lat="62.944289" lon="9.939198"><ele>1203</ele></trkpt><trkpt lat="62.944743" lon="9.939317"><ele>1212</ele></trkpt><trkpt lat="62.945100" lon="9.939255"><ele>1217</ele></trkpt></trkseg></trk><wpt lat="62.958226" lon="9.949034"><ele>938</ele><name>Run end · Ilfjellet 1217 m</name></wpt><trk><name>Down · Ilfjellet 1217 m</name><desc>fall-line run: 437 m of 20–30°, 182 m drop, aspect 23°, max 27°, 0.0% ≥30°; ends 6.95 km from the car.</desc><trkseg><trkpt lat="62.945100" lon="9.939255"><ele>1217</ele></trkpt><trkpt lat="62.951996" lon="9.943394"><ele>1120</ele></trkpt><trkpt lat="62.952196" lon="9.943952"><ele>1105</ele></trkpt><trkpt lat="62.952471" lon="9.944102"><ele>1099</ele></trkpt><trkpt lat="62.952761" lon="9.944645"><ele>1089</ele></trkpt><trkpt lat="62.952871" lon="9.945218"><ele>1082</ele></trkpt><trkpt lat="62.952892" lon="9.945807"><ele>1072</ele></trkpt><trkpt lat="62.952913" lon="9.946397"><ele>1062</ele></trkpt><trkpt lat="62.953024" lon="9.946970"><ele>1051</ele></trkpt><trkpt lat="62.953045" lon="9.947559"><ele>1039</ele></trkpt><trkpt lat="62.953313" lon="9.947513"><ele>1038</ele></trkpt><trkpt lat="62.953581" lon="9.947466"><ele>1035</ele></trkpt><trkpt lat="62.953857" lon="9.947616"><ele>1032</ele></trkpt><trkpt lat="62.954125" lon="9.947570"><ele>1026</ele></trkpt><trkpt lat="62.954393" lon="9.947524"><ele>1022</ele></trkpt><trkpt lat="62.954668" lon="9.947673"><ele>1014</ele></trkpt><trkpt lat="62.954951" lon="9.948020"><ele>1003</ele></trkpt><trkpt lat="62.955226" lon="9.948170"><ele>996</ele></trkpt><trkpt lat="62.955501" lon="9.948320"><ele>988</ele></trkpt><trkpt lat="62.955769" lon="9.948273"><ele>976</ele></trkpt><trkpt lat="62.956038" lon="9.948227"><ele>971</ele></trkpt><trkpt lat="62.956313" lon="9.948377"><ele>964</ele></trkpt><trkpt lat="62.956595" lon="9.948723"><ele>957</ele></trkpt><trkpt lat="62.956870" lon="9.948873"><ele>950</ele></trkpt><trkpt lat="62.957146" lon="9.949023"><ele>946</ele></trkpt><trkpt lat="62.957421" lon="9.949173"><ele>945</ele></trkpt><trkpt lat="62.957689" lon="9.949127"><ele>941</ele></trkpt><trkpt lat="62.957957" lon="9.949081"><ele>939</ele></trkpt><trkpt lat="62.958226" lon="9.949034"><ele>938</ele></trkpt><trkpt lat="62.958226" lon="9.949034"><ele>938</ele></trkpt></trkseg></trk></gpx>