<?xml version="1.0" encoding="UTF-8"?>
<gpx version="1.1" creator="Rando toppturs" xmlns="http://www.topografix.com/GPX/1/1"><metadata><name>072 Langfonnskarven 1375 m</name><desc>This is an automatically generated list. I have not checked them all. Do not attempt these if you're a beginner. Generated 2026-09-13 17:42 from Kartverket 10 m terrain. Ascent lines are least-cost terrain paths under 35°, not verified routes. Not a snow-stability assessment.</desc></metadata><wpt lat="62.454212" lon="9.674736"><ele>941</ele><name>Car · Langfonnskarven 1375 m</name></wpt><wpt lat="62.452677" lon="9.641786"><ele>1375</ele><name>Langfonnskarven 1375 m</name></wpt><trk><name>Up · Langfonnskarven 1375 m</name><desc>least-cost ascent: +435 m over 1798 m, max 30°, 0.0% on 30–35°, ≈1.54 h at 4 km/h + 400 m/h. Terrain possibility, not a checked route.</desc><trkseg><trkpt lat="62.454212" lon="9.674736"><ele>941</ele></trkpt><trkpt lat="62.454086" lon="9.673787"><ele>962</ele></trkpt><trkpt lat="62.453959" lon="9.672838"><ele>979</ele></trkpt><trkpt lat="62.453922" lon="9.671873"><ele>989</ele></trkpt><trkpt lat="62.453885" lon="9.670908"><ele>1004</ele></trkpt><trkpt lat="62.453848" lon="9.669943"><ele>1017</ele></trkpt><trkpt lat="62.453811" lon="9.668978"><ele>1031</ele></trkpt><trkpt lat="62.453774" lon="9.668013"><ele>1048</ele></trkpt><trkpt lat="62.453737" lon="9.667049"><ele>1071</ele></trkpt><trkpt lat="62.453701" lon="9.666084"><ele>1094</ele></trkpt><trkpt lat="62.453664" lon="9.665119"><ele>1114</ele></trkpt><trkpt lat="62.453716" lon="9.664138"><ele>1132</ele></trkpt><trkpt lat="62.453679" lon="9.663173"><ele>1152</ele></trkpt><trkpt lat="62.453642" lon="9.662208"><ele>1166</ele></trkpt><trkpt lat="62.453605" lon="9.661243"><ele>1176</ele></trkpt><trkpt lat="62.453568" lon="9.660279"><ele>1191</ele></trkpt><trkpt lat="62.453531" lon="9.659314"><ele>1203</ele></trkpt><trkpt lat="62.453494" lon="9.658349"><ele>1216</ele></trkpt><trkpt lat="62.453457" lon="9.657384"><ele>1229</ele></trkpt><trkpt lat="62.453420" lon="9.656419"><ele>1239</ele></trkpt><trkpt lat="62.453383" lon="9.655454"><ele>1254</ele></trkpt><trkpt lat="62.453256" lon="9.654506"><ele>1281</ele></trkpt><trkpt lat="62.453130" lon="9.653557"><ele>1295</ele></trkpt><trkpt lat="62.453093" lon="9.652592"><ele>1306</ele></trkpt><trkpt lat="62.453056" lon="9.651627"><ele>1313</ele></trkpt><trkpt lat="62.453018" lon="9.650662"><ele>1324</ele></trkpt><trkpt lat="62.452981" lon="9.649698"><ele>1331</ele></trkpt><trkpt lat="62.452944" lon="9.648733"><ele>1340</ele></trkpt><trkpt lat="62.452907" lon="9.647768"><ele>1349</ele></trkpt><trkpt lat="62.452870" lon="9.646803"><ele>1353</ele></trkpt><trkpt lat="62.452833" lon="9.645838"><ele>1361</ele></trkpt><trkpt lat="62.452796" lon="9.644874"><ele>1361</ele></trkpt><trkpt lat="62.452759" lon="9.643909"><ele>1364</ele></trkpt><trkpt lat="62.452721" lon="9.642944"><ele>1368</ele></trkpt><trkpt lat="62.452684" lon="9.641979"><ele>1374</ele></trkpt><trkpt lat="62.452677" lon="9.641786"><ele>1375</ele></trkpt></trkseg></trk><wpt lat="62.455911" lon="9.672101"><ele>939</ele><name>Run end · Langfonnskarven 1375 m</name></wpt><trk><name>Down · Langfonnskarven 1375 m</name><desc>fall-line run: 437 m of 20–30°, 344 m drop, aspect 66°, max 31°, 1.1% ≥30°; ends 0.23 km from the car.</desc><trkseg><trkpt lat="62.452677" lon="9.641786"><ele>1375</ele></trkpt><trkpt lat="62.451759" lon="9.655357"><ele>1283</ele></trkpt><trkpt lat="62.451781" lon="9.655935"><ele>1272</ele></trkpt><trkpt lat="62.451982" lon="9.656482"><ele>1260</ele></trkpt><trkpt lat="62.452183" lon="9.657029"><ele>1251</ele></trkpt><trkpt lat="62.452474" lon="9.657560"><ele>1238</ele></trkpt><trkpt lat="62.452585" lon="9.658123"><ele>1230</ele></trkpt><trkpt lat="62.452607" lon="9.658702"><ele>1223</ele></trkpt><trkpt lat="62.452630" lon="9.659281"><ele>1216</ele></trkpt><trkpt lat="62.452652" lon="9.659860"><ele>1209</ele></trkpt><trkpt lat="62.452674" lon="9.660438"><ele>1198</ele></trkpt><trkpt lat="62.452696" lon="9.661017"><ele>1191</ele></trkpt><trkpt lat="62.452897" lon="9.661564"><ele>1181</ele></trkpt><trkpt lat="62.453009" lon="9.662127"><ele>1172</ele></trkpt><trkpt lat="62.453031" lon="9.662706"><ele>1167</ele></trkpt><trkpt lat="62.453232" lon="9.663253"><ele>1157</ele></trkpt><trkpt lat="62.453344" lon="9.663816"><ele>1143</ele></trkpt><trkpt lat="62.453366" lon="9.664395"><ele>1131</ele></trkpt><trkpt lat="62.453567" lon="9.664942"><ele>1119</ele></trkpt><trkpt lat="62.453589" lon="9.665521"><ele>1107</ele></trkpt><trkpt lat="62.453611" lon="9.666100"><ele>1095</ele></trkpt><trkpt lat="62.453633" lon="9.666679"><ele>1080</ele></trkpt><trkpt lat="62.453656" lon="9.667257"><ele>1068</ele></trkpt><trkpt lat="62.453678" lon="9.667836"><ele>1053</ele></trkpt><trkpt lat="62.453879" lon="9.668383"><ele>1041</ele></trkpt><trkpt lat="62.454080" lon="9.668930"><ele>1025</ele></trkpt><trkpt lat="62.454370" lon="9.669461"><ele>1013</ele></trkpt><trkpt lat="62.454571" lon="9.670008"><ele>1003</ele></trkpt><trkpt lat="62.454861" lon="9.670539"><ele>989</ele></trkpt><trkpt lat="62.455151" lon="9.671070"><ele>978</ele></trkpt><trkpt lat="62.455427" lon="9.671216"><ele>972</ele></trkpt><trkpt lat="62.455717" lon="9.671747"><ele>955</ele></trkpt><trkpt lat="62.455911" lon="9.672101"><ele>939</ele></trkpt></trkseg></trk></gpx>