<?xml version="1.0" encoding="UTF-8"?>
<gpx version="1.1" creator="Rando toppturs" xmlns="http://www.topografix.com/GPX/1/1"><metadata><name>080 Gråfjellet 1240 m</name><desc>This is an automatically generated list. I have not checked them all. Do not attempt these if you're a beginner. Generated 2026-09-13 17:42 from Kartverket 10 m terrain. Ascent lines are least-cost terrain paths under 35°, not verified routes. Not a snow-stability assessment.</desc></metadata><wpt lat="62.842421" lon="9.606976"><ele>814</ele><name>Car · Gråfjellet 1240 m</name></wpt><wpt lat="62.830143" lon="9.515357"><ele>1240</ele><name>Gråfjellet 1240 m</name></wpt><trk><name>Up · Gråfjellet 1240 m</name><desc>least-cost ascent: +487 m over 5220 m, max 20°, 0.0% on 30–35°, ≈2.52 h at 4 km/h + 400 m/h. Terrain possibility, not a checked route.</desc><trkseg><trkpt lat="62.842421" lon="9.606976"><ele>814</ele></trkpt><trkpt lat="62.842204" lon="9.606032"><ele>808</ele></trkpt><trkpt lat="62.842077" lon="9.605071"><ele>807</ele></trkpt><trkpt lat="62.841593" lon="9.604175"><ele>808</ele></trkpt><trkpt lat="62.841109" lon="9.603280"><ele>810</ele></trkpt><trkpt lat="62.840624" lon="9.602385"><ele>813</ele></trkpt><trkpt lat="62.840140" lon="9.601490"><ele>816</ele></trkpt><trkpt lat="62.839656" lon="9.600594"><ele>816</ele></trkpt><trkpt lat="62.839171" lon="9.599699"><ele>817</ele></trkpt><trkpt lat="62.838687" lon="9.598804"><ele>819</ele></trkpt><trkpt lat="62.838203" lon="9.597909"><ele>820</ele></trkpt><trkpt lat="62.837718" lon="9.597014"><ele>824</ele></trkpt><trkpt lat="62.837234" lon="9.596119"><ele>829</ele></trkpt><trkpt lat="62.836749" lon="9.595224"><ele>835</ele></trkpt><trkpt lat="62.836265" lon="9.594329"><ele>837</ele></trkpt><trkpt lat="62.835781" lon="9.593434"><ele>843</ele></trkpt><trkpt lat="62.835296" lon="9.592539"><ele>844</ele></trkpt><trkpt lat="62.834812" lon="9.591644"><ele>848</ele></trkpt><trkpt lat="62.834327" lon="9.590749"><ele>848</ele></trkpt><trkpt lat="62.834022" lon="9.589821"><ele>851</ele></trkpt><trkpt lat="62.833984" lon="9.588844"><ele>856</ele></trkpt><trkpt lat="62.833946" lon="9.587867"><ele>857</ele></trkpt><trkpt lat="62.833909" lon="9.586890"><ele>859</ele></trkpt><trkpt lat="62.833692" lon="9.585946"><ele>874</ele></trkpt><trkpt lat="62.833655" lon="9.584969"><ele>877</ele></trkpt><trkpt lat="62.833617" lon="9.583991"><ele>879</ele></trkpt><trkpt lat="62.833579" lon="9.583014"><ele>876</ele></trkpt><trkpt lat="62.833542" lon="9.582037"><ele>879</ele></trkpt><trkpt lat="62.833504" lon="9.581060"><ele>877</ele></trkpt><trkpt lat="62.833466" lon="9.580083"><ele>875</ele></trkpt><trkpt lat="62.833429" lon="9.579106"><ele>876</ele></trkpt><trkpt lat="62.833391" lon="9.578128"><ele>883</ele></trkpt><trkpt lat="62.833353" lon="9.577151"><ele>887</ele></trkpt><trkpt lat="62.833315" lon="9.576174"><ele>891</ele></trkpt><trkpt lat="62.833278" lon="9.575197"><ele>897</ele></trkpt><trkpt lat="62.833240" lon="9.574220"><ele>904</ele></trkpt><trkpt lat="62.833202" lon="9.573243"><ele>907</ele></trkpt><trkpt lat="62.833164" lon="9.572266"><ele>907</ele></trkpt><trkpt lat="62.833127" lon="9.571289"><ele>909</ele></trkpt><trkpt lat="62.833089" lon="9.570312"><ele>911</ele></trkpt><trkpt lat="62.833051" lon="9.569334"><ele>912</ele></trkpt><trkpt lat="62.833013" lon="9.568357"><ele>910</ele></trkpt><trkpt lat="62.832975" lon="9.567380"><ele>917</ele></trkpt><trkpt lat="62.832938" lon="9.566403"><ele>922</ele></trkpt><trkpt lat="62.832810" lon="9.565443"><ele>923</ele></trkpt><trkpt lat="62.832773" lon="9.564465"><ele>929</ele></trkpt><trkpt lat="62.832735" lon="9.563488"><ele>938</ele></trkpt><trkpt lat="62.832697" lon="9.562511"><ele>938</ele></trkpt><trkpt lat="62.832659" lon="9.561534"><ele>942</ele></trkpt><trkpt lat="62.832621" lon="9.560557"><ele>945</ele></trkpt><trkpt lat="62.832583" lon="9.559580"><ele>954</ele></trkpt><trkpt lat="62.832546" lon="9.558603"><ele>950</ele></trkpt><trkpt lat="62.832508" lon="9.557626"><ele>948</ele></trkpt><trkpt lat="62.832470" lon="9.556649"><ele>942</ele></trkpt><trkpt lat="62.832432" lon="9.555672"><ele>932</ele></trkpt><trkpt lat="62.832394" lon="9.554695"><ele>929</ele></trkpt><trkpt lat="62.832356" lon="9.553718"><ele>930</ele></trkpt><trkpt lat="62.832318" lon="9.552741"><ele>941</ele></trkpt><trkpt lat="62.832280" lon="9.551763"><ele>945</ele></trkpt><trkpt lat="62.832243" lon="9.550786"><ele>947</ele></trkpt><trkpt lat="62.832205" lon="9.549809"><ele>946</ele></trkpt><trkpt lat="62.832167" lon="9.548832"><ele>944</ele></trkpt><trkpt lat="62.832129" lon="9.547855"><ele>949</ele></trkpt><trkpt lat="62.832091" lon="9.546878"><ele>961</ele></trkpt><trkpt lat="62.832053" lon="9.545901"><ele>968</ele></trkpt><trkpt lat="62.832015" lon="9.544924"><ele>981</ele></trkpt><trkpt lat="62.831977" lon="9.543947"><ele>990</ele></trkpt><trkpt lat="62.831939" lon="9.542970"><ele>1002</ele></trkpt><trkpt lat="62.831901" lon="9.541993"><ele>1007</ele></trkpt><trkpt lat="62.831863" lon="9.541016"><ele>1014</ele></trkpt><trkpt lat="62.831825" lon="9.540039"><ele>1025</ele></trkpt><trkpt lat="62.831787" lon="9.539062"><ele>1037</ele></trkpt><trkpt lat="62.831749" lon="9.538085"><ele>1044</ele></trkpt><trkpt lat="62.831711" lon="9.537108"><ele>1053</ele></trkpt><trkpt lat="62.831673" lon="9.536131"><ele>1062</ele></trkpt><trkpt lat="62.831635" lon="9.535154"><ele>1072</ele></trkpt><trkpt lat="62.831597" lon="9.534177"><ele>1081</ele></trkpt><trkpt lat="62.831559" lon="9.533200"><ele>1090</ele></trkpt><trkpt lat="62.831521" lon="9.532223"><ele>1102</ele></trkpt><trkpt lat="62.831483" lon="9.531246"><ele>1112</ele></trkpt><trkpt lat="62.831445" lon="9.530269"><ele>1119</ele></trkpt><trkpt lat="62.831407" lon="9.529292"><ele>1128</ele></trkpt><trkpt lat="62.831369" lon="9.528315"><ele>1141</ele></trkpt><trkpt lat="62.831331" lon="9.527338"><ele>1154</ele></trkpt><trkpt lat="62.831293" lon="9.526361"><ele>1168</ele></trkpt><trkpt lat="62.831076" lon="9.525417"><ele>1184</ele></trkpt><trkpt lat="62.830948" lon="9.524457"><ele>1194</ele></trkpt><trkpt lat="62.830910" lon="9.523480"><ele>1202</ele></trkpt><trkpt lat="62.830872" lon="9.522503"><ele>1210</ele></trkpt><trkpt lat="62.830834" lon="9.521526"><ele>1215</ele></trkpt><trkpt lat="62.830796" lon="9.520549"><ele>1222</ele></trkpt><trkpt lat="62.830758" lon="9.519572"><ele>1224</ele></trkpt><trkpt lat="62.830720" lon="9.518595"><ele>1222</ele></trkpt><trkpt lat="62.830681" lon="9.517618"><ele>1221</ele></trkpt><trkpt lat="62.830643" lon="9.516641"><ele>1227</ele></trkpt><trkpt lat="62.830337" lon="9.515715"><ele>1237</ele></trkpt><trkpt lat="62.830143" lon="9.515357"><ele>1240</ele></trkpt></trkseg></trk><wpt lat="62.832681" lon="9.506616"><ele>1029</ele><name>Run end · Gråfjellet 1240 m</name></wpt><trk><name>Down · Gråfjellet 1240 m</name><desc>fall-line run: 403 m of 20–30°, 181 m drop, aspect 321°, max 32°, 5.3% ≥30°; ends 5.23 km from the car.</desc><trkseg><trkpt lat="62.830143" lon="9.515357"><ele>1240</ele></trkpt><trkpt lat="62.829842" lon="9.512264"><ele>1210</ele></trkpt><trkpt lat="62.829909" lon="9.511662"><ele>1197</ele></trkpt><trkpt lat="62.830065" lon="9.511042"><ele>1189</ele></trkpt><trkpt lat="62.830310" lon="9.510406"><ele>1179</ele></trkpt><trkpt lat="62.830555" lon="9.509769"><ele>1161</ele></trkpt><trkpt lat="62.830800" lon="9.509133"><ele>1143</ele></trkpt><trkpt lat="62.831045" lon="9.508497"><ele>1126</ele></trkpt><trkpt lat="62.831290" lon="9.507861"><ele>1107</ele></trkpt><trkpt lat="62.831543" lon="9.507420"><ele>1088</ele></trkpt><trkpt lat="62.831796" lon="9.506979"><ele>1072</ele></trkpt><trkpt lat="62.832064" lon="9.506929"><ele>1060</ele></trkpt><trkpt lat="62.832332" lon="9.506878"><ele>1046</ele></trkpt><trkpt lat="62.832600" lon="9.506828"><ele>1035</ele></trkpt><trkpt lat="62.832681" lon="9.506616"><ele>1029</ele></trkpt></trkseg></trk></gpx>