<?xml version="1.0" encoding="UTF-8"?>
<gpx version="1.1" creator="Rando toppturs" xmlns="http://www.topografix.com/GPX/1/1"><metadata><name>081 Korgtjønntangen 1292 m</name><desc>This is an automatically generated list. I have not checked them all. Do not attempt these if you're a beginner. Generated 2026-09-13 17:42 from Kartverket 10 m terrain. Ascent lines are least-cost terrain paths under 35°, not verified routes. Not a snow-stability assessment.</desc></metadata><wpt lat="62.659299" lon="9.278770"><ele>598</ele><name>Car · Korgtjønntangen 1292 m</name></wpt><wpt lat="62.677417" lon="9.312470"><ele>1292</ele><name>Korgtjønntangen 1292 m</name></wpt><trk><name>Up · Korgtjønntangen 1292 m</name><desc>least-cost ascent: +694 m over 2956 m, max 25°, 0.0% on 30–35°, ≈2.47 h at 4 km/h + 400 m/h. Terrain possibility, not a checked route.</desc><trkseg><trkpt lat="62.659299" lon="9.278770"><ele>598</ele></trkpt><trkpt lat="62.659745" lon="9.278683"><ele>604</ele></trkpt><trkpt lat="62.660192" lon="9.278597"><ele>610</ele></trkpt><trkpt lat="62.660638" lon="9.278511"><ele>616</ele></trkpt><trkpt lat="62.661085" lon="9.278424"><ele>624</ele></trkpt><trkpt lat="62.661532" lon="9.278338"><ele>631</ele></trkpt><trkpt lat="62.661978" lon="9.278251"><ele>635</ele></trkpt><trkpt lat="62.662464" lon="9.279136"><ele>652</ele></trkpt><trkpt lat="62.662951" lon="9.280021"><ele>672</ele></trkpt><trkpt lat="62.663258" lon="9.280940"><ele>691</ele></trkpt><trkpt lat="62.663745" lon="9.281824"><ele>717</ele></trkpt><trkpt lat="62.664231" lon="9.282709"><ele>746</ele></trkpt><trkpt lat="62.664717" lon="9.283594"><ele>770</ele></trkpt><trkpt lat="62.665114" lon="9.284496"><ele>792</ele></trkpt><trkpt lat="62.665243" lon="9.285450"><ele>807</ele></trkpt><trkpt lat="62.665372" lon="9.286403"><ele>822</ele></trkpt><trkpt lat="62.665501" lon="9.287357"><ele>836</ele></trkpt><trkpt lat="62.665541" lon="9.288328"><ele>847</ele></trkpt><trkpt lat="62.665580" lon="9.289300"><ele>860</ele></trkpt><trkpt lat="62.665709" lon="9.290253"><ele>873</ele></trkpt><trkpt lat="62.665838" lon="9.291207"><ele>885</ele></trkpt><trkpt lat="62.666325" lon="9.292092"><ele>904</ele></trkpt><trkpt lat="62.666811" lon="9.292977"><ele>924</ele></trkpt><trkpt lat="62.667297" lon="9.293862"><ele>945</ele></trkpt><trkpt lat="62.667515" lon="9.294799"><ele>958</ele></trkpt><trkpt lat="62.668002" lon="9.295684"><ele>974</ele></trkpt><trkpt lat="62.668488" lon="9.296569"><ele>994</ele></trkpt><trkpt lat="62.668885" lon="9.297471"><ele>1016</ele></trkpt><trkpt lat="62.669371" lon="9.298356"><ele>1039</ele></trkpt><trkpt lat="62.669857" lon="9.299241"><ele>1059</ele></trkpt><trkpt lat="62.670343" lon="9.300127"><ele>1079</ele></trkpt><trkpt lat="62.670829" lon="9.301012"><ele>1100</ele></trkpt><trkpt lat="62.671315" lon="9.301897"><ele>1118</ele></trkpt><trkpt lat="62.671794" lon="9.302588"><ele>1139</ele></trkpt><trkpt lat="62.672264" lon="9.303085"><ele>1156</ele></trkpt><trkpt lat="62.672750" lon="9.303970"><ele>1174</ele></trkpt><trkpt lat="62.673236" lon="9.304855"><ele>1190</ele></trkpt><trkpt lat="62.673722" lon="9.305741"><ele>1203</ele></trkpt><trkpt lat="62.674208" lon="9.306626"><ele>1218</ele></trkpt><trkpt lat="62.674695" lon="9.307511"><ele>1229</ele></trkpt><trkpt lat="62.675181" lon="9.308397"><ele>1242</ele></trkpt><trkpt lat="62.675667" lon="9.309282"><ele>1256</ele></trkpt><trkpt lat="62.676153" lon="9.310168"><ele>1270</ele></trkpt><trkpt lat="62.676639" lon="9.311053"><ele>1281</ele></trkpt><trkpt lat="62.677125" lon="9.311939"><ele>1288</ele></trkpt><trkpt lat="62.677417" lon="9.312470"><ele>1292</ele></trkpt></trkseg></trk><wpt lat="62.666039" lon="9.293909"><ele>884</ele><name>Run end · Korgtjønntangen 1292 m</name></wpt><trk><name>Down · Korgtjønntangen 1292 m</name><desc>fall-line run: 403 m of 20–30°, 273 m drop, aspect 227°, max 27°, 0.0% ≥30°; ends 1.08 km from the car.</desc><trkseg><trkpt lat="62.677417" lon="9.312470"><ele>1292</ele></trkpt><trkpt lat="62.672188" lon="9.305645"><ele>1157</ele></trkpt><trkpt lat="62.671920" lon="9.305696"><ele>1145</ele></trkpt><trkpt lat="62.671652" lon="9.305748"><ele>1135</ele></trkpt><trkpt lat="62.671384" lon="9.305800"><ele>1126</ele></trkpt><trkpt lat="62.671101" lon="9.305463"><ele>1117</ele></trkpt><trkpt lat="62.670825" lon="9.305320"><ele>1108</ele></trkpt><trkpt lat="62.670533" lon="9.304789"><ele>1100</ele></trkpt><trkpt lat="62.670265" lon="9.304841"><ele>1091</ele></trkpt><trkpt lat="62.669997" lon="9.304892"><ele>1078</ele></trkpt><trkpt lat="62.669721" lon="9.304750"><ele>1070</ele></trkpt><trkpt lat="62.669453" lon="9.304801"><ele>1056</ele></trkpt><trkpt lat="62.669178" lon="9.304659"><ele>1049</ele></trkpt><trkpt lat="62.668894" lon="9.304322"><ele>1041</ele></trkpt><trkpt lat="62.668602" lon="9.303791"><ele>1031</ele></trkpt><trkpt lat="62.668489" lon="9.303225"><ele>1024</ele></trkpt><trkpt lat="62.668287" lon="9.302677"><ele>1018</ele></trkpt><trkpt lat="62.668174" lon="9.302111"><ele>1012</ele></trkpt><trkpt lat="62.668061" lon="9.301546"><ele>1007</ele></trkpt><trkpt lat="62.667858" lon="9.300997"><ele>1001</ele></trkpt><trkpt lat="62.667834" lon="9.300415"><ele>992</ele></trkpt><trkpt lat="62.667721" lon="9.299849"><ele>986</ele></trkpt><trkpt lat="62.667608" lon="9.299284"><ele>979</ele></trkpt><trkpt lat="62.667495" lon="9.298718"><ele>973</ele></trkpt><trkpt lat="62.667382" lon="9.298153"><ele>965</ele></trkpt><trkpt lat="62.667358" lon="9.297570"><ele>957</ele></trkpt><trkpt lat="62.667245" lon="9.297004"><ele>950</ele></trkpt><trkpt lat="62.667132" lon="9.296439"><ele>943</ele></trkpt><trkpt lat="62.666840" lon="9.295908"><ele>930</ele></trkpt><trkpt lat="62.666549" lon="9.295377"><ele>912</ele></trkpt><trkpt lat="62.666436" lon="9.294811"><ele>902</ele></trkpt><trkpt lat="62.666233" lon="9.294263"><ele>893</ele></trkpt><trkpt lat="62.666039" lon="9.293909"><ele>884</ele></trkpt><trkpt lat="62.666039" lon="9.293909"><ele>884</ele></trkpt></trkseg></trk></gpx>