<?xml version="1.0" encoding="UTF-8"?>
<gpx version="1.1" creator="Rando toppturs" xmlns="http://www.topografix.com/GPX/1/1"><metadata><name>082 Blåfjellet 1716 m</name><desc>This is an automatically generated list. I have not checked them all. Do not attempt these if you're a beginner. Generated 2026-09-13 17:42 from Kartverket 10 m terrain. Ascent lines are least-cost terrain paths under 35°, not verified routes. Not a snow-stability assessment.</desc></metadata><wpt lat="62.499698" lon="9.095508"><ele>744</ele><name>Car · Blåfjellet 1716 m</name></wpt><wpt lat="62.480530" lon="9.183361"><ele>1716</ele><name>Blåfjellet 1716 m</name></wpt><trk><name>Up · Blåfjellet 1716 m</name><desc>least-cost ascent: +1000 m over 5649 m, max 31°, 0.2% on 30–35°, ≈3.91 h at 4 km/h + 400 m/h. Terrain possibility, not a checked route.</desc><trkseg><trkpt lat="62.499698" lon="9.095508"><ele>744</ele></trkpt><trkpt lat="62.499739" lon="9.096473"><ele>748</ele></trkpt><trkpt lat="62.499601" lon="9.097474"><ele>753</ele></trkpt><trkpt lat="62.499642" lon="9.098439"><ele>756</ele></trkpt><trkpt lat="62.499594" lon="9.099423"><ele>758</ele></trkpt><trkpt lat="62.499278" lon="9.100459"><ele>759</ele></trkpt><trkpt lat="62.498872" lon="9.101513"><ele>769</ele></trkpt><trkpt lat="62.498467" lon="9.102566"><ele>779</ele></trkpt><trkpt lat="62.498061" lon="9.103620"><ele>786</ele></trkpt><trkpt lat="62.497655" lon="9.104674"><ele>797</ele></trkpt><trkpt lat="62.497250" lon="9.105728"><ele>803</ele></trkpt><trkpt lat="62.496844" lon="9.106781"><ele>811</ele></trkpt><trkpt lat="62.496439" lon="9.107835"><ele>817</ele></trkpt><trkpt lat="62.496123" lon="9.108871"><ele>832</ele></trkpt><trkpt lat="62.496163" lon="9.109836"><ele>831</ele></trkpt><trkpt lat="62.495758" lon="9.110890"><ele>838</ele></trkpt><trkpt lat="62.495352" lon="9.111944"><ele>845</ele></trkpt><trkpt lat="62.494947" lon="9.112997"><ele>857</ele></trkpt><trkpt lat="62.494541" lon="9.114051"><ele>868</ele></trkpt><trkpt lat="62.494135" lon="9.115104"><ele>878</ele></trkpt><trkpt lat="62.493998" lon="9.116105"><ele>878</ele></trkpt><trkpt lat="62.494038" lon="9.117070"><ele>879</ele></trkpt><trkpt lat="62.494079" lon="9.118035"><ele>879</ele></trkpt><trkpt lat="62.494120" lon="9.119001"><ele>878</ele></trkpt><trkpt lat="62.494161" lon="9.119966"><ele>878</ele></trkpt><trkpt lat="62.494202" lon="9.120931"><ele>879</ele></trkpt><trkpt lat="62.494242" lon="9.121896"><ele>881</ele></trkpt><trkpt lat="62.494283" lon="9.122862"><ele>882</ele></trkpt><trkpt lat="62.494324" lon="9.123827"><ele>882</ele></trkpt><trkpt lat="62.494365" lon="9.124792"><ele>881</ele></trkpt><trkpt lat="62.494405" lon="9.125757"><ele>881</ele></trkpt><trkpt lat="62.494446" lon="9.126723"><ele>885</ele></trkpt><trkpt lat="62.494487" lon="9.127688"><ele>886</ele></trkpt><trkpt lat="62.494438" lon="9.128671"><ele>891</ele></trkpt><trkpt lat="62.494479" lon="9.129636"><ele>891</ele></trkpt><trkpt lat="62.494520" lon="9.130601"><ele>895</ele></trkpt><trkpt lat="62.494560" lon="9.131567"><ele>895</ele></trkpt><trkpt lat="62.494601" lon="9.132532"><ele>892</ele></trkpt><trkpt lat="62.494642" lon="9.133497"><ele>894</ele></trkpt><trkpt lat="62.494682" lon="9.134463"><ele>898</ele></trkpt><trkpt lat="62.494723" lon="9.135428"><ele>898</ele></trkpt><trkpt lat="62.494764" lon="9.136393"><ele>900</ele></trkpt><trkpt lat="62.494805" lon="9.137359"><ele>904</ele></trkpt><trkpt lat="62.494577" lon="9.138377"><ele>913</ele></trkpt><trkpt lat="62.494171" lon="9.139430"><ele>925</ele></trkpt><trkpt lat="62.493766" lon="9.140483"><ele>939</ele></trkpt><trkpt lat="62.493360" lon="9.141536"><ele>954</ele></trkpt><trkpt lat="62.492954" lon="9.142589"><ele>982</ele></trkpt><trkpt lat="62.492548" lon="9.143642"><ele>1004</ele></trkpt><trkpt lat="62.492142" lon="9.144695"><ele>1026</ele></trkpt><trkpt lat="62.491728" lon="9.145555"><ele>1045</ele></trkpt><trkpt lat="62.491323" lon="9.146608"><ele>1066</ele></trkpt><trkpt lat="62.490909" lon="9.147468"><ele>1086</ele></trkpt><trkpt lat="62.490470" lon="9.147749"><ele>1110</ele></trkpt><trkpt lat="62.490024" lon="9.147837"><ele>1132</ele></trkpt><trkpt lat="62.489577" lon="9.147924"><ele>1155</ele></trkpt><trkpt lat="62.489147" lon="9.148398"><ele>1177</ele></trkpt><trkpt lat="62.488822" lon="9.149241"><ele>1205</ele></trkpt><trkpt lat="62.488416" lon="9.150293"><ele>1219</ele></trkpt><trkpt lat="62.488011" lon="9.151346"><ele>1232</ele></trkpt><trkpt lat="62.487605" lon="9.152399"><ele>1259</ele></trkpt><trkpt lat="62.487199" lon="9.153452"><ele>1298</ele></trkpt><trkpt lat="62.487239" lon="9.154417"><ele>1323</ele></trkpt><trkpt lat="62.487191" lon="9.155399"><ele>1347</ele></trkpt><trkpt lat="62.487231" lon="9.156365"><ele>1372</ele></trkpt><trkpt lat="62.486914" lon="9.157400"><ele>1408</ele></trkpt><trkpt lat="62.486955" lon="9.158365"><ele>1431</ele></trkpt><trkpt lat="62.486817" lon="9.159365"><ele>1452</ele></trkpt><trkpt lat="62.486590" lon="9.160383"><ele>1480</ele></trkpt><trkpt lat="62.486175" lon="9.161242"><ele>1508</ele></trkpt><trkpt lat="62.486037" lon="9.162242"><ele>1522</ele></trkpt><trkpt lat="62.485810" lon="9.163260"><ele>1542</ele></trkpt><trkpt lat="62.485850" lon="9.164225"><ele>1552</ele></trkpt><trkpt lat="62.485891" lon="9.165190"><ele>1560</ele></trkpt><trkpt lat="62.485931" lon="9.166155"><ele>1571</ele></trkpt><trkpt lat="62.485972" lon="9.167120"><ele>1577</ele></trkpt><trkpt lat="62.486012" lon="9.168085"><ele>1582</ele></trkpt><trkpt lat="62.485963" lon="9.169068"><ele>1587</ele></trkpt><trkpt lat="62.485557" lon="9.170120"><ele>1600</ele></trkpt><trkpt lat="62.485151" lon="9.171173"><ele>1612</ele></trkpt><trkpt lat="62.484745" lon="9.172225"><ele>1617</ele></trkpt><trkpt lat="62.484428" lon="9.173260"><ele>1634</ele></trkpt><trkpt lat="62.484022" lon="9.174312"><ele>1643</ele></trkpt><trkpt lat="62.483616" lon="9.175365"><ele>1649</ele></trkpt><trkpt lat="62.483210" lon="9.176417"><ele>1663</ele></trkpt><trkpt lat="62.482804" lon="9.177469"><ele>1676</ele></trkpt><trkpt lat="62.482398" lon="9.178521"><ele>1688</ele></trkpt><trkpt lat="62.481992" lon="9.179574"><ele>1696</ele></trkpt><trkpt lat="62.481586" lon="9.180626"><ele>1704</ele></trkpt><trkpt lat="62.481180" lon="9.181678"><ele>1711</ele></trkpt><trkpt lat="62.480774" lon="9.182730"><ele>1714</ele></trkpt><trkpt lat="62.480530" lon="9.183361"><ele>1716</ele></trkpt></trkseg></trk><wpt lat="62.475494" lon="9.192125"><ele>1520</ele><name>Run end · Blåfjellet 1716 m</name></wpt><trk><name>Down · Blåfjellet 1716 m</name><desc>fall-line run: 402 m of 20–30°, 137 m drop, aspect 155°, max 24°, 0.0% ≥30°; ends 5.67 km from the car.</desc><trkseg><trkpt lat="62.480530" lon="9.183361"><ele>1716</ele></trkpt><trkpt lat="62.478052" lon="9.188709"><ele>1657</ele></trkpt><trkpt lat="62.477801" lon="9.189147"><ele>1643</ele></trkpt><trkpt lat="62.477541" lon="9.189392"><ele>1630</ele></trkpt><trkpt lat="62.477273" lon="9.189444"><ele>1620</ele></trkpt><trkpt lat="62.477005" lon="9.189497"><ele>1608</ele></trkpt><trkpt lat="62.476745" lon="9.189742"><ele>1595</ele></trkpt><trkpt lat="62.476485" lon="9.189987"><ele>1581</ele></trkpt><trkpt lat="62.476226" lon="9.190232"><ele>1569</ele></trkpt><trkpt lat="62.475982" lon="9.190863"><ele>1553</ele></trkpt><trkpt lat="62.475738" lon="9.191494"><ele>1537</ele></trkpt><trkpt lat="62.475494" lon="9.192125"><ele>1520</ele></trkpt><trkpt lat="62.475494" lon="9.192125"><ele>1520</ele></trkpt></trkseg></trk></gpx>