<?xml version="1.0" encoding="UTF-8"?>
<gpx version="1.1" creator="Rando toppturs" xmlns="http://www.topografix.com/GPX/1/1"><metadata><name>083 Graslitinden 1521 m</name><desc>This is an automatically generated list. I have not checked them all. Do not attempt these if you're a beginner. Generated 2026-09-13 17:42 from Kartverket 10 m terrain. Ascent lines are least-cost terrain paths under 35°, not verified routes. Not a snow-stability assessment.</desc></metadata><wpt lat="62.570027" lon="9.132066"><ele>208</ele><name>Car · Graslitinden 1521 m</name></wpt><wpt lat="62.604590" lon="9.055271"><ele>1521</ele><name>Graslitinden 1521 m</name></wpt><trk><name>Up · Graslitinden 1521 m</name><desc>least-cost ascent: +1379 m over 6463 m, max 35°, 5.3% on 30–35°, ≈5.06 h at 4 km/h + 400 m/h. Terrain possibility, not a checked route.</desc><trkseg><trkpt lat="62.570027" lon="9.132066"><ele>208</ele></trkpt><trkpt lat="62.570254" lon="9.131045"><ele>235</ele></trkpt><trkpt lat="62.570571" lon="9.130006"><ele>255</ele></trkpt><trkpt lat="62.570977" lon="9.128950"><ele>282</ele></trkpt><trkpt lat="62.571382" lon="9.127894"><ele>314</ele></trkpt><trkpt lat="62.571796" lon="9.127032"><ele>349</ele></trkpt><trkpt lat="62.572218" lon="9.126363"><ele>380</ele></trkpt><trkpt lat="62.572632" lon="9.125500"><ele>421</ele></trkpt><trkpt lat="62.573086" lon="9.125605"><ele>444</ele></trkpt><trkpt lat="62.573549" lon="9.125904"><ele>477</ele></trkpt><trkpt lat="62.573979" lon="9.125428"><ele>512</ele></trkpt><trkpt lat="62.574418" lon="9.125146"><ele>536</ele></trkpt><trkpt lat="62.574848" lon="9.124671"><ele>557</ele></trkpt><trkpt lat="62.575302" lon="9.124776"><ele>585</ele></trkpt><trkpt lat="62.575749" lon="9.124688"><ele>617</ele></trkpt><trkpt lat="62.576203" lon="9.124793"><ele>645</ele></trkpt><trkpt lat="62.576650" lon="9.124704"><ele>668</ele></trkpt><trkpt lat="62.577096" lon="9.124616"><ele>689</ele></trkpt><trkpt lat="62.577559" lon="9.124915"><ele>709</ele></trkpt><trkpt lat="62.577949" lon="9.125618"><ele>724</ele></trkpt><trkpt lat="62.578395" lon="9.125530"><ele>752</ele></trkpt><trkpt lat="62.578817" lon="9.124861"><ele>772</ele></trkpt><trkpt lat="62.579231" lon="9.123998"><ele>781</ele></trkpt><trkpt lat="62.579645" lon="9.123135"><ele>778</ele></trkpt><trkpt lat="62.579872" lon="9.122114"><ele>801</ele></trkpt><trkpt lat="62.580188" lon="9.121075"><ele>803</ele></trkpt><trkpt lat="62.580626" lon="9.120793"><ele>794</ele></trkpt><trkpt lat="62.581048" lon="9.120124"><ele>815</ele></trkpt><trkpt lat="62.581454" lon="9.119067"><ele>831</ele></trkpt><trkpt lat="62.581778" lon="9.118222"><ele>841</ele></trkpt><trkpt lat="62.581916" lon="9.117218"><ele>872</ele></trkpt><trkpt lat="62.582330" lon="9.116355"><ele>896</ele></trkpt><trkpt lat="62.582468" lon="9.115352"><ele>907</ele></trkpt><trkpt lat="62.582427" lon="9.114384"><ele>916</ele></trkpt><trkpt lat="62.582386" lon="9.113416"><ele>923</ele></trkpt><trkpt lat="62.582345" lon="9.112447"><ele>930</ele></trkpt><trkpt lat="62.582304" lon="9.111479"><ele>935</ele></trkpt><trkpt lat="62.582263" lon="9.110511"><ele>938</ele></trkpt><trkpt lat="62.582223" lon="9.109543"><ele>943</ele></trkpt><trkpt lat="62.582182" lon="9.108575"><ele>948</ele></trkpt><trkpt lat="62.582141" lon="9.107607"><ele>949</ele></trkpt><trkpt lat="62.582457" lon="9.106568"><ele>945</ele></trkpt><trkpt lat="62.582862" lon="9.105511"><ele>942</ele></trkpt><trkpt lat="62.583268" lon="9.104454"><ele>942</ele></trkpt><trkpt lat="62.583673" lon="9.103397"><ele>945</ele></trkpt><trkpt lat="62.584079" lon="9.102341"><ele>949</ele></trkpt><trkpt lat="62.584484" lon="9.101284"><ele>961</ele></trkpt><trkpt lat="62.584890" lon="9.100227"><ele>966</ele></trkpt><trkpt lat="62.585295" lon="9.099170"><ele>972</ele></trkpt><trkpt lat="62.585701" lon="9.098113"><ele>977</ele></trkpt><trkpt lat="62.586106" lon="9.097056"><ele>980</ele></trkpt><trkpt lat="62.586512" lon="9.095998"><ele>987</ele></trkpt><trkpt lat="62.586917" lon="9.094941"><ele>987</ele></trkpt><trkpt lat="62.587323" lon="9.093884"><ele>990</ele></trkpt><trkpt lat="62.587728" lon="9.092827"><ele>1000</ele></trkpt><trkpt lat="62.588044" lon="9.091788"><ele>1022</ele></trkpt><trkpt lat="62.588182" lon="9.090784"><ele>1050</ele></trkpt><trkpt lat="62.588319" lon="9.089780"><ele>1080</ele></trkpt><trkpt lat="62.588278" lon="9.088812"><ele>1105</ele></trkpt><trkpt lat="62.588424" lon="9.088002"><ele>1130</ele></trkpt><trkpt lat="62.588846" lon="9.087332"><ele>1155</ele></trkpt><trkpt lat="62.589251" lon="9.086274"><ele>1180</ele></trkpt><trkpt lat="62.589656" lon="9.085217"><ele>1194</ele></trkpt><trkpt lat="62.590062" lon="9.084160"><ele>1210</ele></trkpt><trkpt lat="62.590467" lon="9.083102"><ele>1214</ele></trkpt><trkpt lat="62.590872" lon="9.082045"><ele>1217</ele></trkpt><trkpt lat="62.591278" lon="9.080987"><ele>1220</ele></trkpt><trkpt lat="62.591683" lon="9.079930"><ele>1227</ele></trkpt><trkpt lat="62.592113" lon="9.079453"><ele>1242</ele></trkpt><trkpt lat="62.592526" lon="9.078589"><ele>1256</ele></trkpt><trkpt lat="62.592932" lon="9.077532"><ele>1266</ele></trkpt><trkpt lat="62.593337" lon="9.076474"><ele>1272</ele></trkpt><trkpt lat="62.593742" lon="9.075417"><ele>1271</ele></trkpt><trkpt lat="62.594148" lon="9.074359"><ele>1275</ele></trkpt><trkpt lat="62.594553" lon="9.073301"><ele>1275</ele></trkpt><trkpt lat="62.594958" lon="9.072244"><ele>1278</ele></trkpt><trkpt lat="62.595363" lon="9.071186"><ele>1286</ele></trkpt><trkpt lat="62.595793" lon="9.070709"><ele>1303</ele></trkpt><trkpt lat="62.596223" lon="9.070233"><ele>1323</ele></trkpt><trkpt lat="62.596653" lon="9.069756"><ele>1335</ele></trkpt><trkpt lat="62.597083" lon="9.069279"><ele>1349</ele></trkpt><trkpt lat="62.597513" lon="9.068802"><ele>1365</ele></trkpt><trkpt lat="62.597935" lon="9.068132"><ele>1374</ele></trkpt><trkpt lat="62.598381" lon="9.068043"><ele>1387</ele></trkpt><trkpt lat="62.598827" lon="9.067953"><ele>1394</ele></trkpt><trkpt lat="62.599241" lon="9.067089"><ele>1402</ele></trkpt><trkpt lat="62.599646" lon="9.066031"><ele>1412</ele></trkpt><trkpt lat="62.600051" lon="9.064973"><ele>1428</ele></trkpt><trkpt lat="62.600498" lon="9.064884"><ele>1437</ele></trkpt><trkpt lat="62.600919" lon="9.064213"><ele>1450</ele></trkpt><trkpt lat="62.601324" lon="9.063155"><ele>1457</ele></trkpt><trkpt lat="62.601730" lon="9.062097"><ele>1467</ele></trkpt><trkpt lat="62.602135" lon="9.061039"><ele>1472</ele></trkpt><trkpt lat="62.602540" lon="9.059981"><ele>1483</ele></trkpt><trkpt lat="62.602945" lon="9.058923"><ele>1490</ele></trkpt><trkpt lat="62.603358" lon="9.058058"><ele>1504</ele></trkpt><trkpt lat="62.603772" lon="9.057194"><ele>1496</ele></trkpt><trkpt lat="62.604177" lon="9.056135"><ele>1496</ele></trkpt><trkpt lat="62.604590" lon="9.055271"><ele>1521</ele></trkpt><trkpt lat="62.604590" lon="9.055271"><ele>1521</ele></trkpt></trkseg></trk><wpt lat="62.609820" lon="9.087250"><ele>1092</ele><name>Run end · Graslitinden 1521 m</name></wpt><trk><name>Down · Graslitinden 1521 m</name><desc>fall-line run: 390 m of 20–30°, 333 m drop, aspect 76°, max 28°, 0.0% ≥30°; ends 5.0 km from the car.</desc><trkseg><trkpt lat="62.604590" lon="9.055271"><ele>1521</ele></trkpt><trkpt lat="62.606520" lon="9.064654"><ele>1426</ele></trkpt><trkpt lat="62.606813" lon="9.065182"><ele>1408</ele></trkpt><trkpt lat="62.607105" lon="9.065710"><ele>1389</ele></trkpt><trkpt lat="62.607398" lon="9.066237"><ele>1373</ele></trkpt><trkpt lat="62.607690" lon="9.066765"><ele>1359</ele></trkpt><trkpt lat="62.607975" lon="9.067099"><ele>1353</ele></trkpt><trkpt lat="62.608178" lon="9.067644"><ele>1348</ele></trkpt><trkpt lat="62.608292" lon="9.068208"><ele>1344</ele></trkpt><trkpt lat="62.608317" lon="9.068789"><ele>1341</ele></trkpt><trkpt lat="62.608431" lon="9.069353"><ele>1337</ele></trkpt><trkpt lat="62.608545" lon="9.069916"><ele>1333</ele></trkpt><trkpt lat="62.608837" lon="9.070444"><ele>1329</ele></trkpt><trkpt lat="62.608951" lon="9.071007"><ele>1327</ele></trkpt><trkpt lat="62.609154" lon="9.071553"><ele>1324</ele></trkpt><trkpt lat="62.609358" lon="9.072098"><ele>1321</ele></trkpt><trkpt lat="62.609472" lon="9.072662"><ele>1316</ele></trkpt><trkpt lat="62.609586" lon="9.073225"><ele>1311</ele></trkpt><trkpt lat="62.609610" lon="9.073807"><ele>1307</ele></trkpt><trkpt lat="62.609724" lon="9.074370"><ele>1304</ele></trkpt><trkpt lat="62.609838" lon="9.074934"><ele>1298</ele></trkpt><trkpt lat="62.610042" lon="9.075479"><ele>1292</ele></trkpt><trkpt lat="62.610245" lon="9.076025"><ele>1287</ele></trkpt><trkpt lat="62.610359" lon="9.076589"><ele>1281</ele></trkpt><trkpt lat="62.610473" lon="9.077152"><ele>1274</ele></trkpt><trkpt lat="62.610497" lon="9.077734"><ele>1269</ele></trkpt><trkpt lat="62.610522" lon="9.078315"><ele>1263</ele></trkpt><trkpt lat="62.610636" lon="9.078878"><ele>1255</ele></trkpt><trkpt lat="62.610661" lon="9.079460"><ele>1248</ele></trkpt><trkpt lat="62.610953" lon="9.079988"><ele>1234</ele></trkpt><trkpt lat="62.610978" lon="9.080569"><ele>1218</ele></trkpt><trkpt lat="62.611181" lon="9.081115"><ele>1203</ele></trkpt><trkpt lat="62.611206" lon="9.081696"><ele>1192</ele></trkpt><trkpt lat="62.611230" lon="9.082278"><ele>1182</ele></trkpt><trkpt lat="62.611255" lon="9.082859"><ele>1171</ele></trkpt><trkpt lat="62.611280" lon="9.083440"><ele>1159</ele></trkpt><trkpt lat="62.611215" lon="9.084040"><ele>1148</ele></trkpt><trkpt lat="62.610972" lon="9.084674"><ele>1138</ele></trkpt><trkpt lat="62.610818" lon="9.085292"><ele>1130</ele></trkpt><trkpt lat="62.610575" lon="9.085926"><ele>1122</ele></trkpt><trkpt lat="62.610323" lon="9.086367"><ele>1114</ele></trkpt><trkpt lat="62.610072" lon="9.086808"><ele>1104</ele></trkpt><trkpt lat="62.609820" lon="9.087250"><ele>1092</ele></trkpt><trkpt lat="62.609820" lon="9.087250"><ele>1092</ele></trkpt></trkseg></trk></gpx>