<?xml version="1.0" encoding="UTF-8"?>
<gpx version="1.1" creator="Rando toppturs" xmlns="http://www.topografix.com/GPX/1/1"><metadata><name>085 Høa 1186 m</name><desc>This is an automatically generated list. I have not checked them all. Do not attempt these if you're a beginner. Generated 2026-09-13 17:42 from Kartverket 10 m terrain. Ascent lines are least-cost terrain paths under 35°, not verified routes. Not a snow-stability assessment.</desc></metadata><wpt lat="62.693687" lon="9.014206"><ele>776</ele><name>Car · Høa 1186 m</name></wpt><wpt lat="62.703507" lon="9.012213"><ele>1186</ele><name>Høa 1186 m</name></wpt><trk><name>Up · Høa 1186 m</name><desc>least-cost ascent: +413 m over 1659 m, max 35°, 1.5% on 30–35°, ≈1.45 h at 4 km/h + 400 m/h. Terrain possibility, not a checked route.</desc><trkseg><trkpt lat="62.693687" lon="9.014206"><ele>776</ele></trkpt><trkpt lat="62.694150" lon="9.014504"><ele>795</ele></trkpt><trkpt lat="62.694621" lon="9.014996"><ele>815</ele></trkpt><trkpt lat="62.695076" lon="9.015100"><ele>831</ele></trkpt><trkpt lat="62.695522" lon="9.015009"><ele>840</ele></trkpt><trkpt lat="62.695977" lon="9.015113"><ele>855</ele></trkpt><trkpt lat="62.696423" lon="9.015023"><ele>874</ele></trkpt><trkpt lat="62.696895" lon="9.015515"><ele>899</ele></trkpt><trkpt lat="62.697374" lon="9.016202"><ele>921</ele></trkpt><trkpt lat="62.697846" lon="9.016694"><ele>939</ele></trkpt><trkpt lat="62.698317" lon="9.017187"><ele>960</ele></trkpt><trkpt lat="62.698796" lon="9.017874"><ele>974</ele></trkpt><trkpt lat="62.699243" lon="9.017783"><ele>989</ele></trkpt><trkpt lat="62.699722" lon="9.018470"><ele>1002</ele></trkpt><trkpt lat="62.700210" lon="9.019352"><ele>1009</ele></trkpt><trkpt lat="62.700698" lon="9.020233"><ele>1013</ele></trkpt><trkpt lat="62.701178" lon="9.020920"><ele>1030</ele></trkpt><trkpt lat="62.701632" lon="9.021024"><ele>1050</ele></trkpt><trkpt lat="62.702062" lon="9.020545"><ele>1071</ele></trkpt><trkpt lat="62.702484" lon="9.019871"><ele>1089</ele></trkpt><trkpt lat="62.702888" lon="9.018809"><ele>1101</ele></trkpt><trkpt lat="62.703204" lon="9.017765"><ele>1127</ele></trkpt><trkpt lat="62.703430" lon="9.016738"><ele>1141</ele></trkpt><trkpt lat="62.703389" lon="9.015766"><ele>1150</ele></trkpt><trkpt lat="62.703347" lon="9.014795"><ele>1156</ele></trkpt><trkpt lat="62.703484" lon="9.013786"><ele>1169</ele></trkpt><trkpt lat="62.703532" lon="9.012796"><ele>1185</ele></trkpt><trkpt lat="62.703507" lon="9.012213"><ele>1186</ele></trkpt></trkseg></trk><wpt lat="62.696546" lon="9.032639"><ele>792</ele><name>Run end · Høa 1186 m</name></wpt><trk><name>Down · Høa 1186 m</name><desc>fall-line run: 386 m of 20–30°, 206 m drop, aspect 155°, max 29°, 0.0% ≥30°; ends 1.0 km from the car.</desc><trkseg><trkpt lat="62.703507" lon="9.012213"><ele>1186</ele></trkpt><trkpt lat="62.700761" lon="9.025906"><ele>998</ele></trkpt><trkpt lat="62.700501" lon="9.026154"><ele>982</ele></trkpt><trkpt lat="62.700242" lon="9.026403"><ele>967</ele></trkpt><trkpt lat="62.699990" lon="9.026846"><ele>954</ele></trkpt><trkpt lat="62.699747" lon="9.027483"><ele>938</ele></trkpt><trkpt lat="62.699504" lon="9.028120"><ele>923</ele></trkpt><trkpt lat="62.699262" lon="9.028758"><ele>904</ele></trkpt><trkpt lat="62.699019" lon="9.029395"><ele>893</ele></trkpt><trkpt lat="62.698776" lon="9.030032"><ele>879</ele></trkpt><trkpt lat="62.698533" lon="9.030669"><ele>861</ele></trkpt><trkpt lat="62.698379" lon="9.031289"><ele>849</ele></trkpt><trkpt lat="62.698315" lon="9.031890"><ele>846</ele></trkpt><trkpt lat="62.698072" lon="9.032527"><ele>841</ele></trkpt><trkpt lat="62.697804" lon="9.032581"><ele>837</ele></trkpt><trkpt lat="62.697528" lon="9.032441"><ele>831</ele></trkpt><trkpt lat="62.697260" lon="9.032495"><ele>826</ele></trkpt><trkpt lat="62.696992" lon="9.032549"><ele>813</ele></trkpt><trkpt lat="62.696724" lon="9.032603"><ele>801</ele></trkpt><trkpt lat="62.696546" lon="9.032639"><ele>792</ele></trkpt></trkseg></trk></gpx>