<?xml version="1.0" encoding="UTF-8"?>
<gpx version="1.1" creator="Rando toppturs" xmlns="http://www.topografix.com/GPX/1/1"><metadata><name>088 Kringsollen 1576 m</name><desc>This is an automatically generated list. I have not checked them all. Do not attempt these if you're a beginner. Generated 2026-09-13 17:42 from Kartverket 10 m terrain. Ascent lines are least-cost terrain paths under 35°, not verified routes. Not a snow-stability assessment.</desc></metadata><wpt lat="62.513206" lon="9.683263"><ele>1029</ele><name>Car · Kringsollen 1576 m</name></wpt><wpt lat="62.509051" lon="9.746876"><ele>1576</ele><name>Kringsollen 1576 m</name></wpt><trk><name>Up · Kringsollen 1576 m</name><desc>least-cost ascent: +563 m over 3597 m, max 27°, 0.0% on 30–35°, ≈2.31 h at 4 km/h + 400 m/h. Terrain possibility, not a checked route.</desc><trkseg><trkpt lat="62.513206" lon="9.683263"><ele>1029</ele></trkpt><trkpt lat="62.513243" lon="9.684230"><ele>1036</ele></trkpt><trkpt lat="62.512923" lon="9.685260"><ele>1060</ele></trkpt><trkpt lat="62.512781" lon="9.686259"><ele>1075</ele></trkpt><trkpt lat="62.512639" lon="9.687258"><ele>1089</ele></trkpt><trkpt lat="62.512676" lon="9.688224"><ele>1095</ele></trkpt><trkpt lat="62.512713" lon="9.689191"><ele>1104</ele></trkpt><trkpt lat="62.512749" lon="9.690158"><ele>1117</ele></trkpt><trkpt lat="62.512786" lon="9.691125"><ele>1122</ele></trkpt><trkpt lat="62.512823" lon="9.692092"><ele>1129</ele></trkpt><trkpt lat="62.512860" lon="9.693058"><ele>1134</ele></trkpt><trkpt lat="62.512897" lon="9.694025"><ele>1140</ele></trkpt><trkpt lat="62.512934" lon="9.694992"><ele>1146</ele></trkpt><trkpt lat="62.512970" lon="9.695959"><ele>1153</ele></trkpt><trkpt lat="62.513007" lon="9.696926"><ele>1161</ele></trkpt><trkpt lat="62.513044" lon="9.697893"><ele>1167</ele></trkpt><trkpt lat="62.513081" lon="9.698859"><ele>1174</ele></trkpt><trkpt lat="62.513117" lon="9.699826"><ele>1183</ele></trkpt><trkpt lat="62.513154" lon="9.700793"><ele>1189</ele></trkpt><trkpt lat="62.513191" lon="9.701760"><ele>1196</ele></trkpt><trkpt lat="62.513228" lon="9.702727"><ele>1204</ele></trkpt><trkpt lat="62.513265" lon="9.703694"><ele>1214</ele></trkpt><trkpt lat="62.513033" lon="9.704708"><ele>1222</ele></trkpt><trkpt lat="62.513070" lon="9.705675"><ele>1240</ele></trkpt><trkpt lat="62.513107" lon="9.706642"><ele>1245</ele></trkpt><trkpt lat="62.513143" lon="9.707609"><ele>1250</ele></trkpt><trkpt lat="62.513180" lon="9.708575"><ele>1259</ele></trkpt><trkpt lat="62.513217" lon="9.709542"><ele>1263</ele></trkpt><trkpt lat="62.513253" lon="9.710509"><ele>1268</ele></trkpt><trkpt lat="62.513290" lon="9.711476"><ele>1274</ele></trkpt><trkpt lat="62.513327" lon="9.712443"><ele>1281</ele></trkpt><trkpt lat="62.513364" lon="9.713410"><ele>1288</ele></trkpt><trkpt lat="62.513400" lon="9.714377"><ele>1296</ele></trkpt><trkpt lat="62.513437" lon="9.715343"><ele>1307</ele></trkpt><trkpt lat="62.513474" lon="9.716310"><ele>1314</ele></trkpt><trkpt lat="62.513510" lon="9.717277"><ele>1321</ele></trkpt><trkpt lat="62.513547" lon="9.718244"><ele>1330</ele></trkpt><trkpt lat="62.513584" lon="9.719211"><ele>1339</ele></trkpt><trkpt lat="62.513620" lon="9.720178"><ele>1353</ele></trkpt><trkpt lat="62.513657" lon="9.721145"><ele>1371</ele></trkpt><trkpt lat="62.513693" lon="9.722112"><ele>1392</ele></trkpt><trkpt lat="62.513730" lon="9.723078"><ele>1409</ele></trkpt><trkpt lat="62.513767" lon="9.724045"><ele>1423</ele></trkpt><trkpt lat="62.513714" lon="9.725028"><ele>1441</ele></trkpt><trkpt lat="62.513572" lon="9.726027"><ele>1460</ele></trkpt><trkpt lat="62.513608" lon="9.726993"><ele>1472</ele></trkpt><trkpt lat="62.513645" lon="9.727960"><ele>1482</ele></trkpt><trkpt lat="62.513682" lon="9.728927"><ele>1491</ele></trkpt><trkpt lat="62.513718" lon="9.729894"><ele>1498</ele></trkpt><trkpt lat="62.513665" lon="9.730877"><ele>1508</ele></trkpt><trkpt lat="62.513702" lon="9.731844"><ele>1516</ele></trkpt><trkpt lat="62.513738" lon="9.732811"><ele>1521</ele></trkpt><trkpt lat="62.513775" lon="9.733778"><ele>1528</ele></trkpt><trkpt lat="62.513811" lon="9.734744"><ele>1535</ele></trkpt><trkpt lat="62.513401" lon="9.735790"><ele>1549</ele></trkpt><trkpt lat="62.512991" lon="9.736836"><ele>1568</ele></trkpt><trkpt lat="62.512580" lon="9.737882"><ele>1571</ele></trkpt><trkpt lat="62.512170" lon="9.738928"><ele>1568</ele></trkpt><trkpt lat="62.511760" lon="9.739974"><ele>1564</ele></trkpt><trkpt lat="62.511349" lon="9.741020"><ele>1559</ele></trkpt><trkpt lat="62.510939" lon="9.742065"><ele>1558</ele></trkpt><trkpt lat="62.510528" lon="9.743111"><ele>1560</ele></trkpt><trkpt lat="62.510118" lon="9.744157"><ele>1566</ele></trkpt><trkpt lat="62.509707" lon="9.745203"><ele>1572</ele></trkpt><trkpt lat="62.509297" lon="9.746248"><ele>1576</ele></trkpt><trkpt lat="62.509051" lon="9.746876"><ele>1576</ele></trkpt></trkseg></trk><wpt lat="62.516553" lon="9.752560"><ele>1338</ele><name>Run end · Kringsollen 1576 m</name></wpt><trk><name>Down · Kringsollen 1576 m</name><desc>fall-line run: 386 m of 20–30°, 215 m drop, aspect 45°, max 31°, 3.9% ≥30°; ends 3.59 km from the car.</desc><trkseg><trkpt lat="62.509051" lon="9.746876"><ele>1576</ele></trkpt><trkpt lat="62.512478" lon="9.744713"><ele>1553</ele></trkpt><trkpt lat="62.512768" lon="9.745246"><ele>1535</ele></trkpt><trkpt lat="62.513058" lon="9.745779"><ele>1514</ele></trkpt><trkpt lat="62.513348" lon="9.746312"><ele>1497</ele></trkpt><trkpt lat="62.513638" lon="9.746845"><ele>1491</ele></trkpt><trkpt lat="62.513928" lon="9.747378"><ele>1474</ele></trkpt><trkpt lat="62.514040" lon="9.747942"><ele>1462</ele></trkpt><trkpt lat="62.514061" lon="9.748522"><ele>1458</ele></trkpt><trkpt lat="62.514173" lon="9.749086"><ele>1451</ele></trkpt><trkpt lat="62.514373" lon="9.749635"><ele>1444</ele></trkpt><trkpt lat="62.514663" lon="9.750168"><ele>1431</ele></trkpt><trkpt lat="62.514953" lon="9.750701"><ele>1419</ele></trkpt><trkpt lat="62.515243" lon="9.751234"><ele>1403</ele></trkpt><trkpt lat="62.515533" lon="9.751767"><ele>1385</ele></trkpt><trkpt lat="62.515823" lon="9.752300"><ele>1368</ele></trkpt><trkpt lat="62.516099" lon="9.752446"><ele>1357</ele></trkpt><trkpt lat="62.516367" lon="9.752398"><ele>1347</ele></trkpt><trkpt lat="62.516553" lon="9.752560"><ele>1338</ele></trkpt></trkseg></trk></gpx>