<?xml version="1.0" encoding="UTF-8"?>
<gpx version="1.1" creator="Rando toppturs" xmlns="http://www.topografix.com/GPX/1/1"><metadata><name>089 Steinkollen 1782 m</name><desc>This is an automatically generated list. I have not checked them all. Do not attempt these if you're a beginner. Generated 2026-09-13 17:42 from Kartverket 10 m terrain. Ascent lines are least-cost terrain paths under 35°, not verified routes. Not a snow-stability assessment.</desc></metadata><wpt lat="62.499600" lon="9.095332"><ele>745</ele><name>Car · Steinkollen 1782 m</name></wpt><wpt lat="62.458158" lon="9.184421"><ele>1782</ele><name>Steinkollen 1782 m</name></wpt><trk><name>Up · Steinkollen 1782 m</name><desc>least-cost ascent: +1138 m over 7240 m, max 30°, 0.2% on 30–35°, ≈4.66 h at 4 km/h + 400 m/h. Terrain possibility, not a checked route.</desc><trkseg><trkpt lat="62.499600" lon="9.095332"><ele>745</ele></trkpt><trkpt lat="62.499170" lon="9.095807"><ele>752</ele></trkpt><trkpt lat="62.498748" lon="9.096475"><ele>758</ele></trkpt><trkpt lat="62.498343" lon="9.097529"><ele>767</ele></trkpt><trkpt lat="62.497897" lon="9.097617"><ele>777</ele></trkpt><trkpt lat="62.497450" lon="9.097706"><ele>792</ele></trkpt><trkpt lat="62.497004" lon="9.097794"><ele>812</ele></trkpt><trkpt lat="62.496557" lon="9.097883"><ele>827</ele></trkpt><trkpt lat="62.496111" lon="9.097971"><ele>840</ele></trkpt><trkpt lat="62.495665" lon="9.098060"><ele>850</ele></trkpt><trkpt lat="62.495218" lon="9.098148"><ele>847</ele></trkpt><trkpt lat="62.494772" lon="9.098237"><ele>849</ele></trkpt><trkpt lat="62.494325" lon="9.098325"><ele>853</ele></trkpt><trkpt lat="62.493879" lon="9.098414"><ele>856</ele></trkpt><trkpt lat="62.493432" lon="9.098502"><ele>861</ele></trkpt><trkpt lat="62.492986" lon="9.098591"><ele>867</ele></trkpt><trkpt lat="62.492540" lon="9.098679"><ele>872</ele></trkpt><trkpt lat="62.492093" lon="9.098768"><ele>881</ele></trkpt><trkpt lat="62.491647" lon="9.098856"><ele>891</ele></trkpt><trkpt lat="62.491200" lon="9.098945"><ele>903</ele></trkpt><trkpt lat="62.490754" lon="9.099033"><ele>915</ele></trkpt><trkpt lat="62.490316" lon="9.099315"><ele>929</ele></trkpt><trkpt lat="62.489886" lon="9.099789"><ele>945</ele></trkpt><trkpt lat="62.489447" lon="9.100071"><ele>961</ele></trkpt><trkpt lat="62.489026" lon="9.100738"><ele>981</ele></trkpt><trkpt lat="62.488587" lon="9.101020"><ele>999</ele></trkpt><trkpt lat="62.488141" lon="9.101108"><ele>1013</ele></trkpt><trkpt lat="62.487727" lon="9.101969"><ele>1033</ele></trkpt><trkpt lat="62.487305" lon="9.102636"><ele>1053</ele></trkpt><trkpt lat="62.486900" lon="9.103689"><ele>1075</ele></trkpt><trkpt lat="62.486478" lon="9.104357"><ele>1096</ele></trkpt><trkpt lat="62.486048" lon="9.104831"><ele>1121</ele></trkpt><trkpt lat="62.485610" lon="9.105113"><ele>1143</ele></trkpt><trkpt lat="62.485171" lon="9.105394"><ele>1170</ele></trkpt><trkpt lat="62.484733" lon="9.105675"><ele>1197</ele></trkpt><trkpt lat="62.484319" lon="9.106536"><ele>1230</ele></trkpt><trkpt lat="62.483873" lon="9.106624"><ele>1258</ele></trkpt><trkpt lat="62.483435" lon="9.106905"><ele>1284</ele></trkpt><trkpt lat="62.483118" lon="9.107941"><ele>1305</ele></trkpt><trkpt lat="62.482891" lon="9.108959"><ele>1316</ele></trkpt><trkpt lat="62.482486" lon="9.110012"><ele>1334</ele></trkpt><trkpt lat="62.482348" lon="9.111012"><ele>1345</ele></trkpt><trkpt lat="62.482389" lon="9.111977"><ele>1350</ele></trkpt><trkpt lat="62.482073" lon="9.113012"><ele>1366</ele></trkpt><trkpt lat="62.481667" lon="9.114065"><ele>1384</ele></trkpt><trkpt lat="62.481351" lon="9.115101"><ele>1404</ele></trkpt><trkpt lat="62.481124" lon="9.116118"><ele>1420</ele></trkpt><trkpt lat="62.480718" lon="9.117171"><ele>1435</ele></trkpt><trkpt lat="62.480312" lon="9.118224"><ele>1452</ele></trkpt><trkpt lat="62.479907" lon="9.119277"><ele>1472</ele></trkpt><trkpt lat="62.479501" lon="9.120330"><ele>1476</ele></trkpt><trkpt lat="62.479095" lon="9.121383"><ele>1489</ele></trkpt><trkpt lat="62.478690" lon="9.122436"><ele>1501</ele></trkpt><trkpt lat="62.478284" lon="9.123489"><ele>1512</ele></trkpt><trkpt lat="62.477878" lon="9.124542"><ele>1522</ele></trkpt><trkpt lat="62.477473" lon="9.125594"><ele>1532</ele></trkpt><trkpt lat="62.477156" lon="9.126630"><ele>1547</ele></trkpt><trkpt lat="62.476750" lon="9.127682"><ele>1551</ele></trkpt><trkpt lat="62.476345" lon="9.128735"><ele>1552</ele></trkpt><trkpt lat="62.475939" lon="9.129788"><ele>1550</ele></trkpt><trkpt lat="62.475533" lon="9.130840"><ele>1544</ele></trkpt><trkpt lat="62.475128" lon="9.131893"><ele>1540</ele></trkpt><trkpt lat="62.474722" lon="9.132945"><ele>1536</ele></trkpt><trkpt lat="62.474316" lon="9.133998"><ele>1530</ele></trkpt><trkpt lat="62.473910" lon="9.135050"><ele>1529</ele></trkpt><trkpt lat="62.473504" lon="9.136103"><ele>1530</ele></trkpt><trkpt lat="62.473099" lon="9.137155"><ele>1530</ele></trkpt><trkpt lat="62.472693" lon="9.138208"><ele>1531</ele></trkpt><trkpt lat="62.472287" lon="9.139260"><ele>1529</ele></trkpt><trkpt lat="62.471881" lon="9.140313"><ele>1526</ele></trkpt><trkpt lat="62.471475" lon="9.141365"><ele>1518</ele></trkpt><trkpt lat="62.471070" lon="9.142417"><ele>1509</ele></trkpt><trkpt lat="62.470664" lon="9.143470"><ele>1505</ele></trkpt><trkpt lat="62.470258" lon="9.144522"><ele>1503</ele></trkpt><trkpt lat="62.469852" lon="9.145574"><ele>1493</ele></trkpt><trkpt lat="62.469446" lon="9.146626"><ele>1485</ele></trkpt><trkpt lat="62.469040" lon="9.147678"><ele>1478</ele></trkpt><trkpt lat="62.468634" lon="9.148731"><ele>1474</ele></trkpt><trkpt lat="62.468228" lon="9.149783"><ele>1469</ele></trkpt><trkpt lat="62.467823" lon="9.150835"><ele>1466</ele></trkpt><trkpt lat="62.467417" lon="9.151887"><ele>1463</ele></trkpt><trkpt lat="62.467011" lon="9.152939"><ele>1462</ele></trkpt><trkpt lat="62.466605" lon="9.153991"><ele>1461</ele></trkpt><trkpt lat="62.466199" lon="9.155043"><ele>1462</ele></trkpt><trkpt lat="62.465793" lon="9.156095"><ele>1466</ele></trkpt><trkpt lat="62.465387" lon="9.157147"><ele>1471</ele></trkpt><trkpt lat="62.464981" lon="9.158199"><ele>1475</ele></trkpt><trkpt lat="62.464575" lon="9.159250"><ele>1477</ele></trkpt><trkpt lat="62.464169" lon="9.160302"><ele>1479</ele></trkpt><trkpt lat="62.463763" lon="9.161354"><ele>1487</ele></trkpt><trkpt lat="62.463357" lon="9.162406"><ele>1495</ele></trkpt><trkpt lat="62.462951" lon="9.163458"><ele>1504</ele></trkpt><trkpt lat="62.462545" lon="9.164509"><ele>1510</ele></trkpt><trkpt lat="62.462139" lon="9.165561"><ele>1521</ele></trkpt><trkpt lat="62.461733" lon="9.166613"><ele>1535</ele></trkpt><trkpt lat="62.461327" lon="9.167664"><ele>1555</ele></trkpt><trkpt lat="62.460921" lon="9.168716"><ele>1578</ele></trkpt><trkpt lat="62.460783" lon="9.169715"><ele>1593</ele></trkpt><trkpt lat="62.460645" lon="9.170714"><ele>1610</ele></trkpt><trkpt lat="62.460685" lon="9.171679"><ele>1619</ele></trkpt><trkpt lat="62.460726" lon="9.172643"><ele>1628</ele></trkpt><trkpt lat="62.460766" lon="9.173607"><ele>1637</ele></trkpt><trkpt lat="62.460538" lon="9.174624"><ele>1655</ele></trkpt><trkpt lat="62.460579" lon="9.175588"><ele>1667</ele></trkpt><trkpt lat="62.460619" lon="9.176552"><ele>1679</ele></trkpt><trkpt lat="62.460660" lon="9.177517"><ele>1690</ele></trkpt><trkpt lat="62.460432" lon="9.178533"><ele>1705</ele></trkpt><trkpt lat="62.460026" lon="9.179585"><ele>1721</ele></trkpt><trkpt lat="62.459620" lon="9.180636"><ele>1732</ele></trkpt><trkpt lat="62.459214" lon="9.181687"><ele>1746</ele></trkpt><trkpt lat="62.458807" lon="9.182739"><ele>1760</ele></trkpt><trkpt lat="62.458401" lon="9.183790"><ele>1776</ele></trkpt><trkpt lat="62.458158" lon="9.184421"><ele>1782</ele></trkpt></trkseg></trk><wpt lat="62.460612" lon="9.200080"><ele>1523</ele><name>Run end · Steinkollen 1782 m</name></wpt><trk><name>Down · Steinkollen 1782 m</name><desc>fall-line run: 385 m of 20–30°, 206 m drop, aspect 73°, max 31°, 6.0% ≥30°; ends 6.94 km from the car.</desc><trkseg><trkpt lat="62.458158" lon="9.184421"><ele>1782</ele></trkpt><trkpt lat="62.458545" lon="9.191539"><ele>1729</ele></trkpt><trkpt lat="62.458569" lon="9.192117"><ele>1717</ele></trkpt><trkpt lat="62.458593" lon="9.192696"><ele>1703</ele></trkpt><trkpt lat="62.458618" lon="9.193274"><ele>1687</ele></trkpt><trkpt lat="62.458642" lon="9.193853"><ele>1673</ele></trkpt><trkpt lat="62.458755" lon="9.194414"><ele>1659</ele></trkpt><trkpt lat="62.458958" lon="9.194958"><ele>1643</ele></trkpt><trkpt lat="62.459250" lon="9.195484"><ele>1624</ele></trkpt><trkpt lat="62.459363" lon="9.196045"><ele>1607</ele></trkpt><trkpt lat="62.459388" lon="9.196624"><ele>1592</ele></trkpt><trkpt lat="62.459590" lon="9.197168"><ele>1585</ele></trkpt><trkpt lat="62.459614" lon="9.197746"><ele>1574</ele></trkpt><trkpt lat="62.459817" lon="9.198290"><ele>1565</ele></trkpt><trkpt lat="62.460101" lon="9.198624"><ele>1558</ele></trkpt><trkpt lat="62.460377" lon="9.198764"><ele>1553</ele></trkpt><trkpt lat="62.460580" lon="9.199308"><ele>1543</ele></trkpt><trkpt lat="62.460604" lon="9.199887"><ele>1528</ele></trkpt><trkpt lat="62.460612" lon="9.200080"><ele>1523</ele></trkpt></trkseg></trk></gpx>