<?xml version="1.0" encoding="UTF-8"?>
<gpx version="1.1" creator="Rando toppturs" xmlns="http://www.topografix.com/GPX/1/1"><metadata><name>090 Kråkvasstinden 1700 m</name><desc>This is an automatically generated list. I have not checked them all. Do not attempt these if you're a beginner. Generated 2026-09-13 17:42 from Kartverket 10 m terrain. Ascent lines are least-cost terrain paths under 35°, not verified routes. Not a snow-stability assessment.</desc></metadata><wpt lat="62.581212" lon="9.179831"><ele>634</ele><name>Car · Kråkvasstinden 1700 m</name></wpt><wpt lat="62.624494" lon="9.129876"><ele>1700</ele><name>Kråkvasstinden 1700 m</name></wpt><trk><name>Up · Kråkvasstinden 1700 m</name><desc>least-cost ascent: +1250 m over 6131 m, max 34°, 0.4% on 30–35°, ≈4.66 h at 4 km/h + 400 m/h. Terrain possibility, not a checked route.</desc><trkseg><trkpt lat="62.581212" lon="9.179831"><ele>634</ele></trkpt><trkpt lat="62.581658" lon="9.179744"><ele>653</ele></trkpt><trkpt lat="62.582097" lon="9.179462"><ele>672</ele></trkpt><trkpt lat="62.582535" lon="9.179181"><ele>690</ele></trkpt><trkpt lat="62.582949" lon="9.178319"><ele>716</ele></trkpt><trkpt lat="62.583371" lon="9.177650"><ele>742</ele></trkpt><trkpt lat="62.583786" lon="9.176788"><ele>764</ele></trkpt><trkpt lat="62.584192" lon="9.175732"><ele>792</ele></trkpt><trkpt lat="62.584598" lon="9.174676"><ele>819</ele></trkpt><trkpt lat="62.585036" lon="9.174395"><ele>842</ele></trkpt><trkpt lat="62.585450" lon="9.173532"><ele>870</ele></trkpt><trkpt lat="62.585856" lon="9.172476"><ele>896</ele></trkpt><trkpt lat="62.586287" lon="9.172001"><ele>918</ele></trkpt><trkpt lat="62.586725" lon="9.171720"><ele>937</ele></trkpt><trkpt lat="62.587163" lon="9.171438"><ele>956</ele></trkpt><trkpt lat="62.587610" lon="9.171351"><ele>980</ele></trkpt><trkpt lat="62.588048" lon="9.171069"><ele>1003</ele></trkpt><trkpt lat="62.588478" lon="9.170594"><ele>1026</ele></trkpt><trkpt lat="62.588893" lon="9.169732"><ele>1050</ele></trkpt><trkpt lat="62.589298" lon="9.168675"><ele>1074</ele></trkpt><trkpt lat="62.589737" lon="9.168394"><ele>1089</ele></trkpt><trkpt lat="62.590143" lon="9.167338"><ele>1103</ele></trkpt><trkpt lat="62.590565" lon="9.166669"><ele>1119</ele></trkpt><trkpt lat="62.590971" lon="9.165612"><ele>1127</ele></trkpt><trkpt lat="62.591377" lon="9.164556"><ele>1138</ele></trkpt><trkpt lat="62.591783" lon="9.163500"><ele>1150</ele></trkpt><trkpt lat="62.592189" lon="9.162443"><ele>1160</ele></trkpt><trkpt lat="62.592611" lon="9.161774"><ele>1172</ele></trkpt><trkpt lat="62.593025" lon="9.160912"><ele>1188</ele></trkpt><trkpt lat="62.593439" lon="9.160049"><ele>1203</ele></trkpt><trkpt lat="62.593886" lon="9.159961"><ele>1217</ele></trkpt><trkpt lat="62.594332" lon="9.159873"><ele>1230</ele></trkpt><trkpt lat="62.594778" lon="9.159785"><ele>1248</ele></trkpt><trkpt lat="62.595225" lon="9.159697"><ele>1264</ele></trkpt><trkpt lat="62.595671" lon="9.159609"><ele>1279</ele></trkpt><trkpt lat="62.596118" lon="9.159521"><ele>1290</ele></trkpt><trkpt lat="62.596564" lon="9.159433"><ele>1303</ele></trkpt><trkpt lat="62.597011" lon="9.159345"><ele>1317</ele></trkpt><trkpt lat="62.597457" lon="9.159257"><ele>1327</ele></trkpt><trkpt lat="62.597904" lon="9.159169"><ele>1340</ele></trkpt><trkpt lat="62.598350" lon="9.159081"><ele>1351</ele></trkpt><trkpt lat="62.598797" lon="9.158993"><ele>1358</ele></trkpt><trkpt lat="62.599243" lon="9.158905"><ele>1374</ele></trkpt><trkpt lat="62.599681" lon="9.158624"><ele>1389</ele></trkpt><trkpt lat="62.600128" lon="9.158536"><ele>1409</ele></trkpt><trkpt lat="62.600550" lon="9.157866"><ele>1427</ele></trkpt><trkpt lat="62.600972" lon="9.157197"><ele>1443</ele></trkpt><trkpt lat="62.601378" lon="9.156140"><ele>1456</ele></trkpt><trkpt lat="62.601800" lon="9.155471"><ele>1473</ele></trkpt><trkpt lat="62.602230" lon="9.154995"><ele>1489</ele></trkpt><trkpt lat="62.602669" lon="9.154713"><ele>1506</ele></trkpt><trkpt lat="62.603115" lon="9.154625"><ele>1518</ele></trkpt><trkpt lat="62.603562" lon="9.154537"><ele>1531</ele></trkpt><trkpt lat="62.604008" lon="9.154449"><ele>1539</ele></trkpt><trkpt lat="62.604454" lon="9.154361"><ele>1539</ele></trkpt><trkpt lat="62.604901" lon="9.154273"><ele>1533</ele></trkpt><trkpt lat="62.605347" lon="9.154185"><ele>1526</ele></trkpt><trkpt lat="62.605794" lon="9.154097"><ele>1518</ele></trkpt><trkpt lat="62.606240" lon="9.154009"><ele>1511</ele></trkpt><trkpt lat="62.606687" lon="9.153921"><ele>1504</ele></trkpt><trkpt lat="62.607133" lon="9.153833"><ele>1498</ele></trkpt><trkpt lat="62.607580" lon="9.153745"><ele>1493</ele></trkpt><trkpt lat="62.608026" lon="9.153657"><ele>1489</ele></trkpt><trkpt lat="62.608473" lon="9.153568"><ele>1485</ele></trkpt><trkpt lat="62.608919" lon="9.153480"><ele>1483</ele></trkpt><trkpt lat="62.609365" lon="9.153392"><ele>1478</ele></trkpt><trkpt lat="62.609812" lon="9.153304"><ele>1473</ele></trkpt><trkpt lat="62.610258" lon="9.153216"><ele>1468</ele></trkpt><trkpt lat="62.610705" lon="9.153128"><ele>1467</ele></trkpt><trkpt lat="62.611151" lon="9.153040"><ele>1465</ele></trkpt><trkpt lat="62.611598" lon="9.152952"><ele>1463</ele></trkpt><trkpt lat="62.612044" lon="9.152864"><ele>1462</ele></trkpt><trkpt lat="62.612458" lon="9.152000"><ele>1453</ele></trkpt><trkpt lat="62.612880" lon="9.151330"><ele>1434</ele></trkpt><trkpt lat="62.613294" lon="9.150467"><ele>1396</ele></trkpt><trkpt lat="62.613700" lon="9.149410"><ele>1379</ele></trkpt><trkpt lat="62.614106" lon="9.148352"><ele>1362</ele></trkpt><trkpt lat="62.614512" lon="9.147295"><ele>1370</ele></trkpt><trkpt lat="62.614918" lon="9.146237"><ele>1374</ele></trkpt><trkpt lat="62.615348" lon="9.145761"><ele>1389</ele></trkpt><trkpt lat="62.615770" lon="9.145092"><ele>1405</ele></trkpt><trkpt lat="62.616176" lon="9.144034"><ele>1423</ele></trkpt><trkpt lat="62.616606" lon="9.143558"><ele>1439</ele></trkpt><trkpt lat="62.617052" lon="9.143470"><ele>1451</ele></trkpt><trkpt lat="62.617482" lon="9.142994"><ele>1465</ele></trkpt><trkpt lat="62.617929" lon="9.142906"><ele>1479</ele></trkpt><trkpt lat="62.618351" lon="9.142236"><ele>1500</ele></trkpt><trkpt lat="62.618789" lon="9.141953"><ele>1515</ele></trkpt><trkpt lat="62.619236" lon="9.141865"><ele>1535</ele></trkpt><trkpt lat="62.619666" lon="9.141389"><ele>1550</ele></trkpt><trkpt lat="62.620072" lon="9.140331"><ele>1562</ele></trkpt><trkpt lat="62.620477" lon="9.139274"><ele>1574</ele></trkpt><trkpt lat="62.620883" lon="9.138216"><ele>1590</ele></trkpt><trkpt lat="62.621289" lon="9.137158"><ele>1606</ele></trkpt><trkpt lat="62.621695" lon="9.136100"><ele>1623</ele></trkpt><trkpt lat="62.622100" lon="9.135042"><ele>1640</ele></trkpt><trkpt lat="62.622506" lon="9.133985"><ele>1658</ele></trkpt><trkpt lat="62.622936" lon="9.133508"><ele>1676</ele></trkpt><trkpt lat="62.623342" lon="9.132450"><ele>1689</ele></trkpt><trkpt lat="62.623747" lon="9.131392"><ele>1693</ele></trkpt><trkpt lat="62.624169" lon="9.130722"><ele>1697</ele></trkpt><trkpt lat="62.624494" lon="9.129876"><ele>1700</ele></trkpt></trkseg></trk><wpt lat="62.611758" lon="9.131032"><ele>1300</ele><name>Run end · Kråkvasstinden 1700 m</name></wpt><trk><name>Down · Kråkvasstinden 1700 m</name><desc>fall-line run: 384 m of 20–30°, 326 m drop, aspect 181°, max 30°, 0.9% ≥30°; ends 4.23 km from the car.</desc><trkseg><trkpt lat="62.624494" lon="9.129876"><ele>1700</ele></trkpt><trkpt lat="62.621402" lon="9.131271"><ele>1626</ele></trkpt><trkpt lat="62.621134" lon="9.131324"><ele>1614</ele></trkpt><trkpt lat="62.620866" lon="9.131377"><ele>1600</ele></trkpt><trkpt lat="62.620598" lon="9.131430"><ele>1585</ele></trkpt><trkpt lat="62.620330" lon="9.131483"><ele>1572</ele></trkpt><trkpt lat="62.620079" lon="9.131924"><ele>1556</ele></trkpt><trkpt lat="62.619819" lon="9.132171"><ele>1545</ele></trkpt><trkpt lat="62.619559" lon="9.132418"><ele>1534</ele></trkpt><trkpt lat="62.619291" lon="9.132471"><ele>1522</ele></trkpt><trkpt lat="62.619023" lon="9.132524"><ele>1509</ele></trkpt><trkpt lat="62.618756" lon="9.132577"><ele>1499</ele></trkpt><trkpt lat="62.618488" lon="9.132630"><ele>1488</ele></trkpt><trkpt lat="62.618228" lon="9.132877"><ele>1479</ele></trkpt><trkpt lat="62.617960" lon="9.132930"><ele>1473</ele></trkpt><trkpt lat="62.617709" lon="9.133371"><ele>1464</ele></trkpt><trkpt lat="62.617457" lon="9.133812"><ele>1456</ele></trkpt><trkpt lat="62.617189" lon="9.133865"><ele>1451</ele></trkpt><trkpt lat="62.616921" lon="9.133918"><ele>1447</ele></trkpt><trkpt lat="62.616662" lon="9.134165"><ele>1442</ele></trkpt><trkpt lat="62.616394" lon="9.134218"><ele>1434</ele></trkpt><trkpt lat="62.616126" lon="9.134271"><ele>1425</ele></trkpt><trkpt lat="62.615850" lon="9.134130"><ele>1419</ele></trkpt><trkpt lat="62.615566" lon="9.133795"><ele>1408</ele></trkpt><trkpt lat="62.615281" lon="9.133461"><ele>1401</ele></trkpt><trkpt lat="62.614997" lon="9.133126"><ele>1394</ele></trkpt><trkpt lat="62.614721" lon="9.132985"><ele>1387</ele></trkpt><trkpt lat="62.614453" lon="9.133039"><ele>1383</ele></trkpt><trkpt lat="62.614177" lon="9.132898"><ele>1379</ele></trkpt><trkpt lat="62.613893" lon="9.132563"><ele>1377</ele></trkpt><trkpt lat="62.613617" lon="9.132422"><ele>1372</ele></trkpt><trkpt lat="62.613325" lon="9.131894"><ele>1366</ele></trkpt><trkpt lat="62.613033" lon="9.131365"><ele>1356</ele></trkpt><trkpt lat="62.612749" lon="9.131031"><ele>1343</ele></trkpt><trkpt lat="62.612481" lon="9.131084"><ele>1329</ele></trkpt><trkpt lat="62.612213" lon="9.131137"><ele>1320</ele></trkpt><trkpt lat="62.611945" lon="9.131190"><ele>1311</ele></trkpt><trkpt lat="62.611758" lon="9.131032"><ele>1300</ele></trkpt></trkseg></trk></gpx>