<?xml version="1.0" encoding="UTF-8"?>
<gpx version="1.1" creator="Rando toppturs" xmlns="http://www.topografix.com/GPX/1/1"><metadata><name>092 Unnamed 1321 m</name><desc>This is an automatically generated list. I have not checked them all. Do not attempt these if you're a beginner. Generated 2026-09-13 17:42 from Kartverket 10 m terrain. Ascent lines are least-cost terrain paths under 35°, not verified routes. Not a snow-stability assessment.</desc></metadata><wpt lat="62.700470" lon="9.363883"><ele>673</ele><name>Car · Unnamed summit 1321 m</name></wpt><wpt lat="62.801977" lon="9.265563"><ele>1321</ele><name>Unnamed summit 1321 m</name></wpt><trk><name>Up · Unnamed summit 1321 m</name><desc>least-cost ascent: +1042 m over 13583 m, max 31°, 0.1% on 30–35°, ≈6.0 h at 4 km/h + 400 m/h. Terrain possibility, not a checked route.</desc><trkseg><trkpt lat="62.700470" lon="9.363883"><ele>673</ele></trkpt><trkpt lat="62.700917" lon="9.363798"><ele>681</ele></trkpt><trkpt lat="62.701364" lon="9.363712"><ele>689</ele></trkpt><trkpt lat="62.701810" lon="9.363627"><ele>696</ele></trkpt><trkpt lat="62.702257" lon="9.363542"><ele>706</ele></trkpt><trkpt lat="62.702704" lon="9.363456"><ele>716</ele></trkpt><trkpt lat="62.703150" lon="9.363371"><ele>730</ele></trkpt><trkpt lat="62.703565" lon="9.362508"><ele>743</ele></trkpt><trkpt lat="62.703973" lon="9.361450"><ele>759</ele></trkpt><trkpt lat="62.704380" lon="9.360392"><ele>778</ele></trkpt><trkpt lat="62.704788" lon="9.359334"><ele>790</ele></trkpt><trkpt lat="62.705195" lon="9.358276"><ele>805</ele></trkpt><trkpt lat="62.705626" lon="9.357802"><ele>820</ele></trkpt><trkpt lat="62.706065" lon="9.357522"><ele>836</ele></trkpt><trkpt lat="62.706472" lon="9.356464"><ele>848</ele></trkpt><trkpt lat="62.706880" lon="9.355406"><ele>862</ele></trkpt><trkpt lat="62.707287" lon="9.354348"><ele>876</ele></trkpt><trkpt lat="62.707694" lon="9.353290"><ele>885</ele></trkpt><trkpt lat="62.708102" lon="9.352232"><ele>895</ele></trkpt><trkpt lat="62.708509" lon="9.351174"><ele>906</ele></trkpt><trkpt lat="62.708916" lon="9.350116"><ele>916</ele></trkpt><trkpt lat="62.709355" lon="9.349836"><ele>928</ele></trkpt><trkpt lat="62.709802" lon="9.349750"><ele>937</ele></trkpt><trkpt lat="62.710248" lon="9.349665"><ele>948</ele></trkpt><trkpt lat="62.710695" lon="9.349579"><ele>956</ele></trkpt><trkpt lat="62.711142" lon="9.349494"><ele>960</ele></trkpt><trkpt lat="62.711588" lon="9.349408"><ele>963</ele></trkpt><trkpt lat="62.712035" lon="9.349322"><ele>964</ele></trkpt><trkpt lat="62.712481" lon="9.349237"><ele>966</ele></trkpt><trkpt lat="62.712928" lon="9.349151"><ele>970</ele></trkpt><trkpt lat="62.713375" lon="9.349066"><ele>973</ele></trkpt><trkpt lat="62.713821" lon="9.348980"><ele>974</ele></trkpt><trkpt lat="62.714268" lon="9.348895"><ele>976</ele></trkpt><trkpt lat="62.714714" lon="9.348809"><ele>976</ele></trkpt><trkpt lat="62.715161" lon="9.348724"><ele>977</ele></trkpt><trkpt lat="62.715608" lon="9.348638"><ele>979</ele></trkpt><trkpt lat="62.716054" lon="9.348553"><ele>979</ele></trkpt><trkpt lat="62.716493" lon="9.348272"><ele>979</ele></trkpt><trkpt lat="62.716932" lon="9.347992"><ele>984</ele></trkpt><trkpt lat="62.717378" lon="9.347907"><ele>984</ele></trkpt><trkpt lat="62.717825" lon="9.347821"><ele>984</ele></trkpt><trkpt lat="62.718271" lon="9.347735"><ele>986</ele></trkpt><trkpt lat="62.718718" lon="9.347650"><ele>989</ele></trkpt><trkpt lat="62.719133" lon="9.346786"><ele>992</ele></trkpt><trkpt lat="62.719572" lon="9.346506"><ele>987</ele></trkpt><trkpt lat="62.720003" lon="9.346031"><ele>991</ele></trkpt><trkpt lat="62.720442" lon="9.345751"><ele>993</ele></trkpt><trkpt lat="62.720888" lon="9.345665"><ele>1000</ele></trkpt><trkpt lat="62.721335" lon="9.345579"><ele>1001</ele></trkpt><trkpt lat="62.721781" lon="9.345494"><ele>1001</ele></trkpt><trkpt lat="62.722228" lon="9.345408"><ele>1007</ele></trkpt><trkpt lat="62.722675" lon="9.345323"><ele>1010</ele></trkpt><trkpt lat="62.723090" lon="9.344458"><ele>1022</ele></trkpt><trkpt lat="62.723497" lon="9.343400"><ele>1026</ele></trkpt><trkpt lat="62.723904" lon="9.342341"><ele>1032</ele></trkpt><trkpt lat="62.724312" lon="9.341282"><ele>1035</ele></trkpt><trkpt lat="62.724719" lon="9.340223"><ele>1040</ele></trkpt><trkpt lat="62.725126" lon="9.339164"><ele>1047</ele></trkpt><trkpt lat="62.725533" lon="9.338105"><ele>1052</ele></trkpt><trkpt lat="62.725940" lon="9.337046"><ele>1057</ele></trkpt><trkpt lat="62.726348" lon="9.335987"><ele>1061</ele></trkpt><trkpt lat="62.726755" lon="9.334928"><ele>1065</ele></trkpt><trkpt lat="62.727162" lon="9.333869"><ele>1069</ele></trkpt><trkpt lat="62.727569" lon="9.332810"><ele>1076</ele></trkpt><trkpt lat="62.727977" lon="9.331751"><ele>1082</ele></trkpt><trkpt lat="62.728384" lon="9.330692"><ele>1085</ele></trkpt><trkpt lat="62.728791" lon="9.329633"><ele>1088</ele></trkpt><trkpt lat="62.729198" lon="9.328574"><ele>1089</ele></trkpt><trkpt lat="62.729605" lon="9.327515"><ele>1089</ele></trkpt><trkpt lat="62.730012" lon="9.326455"><ele>1094</ele></trkpt><trkpt lat="62.730420" lon="9.325396"><ele>1093</ele></trkpt><trkpt lat="62.730827" lon="9.324337"><ele>1094</ele></trkpt><trkpt lat="62.731234" lon="9.323277"><ele>1096</ele></trkpt><trkpt lat="62.731641" lon="9.322218"><ele>1096</ele></trkpt><trkpt lat="62.732048" lon="9.321159"><ele>1092</ele></trkpt><trkpt lat="62.732455" lon="9.320099"><ele>1088</ele></trkpt><trkpt lat="62.732862" lon="9.319040"><ele>1083</ele></trkpt><trkpt lat="62.733269" lon="9.317980"><ele>1079</ele></trkpt><trkpt lat="62.733676" lon="9.316921"><ele>1075</ele></trkpt><trkpt lat="62.734083" lon="9.315861"><ele>1073</ele></trkpt><trkpt lat="62.734490" lon="9.314802"><ele>1073</ele></trkpt><trkpt lat="62.734898" lon="9.313742"><ele>1073</ele></trkpt><trkpt lat="62.735305" lon="9.312683"><ele>1073</ele></trkpt><trkpt lat="62.735712" lon="9.311623"><ele>1073</ele></trkpt><trkpt lat="62.736119" lon="9.310563"><ele>1075</ele></trkpt><trkpt lat="62.736526" lon="9.309504"><ele>1077</ele></trkpt><trkpt lat="62.736933" lon="9.308444"><ele>1081</ele></trkpt><trkpt lat="62.737340" lon="9.307384"><ele>1087</ele></trkpt><trkpt lat="62.737747" lon="9.306324"><ele>1091</ele></trkpt><trkpt lat="62.738154" lon="9.305265"><ele>1096</ele></trkpt><trkpt lat="62.738561" lon="9.304205"><ele>1103</ele></trkpt><trkpt lat="62.738968" lon="9.303145"><ele>1110</ele></trkpt><trkpt lat="62.739196" lon="9.302119"><ele>1120</ele></trkpt><trkpt lat="62.739424" lon="9.301094"><ele>1133</ele></trkpt><trkpt lat="62.739831" lon="9.300034"><ele>1145</ele></trkpt><trkpt lat="62.740278" lon="9.299948"><ele>1146</ele></trkpt><trkpt lat="62.740724" lon="9.299861"><ele>1146</ele></trkpt><trkpt lat="62.741171" lon="9.299775"><ele>1146</ele></trkpt><trkpt lat="62.741617" lon="9.299689"><ele>1146</ele></trkpt><trkpt lat="62.742064" lon="9.299602"><ele>1146</ele></trkpt><trkpt lat="62.742511" lon="9.299516"><ele>1146</ele></trkpt><trkpt lat="62.742957" lon="9.299429"><ele>1146</ele></trkpt><trkpt lat="62.743380" lon="9.298759"><ele>1147</ele></trkpt><trkpt lat="62.743787" lon="9.297699"><ele>1157</ele></trkpt><trkpt lat="62.744210" lon="9.297028"><ele>1179</ele></trkpt><trkpt lat="62.744624" lon="9.296163"><ele>1193</ele></trkpt><trkpt lat="62.745063" lon="9.295881"><ele>1205</ele></trkpt><trkpt lat="62.745510" lon="9.295795"><ele>1211</ele></trkpt><trkpt lat="62.745956" lon="9.295708"><ele>1214</ele></trkpt><trkpt lat="62.746403" lon="9.295622"><ele>1217</ele></trkpt><trkpt lat="62.746849" lon="9.295535"><ele>1220</ele></trkpt><trkpt lat="62.747296" lon="9.295449"><ele>1223</ele></trkpt><trkpt lat="62.747711" lon="9.294583"><ele>1212</ele></trkpt><trkpt lat="62.748118" lon="9.293523"><ele>1211</ele></trkpt><trkpt lat="62.748524" lon="9.292463"><ele>1212</ele></trkpt><trkpt lat="62.748931" lon="9.291402"><ele>1212</ele></trkpt><trkpt lat="62.749346" lon="9.290537"><ele>1207</ele></trkpt><trkpt lat="62.749777" lon="9.290061"><ele>1207</ele></trkpt><trkpt lat="62.750215" lon="9.289779"><ele>1212</ele></trkpt><trkpt lat="62.750662" lon="9.289693"><ele>1215</ele></trkpt><trkpt lat="62.751101" lon="9.289411"><ele>1215</ele></trkpt><trkpt lat="62.751507" lon="9.288351"><ele>1208</ele></trkpt><trkpt lat="62.751954" lon="9.288264"><ele>1215</ele></trkpt><trkpt lat="62.752393" lon="9.287983"><ele>1219</ele></trkpt><trkpt lat="62.752799" lon="9.286922"><ele>1215</ele></trkpt><trkpt lat="62.753206" lon="9.285861"><ele>1212</ele></trkpt><trkpt lat="62.753613" lon="9.284801"><ele>1202</ele></trkpt><trkpt lat="62.754020" lon="9.283740"><ele>1202</ele></trkpt><trkpt lat="62.754427" lon="9.282679"><ele>1200</ele></trkpt><trkpt lat="62.754833" lon="9.281619"><ele>1202</ele></trkpt><trkpt lat="62.755272" lon="9.281337"><ele>1221</ele></trkpt><trkpt lat="62.755711" lon="9.281056"><ele>1240</ele></trkpt><trkpt lat="62.756149" lon="9.280774"><ele>1261</ele></trkpt><trkpt lat="62.756596" lon="9.280687"><ele>1287</ele></trkpt><trkpt lat="62.757034" lon="9.280406"><ele>1311</ele></trkpt><trkpt lat="62.757481" lon="9.280319"><ele>1312</ele></trkpt><trkpt lat="62.757928" lon="9.280232"><ele>1291</ele></trkpt><trkpt lat="62.758358" lon="9.279756"><ele>1264</ele></trkpt><trkpt lat="62.758781" lon="9.279085"><ele>1235</ele></trkpt><trkpt lat="62.759196" lon="9.278218"><ele>1204</ele></trkpt><trkpt lat="62.759642" lon="9.278132"><ele>1186</ele></trkpt><trkpt lat="62.760089" lon="9.278045"><ele>1184</ele></trkpt><trkpt lat="62.760535" lon="9.277958"><ele>1184</ele></trkpt><trkpt lat="62.760982" lon="9.277871"><ele>1184</ele></trkpt><trkpt lat="62.761428" lon="9.277784"><ele>1184</ele></trkpt><trkpt lat="62.761875" lon="9.277698"><ele>1184</ele></trkpt><trkpt lat="62.762321" lon="9.277611"><ele>1184</ele></trkpt><trkpt lat="62.762768" lon="9.277524"><ele>1184</ele></trkpt><trkpt lat="62.763214" lon="9.277437"><ele>1184</ele></trkpt><trkpt lat="62.763661" lon="9.277350"><ele>1184</ele></trkpt><trkpt lat="62.764108" lon="9.277264"><ele>1184</ele></trkpt><trkpt lat="62.764554" lon="9.277177"><ele>1184</ele></trkpt><trkpt lat="62.765001" lon="9.277090"><ele>1184</ele></trkpt><trkpt lat="62.765447" lon="9.277003"><ele>1184</ele></trkpt><trkpt lat="62.765894" lon="9.276916"><ele>1184</ele></trkpt><trkpt lat="62.766340" lon="9.276830"><ele>1184</ele></trkpt><trkpt lat="62.766787" lon="9.276743"><ele>1184</ele></trkpt><trkpt lat="62.767233" lon="9.276656"><ele>1184</ele></trkpt><trkpt lat="62.767680" lon="9.276569"><ele>1184</ele></trkpt><trkpt lat="62.768126" lon="9.276482"><ele>1184</ele></trkpt><trkpt lat="62.768573" lon="9.276395"><ele>1184</ele></trkpt><trkpt lat="62.769019" lon="9.276308"><ele>1184</ele></trkpt><trkpt lat="62.769466" lon="9.276222"><ele>1184</ele></trkpt><trkpt lat="62.769913" lon="9.276135"><ele>1185</ele></trkpt><trkpt lat="62.770359" lon="9.276048"><ele>1186</ele></trkpt><trkpt lat="62.770806" lon="9.275961"><ele>1189</ele></trkpt><trkpt lat="62.771252" lon="9.275874"><ele>1191</ele></trkpt><trkpt lat="62.771699" lon="9.275787"><ele>1193</ele></trkpt><trkpt lat="62.772145" lon="9.275700"><ele>1194</ele></trkpt><trkpt lat="62.772592" lon="9.275614"><ele>1194</ele></trkpt><trkpt lat="62.773038" lon="9.275527"><ele>1195</ele></trkpt><trkpt lat="62.773485" lon="9.275440"><ele>1196</ele></trkpt><trkpt lat="62.773931" lon="9.275353"><ele>1199</ele></trkpt><trkpt lat="62.774378" lon="9.275266"><ele>1200</ele></trkpt><trkpt lat="62.774824" lon="9.275179"><ele>1205</ele></trkpt><trkpt lat="62.775271" lon="9.275092"><ele>1210</ele></trkpt><trkpt lat="62.775718" lon="9.275005"><ele>1215</ele></trkpt><trkpt lat="62.776164" lon="9.274918"><ele>1219</ele></trkpt><trkpt lat="62.776611" lon="9.274832"><ele>1223</ele></trkpt><trkpt lat="62.777057" lon="9.274745"><ele>1238</ele></trkpt><trkpt lat="62.777504" lon="9.274658"><ele>1252</ele></trkpt><trkpt lat="62.777950" lon="9.274571"><ele>1267</ele></trkpt><trkpt lat="62.778397" lon="9.274484"><ele>1278</ele></trkpt><trkpt lat="62.778843" lon="9.274397"><ele>1283</ele></trkpt><trkpt lat="62.779290" lon="9.274310"><ele>1277</ele></trkpt><trkpt lat="62.779736" lon="9.274223"><ele>1270</ele></trkpt><trkpt lat="62.780191" lon="9.274331"><ele>1256</ele></trkpt><trkpt lat="62.780645" lon="9.274439"><ele>1240</ele></trkpt><trkpt lat="62.781092" lon="9.274352"><ele>1226</ele></trkpt><trkpt lat="62.781539" lon="9.274265"><ele>1225</ele></trkpt><trkpt lat="62.781985" lon="9.274179"><ele>1229</ele></trkpt><trkpt lat="62.782432" lon="9.274092"><ele>1230</ele></trkpt><trkpt lat="62.782878" lon="9.274005"><ele>1234</ele></trkpt><trkpt lat="62.783325" lon="9.273918"><ele>1228</ele></trkpt><trkpt lat="62.783771" lon="9.273831"><ele>1221</ele></trkpt><trkpt lat="62.784218" lon="9.273744"><ele>1208</ele></trkpt><trkpt lat="62.784664" lon="9.273657"><ele>1207</ele></trkpt><trkpt lat="62.785111" lon="9.273570"><ele>1208</ele></trkpt><trkpt lat="62.785557" lon="9.273483"><ele>1209</ele></trkpt><trkpt lat="62.786004" lon="9.273396"><ele>1207</ele></trkpt><trkpt lat="62.786450" lon="9.273309"><ele>1206</ele></trkpt><trkpt lat="62.786897" lon="9.273222"><ele>1206</ele></trkpt><trkpt lat="62.787344" lon="9.273135"><ele>1203</ele></trkpt><trkpt lat="62.787790" lon="9.273048"><ele>1199</ele></trkpt><trkpt lat="62.788237" lon="9.272961"><ele>1189</ele></trkpt><trkpt lat="62.788683" lon="9.272874"><ele>1197</ele></trkpt><trkpt lat="62.789130" lon="9.272787"><ele>1199</ele></trkpt><trkpt lat="62.789576" lon="9.272700"><ele>1200</ele></trkpt><trkpt lat="62.790023" lon="9.272613"><ele>1199</ele></trkpt><trkpt lat="62.790469" lon="9.272526"><ele>1194</ele></trkpt><trkpt lat="62.790916" lon="9.272439"><ele>1192</ele></trkpt><trkpt lat="62.791362" lon="9.272352"><ele>1190</ele></trkpt><trkpt lat="62.791809" lon="9.272265"><ele>1179</ele></trkpt><trkpt lat="62.792255" lon="9.272178"><ele>1170</ele></trkpt><trkpt lat="62.792702" lon="9.272091"><ele>1168</ele></trkpt><trkpt lat="62.793148" lon="9.272004"><ele>1165</ele></trkpt><trkpt lat="62.793595" lon="9.271917"><ele>1160</ele></trkpt><trkpt lat="62.794042" lon="9.271830"><ele>1158</ele></trkpt><trkpt lat="62.794488" lon="9.271743"><ele>1158</ele></trkpt><trkpt lat="62.794935" lon="9.271656"><ele>1160</ele></trkpt><trkpt lat="62.795381" lon="9.271569"><ele>1164</ele></trkpt><trkpt lat="62.795828" lon="9.271482"><ele>1174</ele></trkpt><trkpt lat="62.796274" lon="9.271395"><ele>1188</ele></trkpt><trkpt lat="62.796721" lon="9.271308"><ele>1202</ele></trkpt><trkpt lat="62.797151" lon="9.270831"><ele>1218</ele></trkpt><trkpt lat="62.797590" lon="9.270549"><ele>1228</ele></trkpt><trkpt lat="62.798021" lon="9.270072"><ele>1241</ele></trkpt><trkpt lat="62.798467" lon="9.269985"><ele>1239</ele></trkpt><trkpt lat="62.798914" lon="9.269898"><ele>1244</ele></trkpt><trkpt lat="62.799360" lon="9.269810"><ele>1250</ele></trkpt><trkpt lat="62.799807" lon="9.269723"><ele>1257</ele></trkpt><trkpt lat="62.800253" lon="9.269636"><ele>1264</ele></trkpt><trkpt lat="62.800676" lon="9.268964"><ele>1273</ele></trkpt><trkpt lat="62.801082" lon="9.267901"><ele>1285</ele></trkpt><trkpt lat="62.801489" lon="9.266839"><ele>1300</ele></trkpt><trkpt lat="62.801896" lon="9.265776"><ele>1318</ele></trkpt><trkpt lat="62.801977" lon="9.265563"><ele>1321</ele></trkpt></trkseg></trk><wpt lat="62.797905" lon="9.249643"><ele>1095</ele><name>Run end · Unnamed summit 1321 m</name></wpt><trk><name>Down · Unnamed summit 1321 m</name><desc>fall-line run: 371 m of 20–30°, 171 m drop, aspect 276°, max 30°, 4.9% ≥30°; ends 12.34 km from the car.</desc><trkseg><trkpt lat="62.801977" lon="9.265563"><ele>1321</ele></trkpt><trkpt lat="62.797778" lon="9.257534"><ele>1266</ele></trkpt><trkpt lat="62.798022" lon="9.256896"><ele>1249</ele></trkpt><trkpt lat="62.798176" lon="9.256276"><ele>1236</ele></trkpt><trkpt lat="62.798152" lon="9.255691"><ele>1224</ele></trkpt><trkpt lat="62.798039" lon="9.255123"><ele>1212</ele></trkpt><trkpt lat="62.798015" lon="9.254538"><ele>1201</ele></trkpt><trkpt lat="62.798081" lon="9.253935"><ele>1191</ele></trkpt><trkpt lat="62.798057" lon="9.253350"><ele>1177</ele></trkpt><trkpt lat="62.798033" lon="9.252764"><ele>1165</ele></trkpt><trkpt lat="62.798009" lon="9.252179"><ele>1153</ele></trkpt><trkpt lat="62.797985" lon="9.251594"><ele>1142</ele></trkpt><trkpt lat="62.797961" lon="9.251009"><ele>1130</ele></trkpt><trkpt lat="62.797937" lon="9.250423"><ele>1117</ele></trkpt><trkpt lat="62.797913" lon="9.249838"><ele>1101</ele></trkpt><trkpt lat="62.797905" lon="9.249643"><ele>1095</ele></trkpt></trkseg></trk></gpx>