<?xml version="1.0" encoding="UTF-8"?>
<gpx version="1.1" creator="Rando toppturs" xmlns="http://www.topografix.com/GPX/1/1"><metadata><name>094 Klingråkkammen 1697 m</name><desc>This is an automatically generated list. I have not checked them all. Do not attempt these if you're a beginner. Generated 2026-09-13 17:42 from Kartverket 10 m terrain. Ascent lines are least-cost terrain paths under 35°, not verified routes. Not a snow-stability assessment.</desc></metadata><wpt lat="62.694435" lon="9.000137"><ele>759</ele><name>Car · Klingråkkammen 1697 m</name></wpt><wpt lat="62.638835" lon="8.944897"><ele>1697</ele><name>Klingråkkammen 1697 m</name></wpt><trk><name>Up · Klingråkkammen 1697 m</name><desc>least-cost ascent: +1086 m over 8101 m, max 30°, 0.0% on 30–35°, ≈4.74 h at 4 km/h + 400 m/h. Terrain possibility, not a checked route.</desc><trkseg><trkpt lat="62.694435" lon="9.000137"><ele>759</ele></trkpt><trkpt lat="62.693947" lon="8.999257"><ele>756</ele></trkpt><trkpt lat="62.693459" lon="8.998376"><ele>756</ele></trkpt><trkpt lat="62.692971" lon="8.997495"><ele>756</ele></trkpt><trkpt lat="62.692483" lon="8.996614"><ele>756</ele></trkpt><trkpt lat="62.691995" lon="8.995734"><ele>756</ele></trkpt><trkpt lat="62.691507" lon="8.994853"><ele>756</ele></trkpt><trkpt lat="62.691019" lon="8.993972"><ele>756</ele></trkpt><trkpt lat="62.690531" lon="8.993092"><ele>759</ele></trkpt><trkpt lat="62.690043" lon="8.992211"><ele>759</ele></trkpt><trkpt lat="62.689555" lon="8.991330"><ele>760</ele></trkpt><trkpt lat="62.689067" lon="8.990450"><ele>759</ele></trkpt><trkpt lat="62.688579" lon="8.989569"><ele>759</ele></trkpt><trkpt lat="62.688090" lon="8.988689"><ele>761</ele></trkpt><trkpt lat="62.687602" lon="8.987809"><ele>761</ele></trkpt><trkpt lat="62.687114" lon="8.986928"><ele>765</ele></trkpt><trkpt lat="62.686626" lon="8.986048"><ele>778</ele></trkpt><trkpt lat="62.686146" lon="8.985362"><ele>792</ele></trkpt><trkpt lat="62.685658" lon="8.984481"><ele>806</ele></trkpt><trkpt lat="62.685170" lon="8.983601"><ele>817</ele></trkpt><trkpt lat="62.684682" lon="8.982721"><ele>830</ele></trkpt><trkpt lat="62.684194" lon="8.981841"><ele>842</ele></trkpt><trkpt lat="62.683706" lon="8.980960"><ele>854</ele></trkpt><trkpt lat="62.683218" lon="8.980080"><ele>864</ele></trkpt><trkpt lat="62.682730" lon="8.979200"><ele>873</ele></trkpt><trkpt lat="62.682242" lon="8.978320"><ele>884</ele></trkpt><trkpt lat="62.681753" lon="8.977440"><ele>899</ele></trkpt><trkpt lat="62.681265" lon="8.976560"><ele>916</ele></trkpt><trkpt lat="62.680777" lon="8.975680"><ele>933</ele></trkpt><trkpt lat="62.680289" lon="8.974800"><ele>956</ele></trkpt><trkpt lat="62.679826" lon="8.974502"><ele>974</ele></trkpt><trkpt lat="62.679380" lon="8.974593"><ele>988</ele></trkpt><trkpt lat="62.678933" lon="8.974684"><ele>999</ele></trkpt><trkpt lat="62.678479" lon="8.974581"><ele>1009</ele></trkpt><trkpt lat="62.677990" lon="8.973701"><ele>1020</ele></trkpt><trkpt lat="62.677502" lon="8.972821"><ele>1018</ele></trkpt><trkpt lat="62.677014" lon="8.971942"><ele>1012</ele></trkpt><trkpt lat="62.676526" lon="8.971062"><ele>1016</ele></trkpt><trkpt lat="62.676038" lon="8.970182"><ele>1030</ele></trkpt><trkpt lat="62.675550" lon="8.969302"><ele>1026</ele></trkpt><trkpt lat="62.675061" lon="8.968422"><ele>1021</ele></trkpt><trkpt lat="62.674573" lon="8.967543"><ele>1020</ele></trkpt><trkpt lat="62.674085" lon="8.966663"><ele>1029</ele></trkpt><trkpt lat="62.673597" lon="8.965783"><ele>1031</ele></trkpt><trkpt lat="62.673109" lon="8.964904"><ele>1038</ele></trkpt><trkpt lat="62.672620" lon="8.964024"><ele>1046</ele></trkpt><trkpt lat="62.672149" lon="8.963533"><ele>1063</ele></trkpt><trkpt lat="62.671703" lon="8.963624"><ele>1075</ele></trkpt><trkpt lat="62.671256" lon="8.963715"><ele>1086</ele></trkpt><trkpt lat="62.670810" lon="8.963806"><ele>1095</ele></trkpt><trkpt lat="62.670364" lon="8.963898"><ele>1107</ele></trkpt><trkpt lat="62.669917" lon="8.963989"><ele>1117</ele></trkpt><trkpt lat="62.669471" lon="8.964080"><ele>1129</ele></trkpt><trkpt lat="62.669025" lon="8.964171"><ele>1139</ele></trkpt><trkpt lat="62.668553" lon="8.963680"><ele>1146</ele></trkpt><trkpt lat="62.668074" lon="8.962995"><ele>1147</ele></trkpt><trkpt lat="62.667619" lon="8.962892"><ele>1146</ele></trkpt><trkpt lat="62.667156" lon="8.962595"><ele>1140</ele></trkpt><trkpt lat="62.666684" lon="8.962103"><ele>1135</ele></trkpt><trkpt lat="62.666196" lon="8.961224"><ele>1130</ele></trkpt><trkpt lat="62.665708" lon="8.960345"><ele>1123</ele></trkpt><trkpt lat="62.665220" lon="8.959465"><ele>1118</ele></trkpt><trkpt lat="62.664731" lon="8.958586"><ele>1123</ele></trkpt><trkpt lat="62.664252" lon="8.957901"><ele>1138</ele></trkpt><trkpt lat="62.663805" lon="8.957992"><ele>1156</ele></trkpt><trkpt lat="62.663401" lon="8.959054"><ele>1175</ele></trkpt><trkpt lat="62.662980" lon="8.959727"><ele>1192</ele></trkpt><trkpt lat="62.662533" lon="8.959819"><ele>1206</ele></trkpt><trkpt lat="62.662112" lon="8.960492"><ele>1215</ele></trkpt><trkpt lat="62.661632" lon="8.959807"><ele>1224</ele></trkpt><trkpt lat="62.661161" lon="8.959316"><ele>1245</ele></trkpt><trkpt lat="62.660740" lon="8.959989"><ele>1259</ele></trkpt><trkpt lat="62.660336" lon="8.961051"><ele>1273</ele></trkpt><trkpt lat="62.659906" lon="8.961530"><ele>1295</ele></trkpt><trkpt lat="62.659477" lon="8.962010"><ele>1318</ele></trkpt><trkpt lat="62.659022" lon="8.961907"><ele>1322</ele></trkpt><trkpt lat="62.658534" lon="8.961028"><ele>1312</ele></trkpt><trkpt lat="62.658045" lon="8.960148"><ele>1297</ele></trkpt><trkpt lat="62.657557" lon="8.959269"><ele>1286</ele></trkpt><trkpt lat="62.657069" lon="8.958390"><ele>1280</ele></trkpt><trkpt lat="62.656581" lon="8.957511"><ele>1278</ele></trkpt><trkpt lat="62.656092" lon="8.956632"><ele>1272</ele></trkpt><trkpt lat="62.655604" lon="8.955753"><ele>1265</ele></trkpt><trkpt lat="62.655116" lon="8.954874"><ele>1259</ele></trkpt><trkpt lat="62.655074" lon="8.953904"><ele>1267</ele></trkpt><trkpt lat="62.654943" lon="8.952952"><ele>1269</ele></trkpt><trkpt lat="62.654633" lon="8.952037"><ele>1264</ele></trkpt><trkpt lat="62.654591" lon="8.951067"><ele>1269</ele></trkpt><trkpt lat="62.654549" lon="8.950096"><ele>1268</ele></trkpt><trkpt lat="62.654507" lon="8.949126"><ele>1285</ele></trkpt><trkpt lat="62.654197" lon="8.948211"><ele>1291</ele></trkpt><trkpt lat="62.654066" lon="8.947259"><ele>1303</ele></trkpt><trkpt lat="62.654024" lon="8.946289"><ele>1314</ele></trkpt><trkpt lat="62.653982" lon="8.945319"><ele>1326</ele></trkpt><trkpt lat="62.653850" lon="8.944367"><ele>1334</ele></trkpt><trkpt lat="62.653808" lon="8.943397"><ele>1345</ele></trkpt><trkpt lat="62.653677" lon="8.942445"><ele>1351</ele></trkpt><trkpt lat="62.653546" lon="8.941493"><ele>1368</ele></trkpt><trkpt lat="62.653057" lon="8.940614"><ele>1392</ele></trkpt><trkpt lat="62.652586" lon="8.940124"><ele>1414</ele></trkpt><trkpt lat="62.652131" lon="8.940021"><ele>1432</ele></trkpt><trkpt lat="62.651685" lon="8.940113"><ele>1449</ele></trkpt><trkpt lat="62.651238" lon="8.940204"><ele>1464</ele></trkpt><trkpt lat="62.650792" lon="8.940296"><ele>1478</ele></trkpt><trkpt lat="62.650346" lon="8.940387"><ele>1482</ele></trkpt><trkpt lat="62.649908" lon="8.940673"><ele>1497</ele></trkpt><trkpt lat="62.649462" lon="8.940764"><ele>1507</ele></trkpt><trkpt lat="62.649016" lon="8.940856"><ele>1523</ele></trkpt><trkpt lat="62.648569" lon="8.940947"><ele>1538</ele></trkpt><trkpt lat="62.648123" lon="8.941038"><ele>1553</ele></trkpt><trkpt lat="62.647702" lon="8.941712"><ele>1568</ele></trkpt><trkpt lat="62.647256" lon="8.941803"><ele>1581</ele></trkpt><trkpt lat="62.646809" lon="8.941895"><ele>1590</ele></trkpt><trkpt lat="62.646363" lon="8.941986"><ele>1598</ele></trkpt><trkpt lat="62.645917" lon="8.942078"><ele>1604</ele></trkpt><trkpt lat="62.645471" lon="8.942169"><ele>1609</ele></trkpt><trkpt lat="62.645024" lon="8.942260"><ele>1611</ele></trkpt><trkpt lat="62.644578" lon="8.942352"><ele>1612</ele></trkpt><trkpt lat="62.644132" lon="8.942443"><ele>1616</ele></trkpt><trkpt lat="62.643685" lon="8.942535"><ele>1621</ele></trkpt><trkpt lat="62.643239" lon="8.942626"><ele>1624</ele></trkpt><trkpt lat="62.642793" lon="8.942717"><ele>1626</ele></trkpt><trkpt lat="62.642347" lon="8.942809"><ele>1629</ele></trkpt><trkpt lat="62.641900" lon="8.942900"><ele>1634</ele></trkpt><trkpt lat="62.641454" lon="8.942992"><ele>1643</ele></trkpt><trkpt lat="62.641008" lon="8.943083"><ele>1657</ele></trkpt><trkpt lat="62.640561" lon="8.943174"><ele>1671</ele></trkpt><trkpt lat="62.640115" lon="8.943266"><ele>1680</ele></trkpt><trkpt lat="62.639669" lon="8.943357"><ele>1687</ele></trkpt><trkpt lat="62.639239" lon="8.943836"><ele>1691</ele></trkpt><trkpt lat="62.638835" lon="8.944897"><ele>1697</ele></trkpt><trkpt lat="62.638835" lon="8.944897"><ele>1697</ele></trkpt></trkseg></trk><wpt lat="62.635226" lon="8.936441"><ele>1491</ele><name>Run end · Klingråkkammen 1697 m</name></wpt><trk><name>Down · Klingråkkammen 1697 m</name><desc>fall-line run: 367 m of 20–30°, 156 m drop, aspect 207°, max 29°, 0.0% ≥30°; ends 7.37 km from the car.</desc><trkseg><trkpt lat="62.638835" lon="8.944897"><ele>1697</ele></trkpt><trkpt lat="62.638000" lon="8.940177"><ele>1647</ele></trkpt><trkpt lat="62.637707" lon="8.939650"><ele>1630</ele></trkpt><trkpt lat="62.637422" lon="8.939317"><ele>1613</ele></trkpt><trkpt lat="62.637146" lon="8.939178"><ele>1597</ele></trkpt><trkpt lat="62.636870" lon="8.939039"><ele>1583</ele></trkpt><trkpt lat="62.636585" lon="8.938706"><ele>1565</ele></trkpt><trkpt lat="62.636292" lon="8.938179"><ele>1549</ele></trkpt><trkpt lat="62.635999" lon="8.937652"><ele>1534</ele></trkpt><trkpt lat="62.635706" lon="8.937126"><ele>1519</ele></trkpt><trkpt lat="62.635413" lon="8.936599"><ele>1502</ele></trkpt><trkpt lat="62.635226" lon="8.936441"><ele>1491</ele></trkpt></trkseg></trk></gpx>