<?xml version="1.0" encoding="UTF-8"?>
<gpx version="1.1" creator="Rando toppturs" xmlns="http://www.topografix.com/GPX/1/1"><metadata><name>096 Falkfangarhøa 1367 m</name><desc>This is an automatically generated list. I have not checked them all. Do not attempt these if you're a beginner. Generated 2026-09-13 17:42 from Kartverket 10 m terrain. Ascent lines are least-cost terrain paths under 35°, not verified routes. Not a snow-stability assessment.</desc></metadata><wpt lat="62.703106" lon="9.391406"><ele>678</ele><name>Car · Falkfangarhøa 1367 m</name></wpt><wpt lat="62.750768" lon="9.370162"><ele>1367</ele><name>Falkfangarhøa 1367 m</name></wpt><trk><name>Up · Falkfangarhøa 1367 m</name><desc>least-cost ascent: +696 m over 5706 m, max 24°, 0.0% on 30–35°, ≈3.17 h at 4 km/h + 400 m/h. Terrain possibility, not a checked route.</desc><trkseg><trkpt lat="62.703106" lon="9.391406"><ele>678</ele></trkpt><trkpt lat="62.703553" lon="9.391321"><ele>676</ele></trkpt><trkpt lat="62.704000" lon="9.391236"><ele>677</ele></trkpt><trkpt lat="62.704446" lon="9.391151"><ele>682</ele></trkpt><trkpt lat="62.704893" lon="9.391066"><ele>685</ele></trkpt><trkpt lat="62.705340" lon="9.390982"><ele>687</ele></trkpt><trkpt lat="62.705786" lon="9.390897"><ele>687</ele></trkpt><trkpt lat="62.706233" lon="9.390812"><ele>687</ele></trkpt><trkpt lat="62.706680" lon="9.390727"><ele>694</ele></trkpt><trkpt lat="62.707126" lon="9.390642"><ele>700</ele></trkpt><trkpt lat="62.707573" lon="9.390557"><ele>703</ele></trkpt><trkpt lat="62.708019" lon="9.390472"><ele>706</ele></trkpt><trkpt lat="62.708466" lon="9.390387"><ele>711</ele></trkpt><trkpt lat="62.708913" lon="9.390302"><ele>714</ele></trkpt><trkpt lat="62.709359" lon="9.390217"><ele>716</ele></trkpt><trkpt lat="62.709806" lon="9.390133"><ele>718</ele></trkpt><trkpt lat="62.710214" lon="9.389075"><ele>717</ele></trkpt><trkpt lat="62.710621" lon="9.388017"><ele>718</ele></trkpt><trkpt lat="62.711029" lon="9.386959"><ele>725</ele></trkpt><trkpt lat="62.711436" lon="9.385902"><ele>730</ele></trkpt><trkpt lat="62.711844" lon="9.384844"><ele>737</ele></trkpt><trkpt lat="62.712252" lon="9.383786"><ele>748</ele></trkpt><trkpt lat="62.712659" lon="9.382728"><ele>758</ele></trkpt><trkpt lat="62.713082" lon="9.382060"><ele>765</ele></trkpt><trkpt lat="62.713529" lon="9.381974"><ele>769</ele></trkpt><trkpt lat="62.713976" lon="9.381889"><ele>774</ele></trkpt><trkpt lat="62.714422" lon="9.381804"><ele>781</ele></trkpt><trkpt lat="62.714869" lon="9.381719"><ele>787</ele></trkpt><trkpt lat="62.715316" lon="9.381634"><ele>793</ele></trkpt><trkpt lat="62.715762" lon="9.381549"><ele>796</ele></trkpt><trkpt lat="62.716209" lon="9.381464"><ele>801</ele></trkpt><trkpt lat="62.716655" lon="9.381379"><ele>805</ele></trkpt><trkpt lat="62.717102" lon="9.381294"><ele>809</ele></trkpt><trkpt lat="62.717549" lon="9.381209"><ele>814</ele></trkpt><trkpt lat="62.717995" lon="9.381124"><ele>817</ele></trkpt><trkpt lat="62.718442" lon="9.381039"><ele>821</ele></trkpt><trkpt lat="62.718889" lon="9.380954"><ele>827</ele></trkpt><trkpt lat="62.719335" lon="9.380869"><ele>831</ele></trkpt><trkpt lat="62.719782" lon="9.380783"><ele>835</ele></trkpt><trkpt lat="62.720228" lon="9.380698"><ele>842</ele></trkpt><trkpt lat="62.720675" lon="9.380613"><ele>847</ele></trkpt><trkpt lat="62.721114" lon="9.380334"><ele>857</ele></trkpt><trkpt lat="62.721561" lon="9.380248"><ele>866</ele></trkpt><trkpt lat="62.722007" lon="9.380163"><ele>872</ele></trkpt><trkpt lat="62.722454" lon="9.380078"><ele>881</ele></trkpt><trkpt lat="62.722900" lon="9.379993"><ele>891</ele></trkpt><trkpt lat="62.723347" lon="9.379908"><ele>903</ele></trkpt><trkpt lat="62.723794" lon="9.379823"><ele>916</ele></trkpt><trkpt lat="62.724240" lon="9.379738"><ele>926</ele></trkpt><trkpt lat="62.724687" lon="9.379653"><ele>936</ele></trkpt><trkpt lat="62.725134" lon="9.379568"><ele>944</ele></trkpt><trkpt lat="62.725580" lon="9.379482"><ele>953</ele></trkpt><trkpt lat="62.726027" lon="9.379397"><ele>959</ele></trkpt><trkpt lat="62.726473" lon="9.379312"><ele>970</ele></trkpt><trkpt lat="62.726920" lon="9.379227"><ele>979</ele></trkpt><trkpt lat="62.727367" lon="9.379142"><ele>985</ele></trkpt><trkpt lat="62.727813" lon="9.379057"><ele>990</ele></trkpt><trkpt lat="62.728260" lon="9.378972"><ele>998</ele></trkpt><trkpt lat="62.728707" lon="9.378886"><ele>1004</ele></trkpt><trkpt lat="62.729153" lon="9.378801"><ele>1010</ele></trkpt><trkpt lat="62.729600" lon="9.378716"><ele>1016</ele></trkpt><trkpt lat="62.730046" lon="9.378631"><ele>1020</ele></trkpt><trkpt lat="62.730493" lon="9.378546"><ele>1030</ele></trkpt><trkpt lat="62.730940" lon="9.378461"><ele>1037</ele></trkpt><trkpt lat="62.731386" lon="9.378375"><ele>1042</ele></trkpt><trkpt lat="62.731833" lon="9.378290"><ele>1049</ele></trkpt><trkpt lat="62.732279" lon="9.378205"><ele>1062</ele></trkpt><trkpt lat="62.732726" lon="9.378120"><ele>1069</ele></trkpt><trkpt lat="62.733173" lon="9.378035"><ele>1076</ele></trkpt><trkpt lat="62.733619" lon="9.377950"><ele>1083</ele></trkpt><trkpt lat="62.734066" lon="9.377864"><ele>1091</ele></trkpt><trkpt lat="62.734513" lon="9.377779"><ele>1100</ele></trkpt><trkpt lat="62.734959" lon="9.377694"><ele>1107</ele></trkpt><trkpt lat="62.735406" lon="9.377609"><ele>1113</ele></trkpt><trkpt lat="62.735852" lon="9.377524"><ele>1119</ele></trkpt><trkpt lat="62.736299" lon="9.377438"><ele>1122</ele></trkpt><trkpt lat="62.736738" lon="9.377159"><ele>1132</ele></trkpt><trkpt lat="62.737185" lon="9.377073"><ele>1145</ele></trkpt><trkpt lat="62.737623" lon="9.376793"><ele>1155</ele></trkpt><trkpt lat="62.738062" lon="9.376513"><ele>1165</ele></trkpt><trkpt lat="62.738509" lon="9.376428"><ele>1170</ele></trkpt><trkpt lat="62.738955" lon="9.376343"><ele>1174</ele></trkpt><trkpt lat="62.739402" lon="9.376258"><ele>1177</ele></trkpt><trkpt lat="62.739849" lon="9.376173"><ele>1177</ele></trkpt><trkpt lat="62.740295" lon="9.376087"><ele>1177</ele></trkpt><trkpt lat="62.740742" lon="9.376002"><ele>1176</ele></trkpt><trkpt lat="62.741188" lon="9.375917"><ele>1179</ele></trkpt><trkpt lat="62.741635" lon="9.375832"><ele>1182</ele></trkpt><trkpt lat="62.742082" lon="9.375746"><ele>1184</ele></trkpt><trkpt lat="62.742528" lon="9.375661"><ele>1189</ele></trkpt><trkpt lat="62.742975" lon="9.375576"><ele>1191</ele></trkpt><trkpt lat="62.743422" lon="9.375491"><ele>1192</ele></trkpt><trkpt lat="62.743868" lon="9.375405"><ele>1197</ele></trkpt><trkpt lat="62.744315" lon="9.375320"><ele>1202</ele></trkpt><trkpt lat="62.744761" lon="9.375235"><ele>1208</ele></trkpt><trkpt lat="62.745208" lon="9.375150"><ele>1216</ele></trkpt><trkpt lat="62.745655" lon="9.375064"><ele>1223</ele></trkpt><trkpt lat="62.746101" lon="9.374979"><ele>1232</ele></trkpt><trkpt lat="62.746524" lon="9.374309"><ele>1241</ele></trkpt><trkpt lat="62.746932" lon="9.373250"><ele>1256</ele></trkpt><trkpt lat="62.747339" lon="9.372191"><ele>1271</ele></trkpt><trkpt lat="62.747763" lon="9.371521"><ele>1293</ele></trkpt><trkpt lat="62.748186" lon="9.370851"><ele>1310</ele></trkpt><trkpt lat="62.748632" lon="9.370766"><ele>1322</ele></trkpt><trkpt lat="62.749079" lon="9.370681"><ele>1330</ele></trkpt><trkpt lat="62.749526" lon="9.370595"><ele>1339</ele></trkpt><trkpt lat="62.749972" lon="9.370510"><ele>1350</ele></trkpt><trkpt lat="62.750419" lon="9.370425"><ele>1358</ele></trkpt><trkpt lat="62.750768" lon="9.370162"><ele>1367</ele></trkpt></trkseg></trk><wpt lat="62.753984" lon="9.358356"><ele>1107</ele><name>Run end · Falkfangarhøa 1367 m</name></wpt><trk><name>Down · Falkfangarhøa 1367 m</name><desc>fall-line run: 352 m of 20–30°, 156 m drop, aspect 284°, max 31°, 2.7% ≥30°; ends 5.92 km from the car.</desc><trkseg><trkpt lat="62.750768" lon="9.370162"><ele>1367</ele></trkpt><trkpt lat="62.753730" lon="9.365473"><ele>1263</ele></trkpt><trkpt lat="62.753975" lon="9.364837"><ele>1242</ele></trkpt><trkpt lat="62.754219" lon="9.364201"><ele>1223</ele></trkpt><trkpt lat="62.754195" lon="9.363616"><ele>1212</ele></trkpt><trkpt lat="62.754172" lon="9.363032"><ele>1199</ele></trkpt><trkpt lat="62.754148" lon="9.362447"><ele>1188</ele></trkpt><trkpt lat="62.754125" lon="9.361863"><ele>1178</ele></trkpt><trkpt lat="62.754101" lon="9.361278"><ele>1168</ele></trkpt><trkpt lat="62.754078" lon="9.360694"><ele>1155</ele></trkpt><trkpt lat="62.754054" lon="9.360110"><ele>1140</ele></trkpt><trkpt lat="62.754031" lon="9.359525"><ele>1129</ele></trkpt><trkpt lat="62.754007" lon="9.358941"><ele>1118</ele></trkpt><trkpt lat="62.753984" lon="9.358356"><ele>1107</ele></trkpt><trkpt lat="62.753984" lon="9.358356"><ele>1107</ele></trkpt></trkseg></trk></gpx>