<?xml version="1.0" encoding="UTF-8"?>
<gpx version="1.1" creator="Rando toppturs" xmlns="http://www.topografix.com/GPX/1/1"><metadata><name>097 Ramshøpiken 1172 m</name><desc>This is an automatically generated list. I have not checked them all. Do not attempt these if you're a beginner. Generated 2026-09-13 17:42 from Kartverket 10 m terrain. Ascent lines are least-cost terrain paths under 35°, not verified routes. Not a snow-stability assessment.</desc></metadata><wpt lat="62.817035" lon="9.829169"><ele>714</ele><name>Car · Ramshøpiken 1172 m</name></wpt><wpt lat="62.781259" lon="9.844688"><ele>1172</ele><name>Ramshøpiken 1172 m</name></wpt><trk><name>Up · Ramshøpiken 1172 m</name><desc>least-cost ascent: +533 m over 4401 m, max 28°, 0.0% on 30–35°, ≈2.43 h at 4 km/h + 400 m/h. Terrain possibility, not a checked route.</desc><trkseg><trkpt lat="62.817035" lon="9.829169"><ele>714</ele></trkpt><trkpt lat="62.816588" lon="9.829248"><ele>715</ele></trkpt><trkpt lat="62.816127" lon="9.828936"><ele>717</ele></trkpt><trkpt lat="62.815673" lon="9.828819"><ele>720</ele></trkpt><trkpt lat="62.815226" lon="9.828898"><ele>724</ele></trkpt><trkpt lat="62.814779" lon="9.828977"><ele>726</ele></trkpt><trkpt lat="62.814332" lon="9.829055"><ele>729</ele></trkpt><trkpt lat="62.813885" lon="9.829134"><ele>730</ele></trkpt><trkpt lat="62.813438" lon="9.829212"><ele>731</ele></trkpt><trkpt lat="62.812991" lon="9.829291"><ele>728</ele></trkpt><trkpt lat="62.812544" lon="9.829370"><ele>730</ele></trkpt><trkpt lat="62.812097" lon="9.829448"><ele>724</ele></trkpt><trkpt lat="62.811650" lon="9.829527"><ele>726</ele></trkpt><trkpt lat="62.811211" lon="9.829801"><ele>731</ele></trkpt><trkpt lat="62.810764" lon="9.829880"><ele>736</ele></trkpt><trkpt lat="62.810317" lon="9.829958"><ele>732</ele></trkpt><trkpt lat="62.809870" lon="9.830037"><ele>726</ele></trkpt><trkpt lat="62.809423" lon="9.830115"><ele>725</ele></trkpt><trkpt lat="62.808976" lon="9.830194"><ele>727</ele></trkpt><trkpt lat="62.808529" lon="9.830273"><ele>733</ele></trkpt><trkpt lat="62.808082" lon="9.830351"><ele>743</ele></trkpt><trkpt lat="62.807642" lon="9.830625"><ele>755</ele></trkpt><trkpt lat="62.807202" lon="9.830899"><ele>755</ele></trkpt><trkpt lat="62.806756" lon="9.830978"><ele>745</ele></trkpt><trkpt lat="62.806309" lon="9.831056"><ele>739</ele></trkpt><trkpt lat="62.805883" lon="9.831721"><ele>748</ele></trkpt><trkpt lat="62.805443" lon="9.831995"><ele>749</ele></trkpt><trkpt lat="62.804996" lon="9.832073"><ele>749</ele></trkpt><trkpt lat="62.804550" lon="9.832152"><ele>743</ele></trkpt><trkpt lat="62.804103" lon="9.832230"><ele>744</ele></trkpt><trkpt lat="62.803656" lon="9.832309"><ele>747</ele></trkpt><trkpt lat="62.803209" lon="9.832387"><ele>749</ele></trkpt><trkpt lat="62.802762" lon="9.832466"><ele>752</ele></trkpt><trkpt lat="62.802315" lon="9.832545"><ele>755</ele></trkpt><trkpt lat="62.801868" lon="9.832623"><ele>759</ele></trkpt><trkpt lat="62.801421" lon="9.832702"><ele>759</ele></trkpt><trkpt lat="62.800960" lon="9.832390"><ele>773</ele></trkpt><trkpt lat="62.800513" lon="9.832468"><ele>779</ele></trkpt><trkpt lat="62.800066" lon="9.832547"><ele>785</ele></trkpt><trkpt lat="62.799619" lon="9.832625"><ele>788</ele></trkpt><trkpt lat="62.799172" lon="9.832704"><ele>794</ele></trkpt><trkpt lat="62.798725" lon="9.832782"><ele>794</ele></trkpt><trkpt lat="62.798278" lon="9.832861"><ele>800</ele></trkpt><trkpt lat="62.797831" lon="9.832939"><ele>805</ele></trkpt><trkpt lat="62.797384" lon="9.833018"><ele>808</ele></trkpt><trkpt lat="62.796923" lon="9.832706"><ele>823</ele></trkpt><trkpt lat="62.796476" lon="9.832784"><ele>833</ele></trkpt><trkpt lat="62.796029" lon="9.832863"><ele>841</ele></trkpt><trkpt lat="62.795567" lon="9.832551"><ele>856</ele></trkpt><trkpt lat="62.795113" lon="9.832434"><ele>871</ele></trkpt><trkpt lat="62.794659" lon="9.832317"><ele>889</ele></trkpt><trkpt lat="62.794212" lon="9.832396"><ele>906</ele></trkpt><trkpt lat="62.793772" lon="9.832670"><ele>922</ele></trkpt><trkpt lat="62.793325" lon="9.832748"><ele>934</ele></trkpt><trkpt lat="62.792871" lon="9.832632"><ele>951</ele></trkpt><trkpt lat="62.792424" lon="9.832710"><ele>958</ele></trkpt><trkpt lat="62.791977" lon="9.832789"><ele>966</ele></trkpt><trkpt lat="62.791530" lon="9.832867"><ele>972</ele></trkpt><trkpt lat="62.791083" lon="9.832946"><ele>976</ele></trkpt><trkpt lat="62.790636" lon="9.833024"><ele>980</ele></trkpt><trkpt lat="62.790190" lon="9.833103"><ele>982</ele></trkpt><trkpt lat="62.789743" lon="9.833181"><ele>986</ele></trkpt><trkpt lat="62.789296" lon="9.833260"><ele>987</ele></trkpt><trkpt lat="62.788849" lon="9.833338"><ele>987</ele></trkpt><trkpt lat="62.788402" lon="9.833416"><ele>990</ele></trkpt><trkpt lat="62.787962" lon="9.833690"><ele>998</ele></trkpt><trkpt lat="62.787529" lon="9.834159"><ele>1010</ele></trkpt><trkpt lat="62.787090" lon="9.834433"><ele>1017</ele></trkpt><trkpt lat="62.786643" lon="9.834511"><ele>1017</ele></trkpt><trkpt lat="62.786210" lon="9.834980"><ele>1023</ele></trkpt><trkpt lat="62.785799" lon="9.836034"><ele>1040</ele></trkpt><trkpt lat="62.785359" lon="9.836308"><ele>1051</ele></trkpt><trkpt lat="62.784948" lon="9.837362"><ele>1069</ele></trkpt><trkpt lat="62.784537" lon="9.838417"><ele>1087</ele></trkpt><trkpt lat="62.784112" lon="9.839081"><ele>1102</ele></trkpt><trkpt lat="62.783693" lon="9.839940"><ele>1116</ele></trkpt><trkpt lat="62.783282" lon="9.840994"><ele>1138</ele></trkpt><trkpt lat="62.782871" lon="9.842048"><ele>1150</ele></trkpt><trkpt lat="62.782446" lon="9.842712"><ele>1160</ele></trkpt><trkpt lat="62.782028" lon="9.843571"><ele>1159</ele></trkpt><trkpt lat="62.781595" lon="9.844040"><ele>1159</ele></trkpt><trkpt lat="62.781259" lon="9.844688"><ele>1172</ele></trkpt></trkseg></trk><wpt lat="62.788209" lon="9.833057"><ele>983</ele><name>Run end · Ramshøpiken 1172 m</name></wpt><trk><name>Down · Ramshøpiken 1172 m</name><desc>fall-line run: 348 m of 20–30°, 176 m drop, aspect 332°, max 29°, 0.0% ≥30°; ends 3.22 km from the car.</desc><trkseg><trkpt lat="62.781259" lon="9.844688"><ele>1172</ele></trkpt><trkpt lat="62.782357" lon="9.842728"><ele>1159</ele></trkpt><trkpt lat="62.782246" lon="9.842158"><ele>1143</ele></trkpt><trkpt lat="62.782135" lon="9.841588"><ele>1128</ele></trkpt><trkpt lat="62.781934" lon="9.841034"><ele>1111</ele></trkpt><trkpt lat="62.782002" lon="9.840433"><ele>1104</ele></trkpt><trkpt lat="62.782256" lon="9.839995"><ele>1102</ele></trkpt><trkpt lat="62.782517" lon="9.839753"><ele>1101</ele></trkpt><trkpt lat="62.782778" lon="9.839511"><ele>1097</ele></trkpt><trkpt lat="62.783032" lon="9.839074"><ele>1092</ele></trkpt><trkpt lat="62.783278" lon="9.838441"><ele>1084</ele></trkpt><trkpt lat="62.783532" lon="9.838004"><ele>1077</ele></trkpt><trkpt lat="62.783786" lon="9.837566"><ele>1073</ele></trkpt><trkpt lat="62.784047" lon="9.837324"><ele>1070</ele></trkpt><trkpt lat="62.784301" lon="9.836887"><ele>1068</ele></trkpt><trkpt lat="62.784562" lon="9.836644"><ele>1064</ele></trkpt><trkpt lat="62.784823" lon="9.836402"><ele>1061</ele></trkpt><trkpt lat="62.785084" lon="9.836160"><ele>1058</ele></trkpt><trkpt lat="62.785345" lon="9.835918"><ele>1044</ele></trkpt><trkpt lat="62.785606" lon="9.835675"><ele>1034</ele></trkpt><trkpt lat="62.785867" lon="9.835433"><ele>1030</ele></trkpt><trkpt lat="62.786128" lon="9.835191"><ele>1024</ele></trkpt><trkpt lat="62.786382" lon="9.834753"><ele>1020</ele></trkpt><trkpt lat="62.786539" lon="9.834137"><ele>1008</ele></trkpt><trkpt lat="62.786800" lon="9.833894"><ele>1007</ele></trkpt><trkpt lat="62.787061" lon="9.833652"><ele>1004</ele></trkpt><trkpt lat="62.787329" lon="9.833605"><ele>998</ele></trkpt><trkpt lat="62.787590" lon="9.833363"><ele>995</ele></trkpt><trkpt lat="62.787851" lon="9.833120"><ele>992</ele></trkpt><trkpt lat="62.788119" lon="9.833073"><ele>985</ele></trkpt><trkpt lat="62.788209" lon="9.833057"><ele>983</ele></trkpt></trkseg></trk></gpx>