<?xml version="1.0" encoding="UTF-8"?>
<gpx version="1.1" creator="Rando toppturs" xmlns="http://www.topografix.com/GPX/1/1"><metadata><name>098 Trollhøtta 1596 m</name><desc>This is an automatically generated list. I have not checked them all. Do not attempt these if you're a beginner. Generated 2026-09-13 17:42 from Kartverket 10 m terrain. Ascent lines are least-cost terrain paths under 35°, not verified routes. Not a snow-stability assessment.</desc></metadata><wpt lat="62.796879" lon="9.578768"><ele>782</ele><name>Car · Trollhøtta 1596 m</name></wpt><wpt lat="62.862083" lon="9.331452"><ele>1596</ele><name>Trollhøtta 1596 m</name></wpt><trk><name>Up · Trollhøtta 1596 m</name><desc>least-cost ascent: +1489 m over 15899 m, max 33°, 0.7% on 30–35°, ≈7.7 h at 4 km/h + 400 m/h. Terrain possibility, not a checked route.</desc><trkseg><trkpt lat="62.796879" lon="9.578768"><ele>782</ele></trkpt><trkpt lat="62.797110" lon="9.577743"><ele>779</ele></trkpt><trkpt lat="62.797519" lon="9.576685"><ele>781</ele></trkpt><trkpt lat="62.797928" lon="9.575626"><ele>782</ele></trkpt><trkpt lat="62.798337" lon="9.574568"><ele>787</ele></trkpt><trkpt lat="62.798746" lon="9.573509"><ele>796</ele></trkpt><trkpt lat="62.799155" lon="9.572451"><ele>804</ele></trkpt><trkpt lat="62.799564" lon="9.571393"><ele>815</ele></trkpt><trkpt lat="62.799973" lon="9.570334"><ele>823</ele></trkpt><trkpt lat="62.800382" lon="9.569275"><ele>836</ele></trkpt><trkpt lat="62.800791" lon="9.568217"><ele>843</ele></trkpt><trkpt lat="62.801200" lon="9.567158"><ele>849</ele></trkpt><trkpt lat="62.801609" lon="9.566100"><ele>861</ele></trkpt><trkpt lat="62.802018" lon="9.565041"><ele>869</ele></trkpt><trkpt lat="62.802427" lon="9.563982"><ele>877</ele></trkpt><trkpt lat="62.802836" lon="9.562924"><ele>886</ele></trkpt><trkpt lat="62.803245" lon="9.561865"><ele>897</ele></trkpt><trkpt lat="62.803654" lon="9.560806"><ele>904</ele></trkpt><trkpt lat="62.804062" lon="9.559747"><ele>916</ele></trkpt><trkpt lat="62.804471" lon="9.558688"><ele>925</ele></trkpt><trkpt lat="62.804880" lon="9.557630"><ele>935</ele></trkpt><trkpt lat="62.805289" lon="9.556571"><ele>941</ele></trkpt><trkpt lat="62.805698" lon="9.555512"><ele>942</ele></trkpt><trkpt lat="62.806107" lon="9.554453"><ele>944</ele></trkpt><trkpt lat="62.806516" lon="9.553394"><ele>943</ele></trkpt><trkpt lat="62.806925" lon="9.552335"><ele>944</ele></trkpt><trkpt lat="62.807333" lon="9.551276"><ele>952</ele></trkpt><trkpt lat="62.807742" lon="9.550217"><ele>959</ele></trkpt><trkpt lat="62.808151" lon="9.549158"><ele>971</ele></trkpt><trkpt lat="62.808560" lon="9.548098"><ele>979</ele></trkpt><trkpt lat="62.808969" lon="9.547039"><ele>984</ele></trkpt><trkpt lat="62.809378" lon="9.545980"><ele>989</ele></trkpt><trkpt lat="62.809786" lon="9.544921"><ele>1000</ele></trkpt><trkpt lat="62.810195" lon="9.543862"><ele>1010</ele></trkpt><trkpt lat="62.810604" lon="9.542802"><ele>1017</ele></trkpt><trkpt lat="62.811013" lon="9.541743"><ele>1022</ele></trkpt><trkpt lat="62.811422" lon="9.540684"><ele>1017</ele></trkpt><trkpt lat="62.811830" lon="9.539624"><ele>1008</ele></trkpt><trkpt lat="62.812239" lon="9.538565"><ele>1002</ele></trkpt><trkpt lat="62.812648" lon="9.537506"><ele>998</ele></trkpt><trkpt lat="62.813057" lon="9.536446"><ele>997</ele></trkpt><trkpt lat="62.813465" lon="9.535387"><ele>997</ele></trkpt><trkpt lat="62.813874" lon="9.534327"><ele>1001</ele></trkpt><trkpt lat="62.814283" lon="9.533268"><ele>1005</ele></trkpt><trkpt lat="62.814691" lon="9.532208"><ele>1006</ele></trkpt><trkpt lat="62.815100" lon="9.531148"><ele>994</ele></trkpt><trkpt lat="62.815509" lon="9.530089"><ele>995</ele></trkpt><trkpt lat="62.815917" lon="9.529029"><ele>1005</ele></trkpt><trkpt lat="62.816326" lon="9.527970"><ele>1009</ele></trkpt><trkpt lat="62.816735" lon="9.526910"><ele>1004</ele></trkpt><trkpt lat="62.817143" lon="9.525850"><ele>998</ele></trkpt><trkpt lat="62.817552" lon="9.524790"><ele>1004</ele></trkpt><trkpt lat="62.817961" lon="9.523730"><ele>1009</ele></trkpt><trkpt lat="62.818369" lon="9.522671"><ele>1014</ele></trkpt><trkpt lat="62.818778" lon="9.521611"><ele>1020</ele></trkpt><trkpt lat="62.819186" lon="9.520551"><ele>1017</ele></trkpt><trkpt lat="62.819595" lon="9.519491"><ele>1018</ele></trkpt><trkpt lat="62.820004" lon="9.518431"><ele>1016</ele></trkpt><trkpt lat="62.820412" lon="9.517371"><ele>1018</ele></trkpt><trkpt lat="62.820821" lon="9.516311"><ele>1019</ele></trkpt><trkpt lat="62.820961" lon="9.515301"><ele>1010</ele></trkpt><trkpt lat="62.821370" lon="9.514241"><ele>1009</ele></trkpt><trkpt lat="62.821778" lon="9.513181"><ele>1012</ele></trkpt><trkpt lat="62.822008" lon="9.512154"><ele>1002</ele></trkpt><trkpt lat="62.822149" lon="9.511144"><ele>989</ele></trkpt><trkpt lat="62.822565" lon="9.510279"><ele>987</ele></trkpt><trkpt lat="62.822974" lon="9.509219"><ele>980</ele></trkpt><trkpt lat="62.823382" lon="9.508159"><ele>970</ele></trkpt><trkpt lat="62.823523" lon="9.507149"><ele>953</ele></trkpt><trkpt lat="62.823663" lon="9.506139"><ele>950</ele></trkpt><trkpt lat="62.823982" lon="9.505095"><ele>952</ele></trkpt><trkpt lat="62.824391" lon="9.504035"><ele>953</ele></trkpt><trkpt lat="62.824799" lon="9.502975"><ele>951</ele></trkpt><trkpt lat="62.825208" lon="9.501914"><ele>950</ele></trkpt><trkpt lat="62.825616" lon="9.500854"><ele>945</ele></trkpt><trkpt lat="62.826024" lon="9.499793"><ele>936</ele></trkpt><trkpt lat="62.826433" lon="9.498733"><ele>929</ele></trkpt><trkpt lat="62.826841" lon="9.497672"><ele>918</ele></trkpt><trkpt lat="62.827250" lon="9.496612"><ele>907</ele></trkpt><trkpt lat="62.827658" lon="9.495551"><ele>904</ele></trkpt><trkpt lat="62.828067" lon="9.494491"><ele>906</ele></trkpt><trkpt lat="62.828475" lon="9.493430"><ele>906</ele></trkpt><trkpt lat="62.828883" lon="9.492370"><ele>906</ele></trkpt><trkpt lat="62.829292" lon="9.491309"><ele>911</ele></trkpt><trkpt lat="62.829700" lon="9.490248"><ele>918</ele></trkpt><trkpt lat="62.830108" lon="9.489187"><ele>927</ele></trkpt><trkpt lat="62.830427" lon="9.488144"><ele>937</ele></trkpt><trkpt lat="62.830657" lon="9.487116"><ele>950</ele></trkpt><trkpt lat="62.831065" lon="9.486056"><ele>964</ele></trkpt><trkpt lat="62.831295" lon="9.485028"><ele>985</ele></trkpt><trkpt lat="62.831703" lon="9.483967"><ele>1002</ele></trkpt><trkpt lat="62.832112" lon="9.482907"><ele>1010</ele></trkpt><trkpt lat="62.832520" lon="9.481846"><ele>1018</ele></trkpt><trkpt lat="62.832928" lon="9.480785"><ele>1026</ele></trkpt><trkpt lat="62.833337" lon="9.479724"><ele>1037</ele></trkpt><trkpt lat="62.833745" lon="9.478663"><ele>1040</ele></trkpt><trkpt lat="62.834153" lon="9.477602"><ele>1040</ele></trkpt><trkpt lat="62.834561" lon="9.476541"><ele>1035</ele></trkpt><trkpt lat="62.834880" lon="9.475496"><ele>1022</ele></trkpt><trkpt lat="62.835289" lon="9.474435"><ele>999</ele></trkpt><trkpt lat="62.835697" lon="9.473374"><ele>991</ele></trkpt><trkpt lat="62.836105" lon="9.472313"><ele>984</ele></trkpt><trkpt lat="62.836513" lon="9.471252"><ele>977</ele></trkpt><trkpt lat="62.836922" lon="9.470191"><ele>970</ele></trkpt><trkpt lat="62.837330" lon="9.469129"><ele>969</ele></trkpt><trkpt lat="62.837738" lon="9.468068"><ele>970</ele></trkpt><trkpt lat="62.838146" lon="9.467007"><ele>969</ele></trkpt><trkpt lat="62.838554" lon="9.465945"><ele>958</ele></trkpt><trkpt lat="62.838962" lon="9.464884"><ele>934</ele></trkpt><trkpt lat="62.839371" lon="9.463823"><ele>922</ele></trkpt><trkpt lat="62.839779" lon="9.462761"><ele>907</ele></trkpt><trkpt lat="62.840187" lon="9.461700"><ele>891</ele></trkpt><trkpt lat="62.840595" lon="9.460638"><ele>873</ele></trkpt><trkpt lat="62.841003" lon="9.459577"><ele>858</ele></trkpt><trkpt lat="62.841411" lon="9.458515"><ele>845</ele></trkpt><trkpt lat="62.841819" lon="9.457454"><ele>833</ele></trkpt><trkpt lat="62.842228" lon="9.456392"><ele>833</ele></trkpt><trkpt lat="62.842636" lon="9.455330"><ele>827</ele></trkpt><trkpt lat="62.843044" lon="9.454269"><ele>815</ele></trkpt><trkpt lat="62.843273" lon="9.453241"><ele>794</ele></trkpt><trkpt lat="62.843413" lon="9.452230"><ele>777</ele></trkpt><trkpt lat="62.843375" lon="9.451253"><ele>767</ele></trkpt><trkpt lat="62.843783" lon="9.450191"><ele>749</ele></trkpt><trkpt lat="62.844191" lon="9.449129"><ele>730</ele></trkpt><trkpt lat="62.844331" lon="9.448118"><ele>717</ele></trkpt><trkpt lat="62.844560" lon="9.447090"><ele>700</ele></trkpt><trkpt lat="62.844968" lon="9.446028"><ele>692</ele></trkpt><trkpt lat="62.845376" lon="9.444966"><ele>690</ele></trkpt><trkpt lat="62.845784" lon="9.443904"><ele>689</ele></trkpt><trkpt lat="62.846013" lon="9.442876"><ele>698</ele></trkpt><trkpt lat="62.846421" lon="9.441814"><ele>701</ele></trkpt><trkpt lat="62.846829" lon="9.440752"><ele>706</ele></trkpt><trkpt lat="62.847237" lon="9.439690"><ele>716</ele></trkpt><trkpt lat="62.847645" lon="9.438628"><ele>729</ele></trkpt><trkpt lat="62.848053" lon="9.437566"><ele>748</ele></trkpt><trkpt lat="62.848461" lon="9.436504"><ele>764</ele></trkpt><trkpt lat="62.848601" lon="9.435493"><ele>783</ele></trkpt><trkpt lat="62.848920" lon="9.434447"><ele>805</ele></trkpt><trkpt lat="62.849328" lon="9.433385"><ele>832</ele></trkpt><trkpt lat="62.849736" lon="9.432323"><ele>858</ele></trkpt><trkpt lat="62.849965" lon="9.431295"><ele>874</ele></trkpt><trkpt lat="62.850105" lon="9.430283"><ele>885</ele></trkpt><trkpt lat="62.850155" lon="9.429289"><ele>896</ele></trkpt><trkpt lat="62.850474" lon="9.428244"><ele>915</ele></trkpt><trkpt lat="62.850435" lon="9.427266"><ele>921</ele></trkpt><trkpt lat="62.850396" lon="9.426289"><ele>929</ele></trkpt><trkpt lat="62.850358" lon="9.425311"><ele>934</ele></trkpt><trkpt lat="62.850765" lon="9.424249"><ele>951</ele></trkpt><trkpt lat="62.851173" lon="9.423187"><ele>970</ele></trkpt><trkpt lat="62.851581" lon="9.422124"><ele>989</ele></trkpt><trkpt lat="62.851989" lon="9.421062"><ele>1011</ele></trkpt><trkpt lat="62.852397" lon="9.419999"><ele>1033</ele></trkpt><trkpt lat="62.852805" lon="9.418937"><ele>1062</ele></trkpt><trkpt lat="62.853123" lon="9.417891"><ele>1082</ele></trkpt><trkpt lat="62.853263" lon="9.416880"><ele>1098</ele></trkpt><trkpt lat="62.853313" lon="9.415885"><ele>1107</ele></trkpt><trkpt lat="62.853453" lon="9.414874"><ele>1119</ele></trkpt><trkpt lat="62.853772" lon="9.413828"><ele>1137</ele></trkpt><trkpt lat="62.853822" lon="9.412833"><ele>1148</ele></trkpt><trkpt lat="62.853783" lon="9.411856"><ele>1156</ele></trkpt><trkpt lat="62.853744" lon="9.410878"><ele>1163</ele></trkpt><trkpt lat="62.853705" lon="9.409901"><ele>1172</ele></trkpt><trkpt lat="62.853667" lon="9.408923"><ele>1181</ele></trkpt><trkpt lat="62.853628" lon="9.407946"><ele>1187</ele></trkpt><trkpt lat="62.853589" lon="9.406968"><ele>1193</ele></trkpt><trkpt lat="62.853550" lon="9.405991"><ele>1198</ele></trkpt><trkpt lat="62.853511" lon="9.405013"><ele>1201</ele></trkpt><trkpt lat="62.853472" lon="9.404036"><ele>1201</ele></trkpt><trkpt lat="62.853433" lon="9.403058"><ele>1199</ele></trkpt><trkpt lat="62.853394" lon="9.402081"><ele>1198</ele></trkpt><trkpt lat="62.853355" lon="9.401103"><ele>1196</ele></trkpt><trkpt lat="62.853316" lon="9.400126"><ele>1195</ele></trkpt><trkpt lat="62.853277" lon="9.399148"><ele>1194</ele></trkpt><trkpt lat="62.853238" lon="9.398171"><ele>1193</ele></trkpt><trkpt lat="62.853199" lon="9.397193"><ele>1194</ele></trkpt><trkpt lat="62.853160" lon="9.396216"><ele>1194</ele></trkpt><trkpt lat="62.853121" lon="9.395238"><ele>1194</ele></trkpt><trkpt lat="62.853082" lon="9.394261"><ele>1192</ele></trkpt><trkpt lat="62.853043" lon="9.393283"><ele>1190</ele></trkpt><trkpt lat="62.853451" lon="9.392220"><ele>1192</ele></trkpt><trkpt lat="62.853858" lon="9.391157"><ele>1192</ele></trkpt><trkpt lat="62.854266" lon="9.390094"><ele>1194</ele></trkpt><trkpt lat="62.854674" lon="9.389032"><ele>1193</ele></trkpt><trkpt lat="62.855081" lon="9.387969"><ele>1191</ele></trkpt><trkpt lat="62.855489" lon="9.386905"><ele>1188</ele></trkpt><trkpt lat="62.855896" lon="9.385842"><ele>1182</ele></trkpt><trkpt lat="62.856304" lon="9.384779"><ele>1175</ele></trkpt><trkpt lat="62.856711" lon="9.383716"><ele>1177</ele></trkpt><trkpt lat="62.857119" lon="9.382653"><ele>1177</ele></trkpt><trkpt lat="62.857526" lon="9.381590"><ele>1169</ele></trkpt><trkpt lat="62.857934" lon="9.380527"><ele>1167</ele></trkpt><trkpt lat="62.858341" lon="9.379463"><ele>1170</ele></trkpt><trkpt lat="62.858749" lon="9.378400"><ele>1181</ele></trkpt><trkpt lat="62.858978" lon="9.377371"><ele>1197</ele></trkpt><trkpt lat="62.858939" lon="9.376393"><ele>1206</ele></trkpt><trkpt lat="62.858989" lon="9.375399"><ele>1213</ele></trkpt><trkpt lat="62.858950" lon="9.374421"><ele>1225</ele></trkpt><trkpt lat="62.859089" lon="9.373409"><ele>1238</ele></trkpt><trkpt lat="62.859229" lon="9.372397"><ele>1255</ele></trkpt><trkpt lat="62.859368" lon="9.371385"><ele>1263</ele></trkpt><trkpt lat="62.859776" lon="9.370322"><ele>1274</ele></trkpt><trkpt lat="62.860183" lon="9.369258"><ele>1288</ele></trkpt><trkpt lat="62.860233" lon="9.368264"><ele>1303</ele></trkpt><trkpt lat="62.860194" lon="9.367286"><ele>1316</ele></trkpt><trkpt lat="62.860155" lon="9.366308"><ele>1329</ele></trkpt><trkpt lat="62.860115" lon="9.365330"><ele>1341</ele></trkpt><trkpt lat="62.860076" lon="9.364353"><ele>1354</ele></trkpt><trkpt lat="62.860037" lon="9.363375"><ele>1366</ele></trkpt><trkpt lat="62.859998" lon="9.362397"><ele>1378</ele></trkpt><trkpt lat="62.859959" lon="9.361420"><ele>1393</ele></trkpt><trkpt lat="62.859919" lon="9.360442"><ele>1403</ele></trkpt><trkpt lat="62.859880" lon="9.359465"><ele>1414</ele></trkpt><trkpt lat="62.859841" lon="9.358487"><ele>1423</ele></trkpt><trkpt lat="62.859802" lon="9.357509"><ele>1433</ele></trkpt><trkpt lat="62.859762" lon="9.356532"><ele>1442</ele></trkpt><trkpt lat="62.859723" lon="9.355554"><ele>1451</ele></trkpt><trkpt lat="62.859684" lon="9.354576"><ele>1458</ele></trkpt><trkpt lat="62.859823" lon="9.353564"><ele>1468</ele></trkpt><trkpt lat="62.860230" lon="9.352501"><ele>1481</ele></trkpt><trkpt lat="62.860548" lon="9.351454"><ele>1493</ele></trkpt><trkpt lat="62.860866" lon="9.350408"><ele>1501</ele></trkpt><trkpt lat="62.861274" lon="9.349344"><ele>1505</ele></trkpt><trkpt lat="62.861502" lon="9.348314"><ele>1506</ele></trkpt><trkpt lat="62.861463" lon="9.347337"><ele>1507</ele></trkpt><trkpt lat="62.861424" lon="9.346359"><ele>1510</ele></trkpt><trkpt lat="62.861652" lon="9.345330"><ele>1514</ele></trkpt><trkpt lat="62.862059" lon="9.344266"><ele>1515</ele></trkpt><trkpt lat="62.862377" lon="9.343219"><ele>1513</ele></trkpt><trkpt lat="62.862427" lon="9.342224"><ele>1519</ele></trkpt><trkpt lat="62.862745" lon="9.341178"><ele>1513</ele></trkpt><trkpt lat="62.862706" lon="9.340200"><ele>1490</ele></trkpt><trkpt lat="62.862845" lon="9.339188"><ele>1473</ele></trkpt><trkpt lat="62.862984" lon="9.338175"><ele>1473</ele></trkpt><trkpt lat="62.863123" lon="9.337163"><ele>1482</ele></trkpt><trkpt lat="62.863084" lon="9.336186"><ele>1498</ele></trkpt><trkpt lat="62.863223" lon="9.335173"><ele>1505</ele></trkpt><trkpt lat="62.863630" lon="9.334109"><ele>1502</ele></trkpt><trkpt lat="62.863680" lon="9.333114"><ele>1520</ele></trkpt><trkpt lat="62.863730" lon="9.332119"><ele>1543</ele></trkpt><trkpt lat="62.863601" lon="9.331159"><ele>1571</ele></trkpt><trkpt lat="62.863155" lon="9.331245"><ele>1583</ele></trkpt><trkpt lat="62.862708" lon="9.331331"><ele>1590</ele></trkpt><trkpt lat="62.862262" lon="9.331418"><ele>1595</ele></trkpt><trkpt lat="62.862083" lon="9.331452"><ele>1596</ele></trkpt></trkseg></trk><wpt lat="62.860619" lon="9.319715"><ele>1382</ele><name>Run end · Trollhøtta 1596 m</name></wpt><trk><name>Down · Trollhøtta 1596 m</name><desc>fall-line run: 348 m of 20–30°, 196 m drop, aspect 258°, max 27°, 0.0% ≥30°; ends 15.0 km from the car.</desc><trkseg><trkpt lat="62.862083" lon="9.331452"><ele>1596</ele></trkpt><trkpt lat="62.861931" lon="9.329905"><ele>1578</ele></trkpt><trkpt lat="62.861907" lon="9.329319"><ele>1567</ele></trkpt><trkpt lat="62.861883" lon="9.328732"><ele>1556</ele></trkpt><trkpt lat="62.861860" lon="9.328146"><ele>1543</ele></trkpt><trkpt lat="62.861747" lon="9.327576"><ele>1527</ele></trkpt><trkpt lat="62.861544" lon="9.327024"><ele>1509</ele></trkpt><trkpt lat="62.861342" lon="9.326472"><ele>1493</ele></trkpt><trkpt lat="62.861050" lon="9.325938"><ele>1477</ele></trkpt><trkpt lat="62.860937" lon="9.325368"><ele>1465</ele></trkpt><trkpt lat="62.860824" lon="9.324799"><ele>1455</ele></trkpt><trkpt lat="62.860801" lon="9.324212"><ele>1447</ele></trkpt><trkpt lat="62.860777" lon="9.323626"><ele>1441</ele></trkpt><trkpt lat="62.860753" lon="9.323039"><ele>1434</ele></trkpt><trkpt lat="62.860730" lon="9.322453"><ele>1426</ele></trkpt><trkpt lat="62.860706" lon="9.321866"><ele>1419</ele></trkpt><trkpt lat="62.860682" lon="9.321279"><ele>1410</ele></trkpt><trkpt lat="62.860658" lon="9.320693"><ele>1402</ele></trkpt><trkpt lat="62.860635" lon="9.320106"><ele>1391</ele></trkpt><trkpt lat="62.860619" lon="9.319715"><ele>1382</ele></trkpt></trkseg></trk></gpx>