<?xml version="1.0" encoding="UTF-8"?>
<gpx version="1.1" creator="Rando toppturs" xmlns="http://www.topografix.com/GPX/1/1"><metadata><name>099 Tyrikvamfjellet 1251 m</name><desc>Generated 2026-09-13 17:42 from Kartverket 10 m terrain. Ascent lines are least-cost terrain paths under 35°, not verified routes. Not a snow-stability assessment.</desc></metadata><wpt lat="62.737747" lon="9.488609"><ele>1000</ele><name>Car · Tyrikvamfjellet 1251 m</name></wpt><wpt lat="62.729104" lon="9.438442"><ele>1251</ele><name>Tyrikvamfjellet 1251 m</name></wpt><trk><name>Up · Tyrikvamfjellet 1251 m</name><desc>least-cost ascent: +314 m over 2982 m, max 20°, 0.0% on 30–35°, ≈1.53 h at 4 km/h + 400 m/h. Terrain possibility, not a checked route.</desc><trkseg><trkpt lat="62.737747" lon="9.488609"><ele>1000</ele></trkpt><trkpt lat="62.737709" lon="9.487635"><ele>999</ele></trkpt><trkpt lat="62.737671" lon="9.486661"><ele>1001</ele></trkpt><trkpt lat="62.737632" lon="9.485687"><ele>1011</ele></trkpt><trkpt lat="62.737594" lon="9.484714"><ele>1018</ele></trkpt><trkpt lat="62.737556" lon="9.483740"><ele>1026</ele></trkpt><trkpt lat="62.737517" lon="9.482766"><ele>1032</ele></trkpt><trkpt lat="62.737479" lon="9.481792"><ele>1038</ele></trkpt><trkpt lat="62.737351" lon="9.480835"><ele>1045</ele></trkpt><trkpt lat="62.736866" lon="9.479945"><ele>1064</ele></trkpt><trkpt lat="62.736381" lon="9.479055"><ele>1079</ele></trkpt><trkpt lat="62.735985" lon="9.478148"><ele>1090</ele></trkpt><trkpt lat="62.735679" lon="9.477224"><ele>1095</ele></trkpt><trkpt lat="62.735462" lon="9.476284"><ele>1091</ele></trkpt><trkpt lat="62.735156" lon="9.475361"><ele>1090</ele></trkpt><trkpt lat="62.734670" lon="9.474471"><ele>1097</ele></trkpt><trkpt lat="62.734185" lon="9.473581"><ele>1099</ele></trkpt><trkpt lat="62.733700" lon="9.472691"><ele>1101</ele></trkpt><trkpt lat="62.733215" lon="9.471801"><ele>1106</ele></trkpt><trkpt lat="62.732730" lon="9.470911"><ele>1110</ele></trkpt><trkpt lat="62.732245" lon="9.470021"><ele>1113</ele></trkpt><trkpt lat="62.731760" lon="9.469131"><ele>1114</ele></trkpt><trkpt lat="62.731721" lon="9.468158"><ele>1103</ele></trkpt><trkpt lat="62.731683" lon="9.467184"><ele>1090</ele></trkpt><trkpt lat="62.731644" lon="9.466211"><ele>1083</ele></trkpt><trkpt lat="62.731606" lon="9.465237"><ele>1080</ele></trkpt><trkpt lat="62.731567" lon="9.464263"><ele>1078</ele></trkpt><trkpt lat="62.731529" lon="9.463290"><ele>1077</ele></trkpt><trkpt lat="62.731490" lon="9.462316"><ele>1073</ele></trkpt><trkpt lat="62.731452" lon="9.461343"><ele>1073</ele></trkpt><trkpt lat="62.731235" lon="9.460403"><ele>1067</ele></trkpt><trkpt lat="62.731196" lon="9.459429"><ele>1069</ele></trkpt><trkpt lat="62.731158" lon="9.458456"><ele>1070</ele></trkpt><trkpt lat="62.731030" lon="9.457499"><ele>1084</ele></trkpt><trkpt lat="62.730902" lon="9.456542"><ele>1096</ele></trkpt><trkpt lat="62.730863" lon="9.455569"><ele>1107</ele></trkpt><trkpt lat="62.730825" lon="9.454595"><ele>1120</ele></trkpt><trkpt lat="62.730429" lon="9.453689"><ele>1127</ele></trkpt><trkpt lat="62.730301" lon="9.452732"><ele>1139</ele></trkpt><trkpt lat="62.730263" lon="9.451758"><ele>1150</ele></trkpt><trkpt lat="62.730224" lon="9.450785"><ele>1163</ele></trkpt><trkpt lat="62.730007" lon="9.449845"><ele>1173</ele></trkpt><trkpt lat="62.729968" lon="9.448872"><ele>1181</ele></trkpt><trkpt lat="62.729930" lon="9.447898"><ele>1185</ele></trkpt><trkpt lat="62.729891" lon="9.446924"><ele>1190</ele></trkpt><trkpt lat="62.729852" lon="9.445951"><ele>1197</ele></trkpt><trkpt lat="62.729724" lon="9.444994"><ele>1206</ele></trkpt><trkpt lat="62.729596" lon="9.444038"><ele>1221</ele></trkpt><trkpt lat="62.729558" lon="9.443064"><ele>1231</ele></trkpt><trkpt lat="62.729519" lon="9.442091"><ele>1240</ele></trkpt><trkpt lat="62.729481" lon="9.441117"><ele>1243</ele></trkpt><trkpt lat="62.729442" lon="9.440144"><ele>1245</ele></trkpt><trkpt lat="62.729403" lon="9.439170"><ele>1247</ele></trkpt><trkpt lat="62.729104" lon="9.438442"><ele>1251</ele></trkpt></trkseg></trk><wpt lat="62.735145" lon="9.434163"><ele>997</ele><name>Run end · Tyrikvamfjellet 1251 m</name></wpt><trk><name>Down · Tyrikvamfjellet 1251 m</name><desc>fall-line run: 347 m of 20–30°, 221 m drop, aspect 317°, max 30°, 0.0% ≥30°; ends 2.8 km from the car.</desc><trkseg><trkpt lat="62.729104" lon="9.438442"><ele>1251</ele></trkpt><trkpt lat="62.731383" lon="9.443701"><ele>1219</ele></trkpt><trkpt lat="62.731628" lon="9.443066"><ele>1199</ele></trkpt><trkpt lat="62.731873" lon="9.442432"><ele>1182</ele></trkpt><trkpt lat="62.732125" lon="9.441992"><ele>1172</ele></trkpt><trkpt lat="62.732393" lon="9.441941"><ele>1166</ele></trkpt><trkpt lat="62.732654" lon="9.441696"><ele>1160</ele></trkpt><trkpt lat="62.732898" lon="9.441061"><ele>1154</ele></trkpt><trkpt lat="62.733143" lon="9.440427"><ele>1144</ele></trkpt><trkpt lat="62.733388" lon="9.439792"><ele>1132</ele></trkpt><trkpt lat="62.733633" lon="9.439157"><ele>1112</ele></trkpt><trkpt lat="62.733878" lon="9.438522"><ele>1097</ele></trkpt><trkpt lat="62.734122" lon="9.437888"><ele>1078</ele></trkpt><trkpt lat="62.734278" lon="9.437270"><ele>1063</ele></trkpt><trkpt lat="62.734344" lon="9.436669"><ele>1053</ele></trkpt><trkpt lat="62.734410" lon="9.436068"><ele>1047</ele></trkpt><trkpt lat="62.734655" lon="9.435433"><ele>1033</ele></trkpt><trkpt lat="62.734900" lon="9.434798"><ele>1017</ele></trkpt><trkpt lat="62.735145" lon="9.434163"><ele>997</ele></trkpt><trkpt lat="62.735145" lon="9.434163"><ele>997</ele></trkpt></trkseg></trk></gpx>