<?xml version="1.0" encoding="UTF-8"?>
<gpx version="1.1" creator="Rando toppturs" xmlns="http://www.topografix.com/GPX/1/1"><metadata><name>100 Gråhåmmåren 1039 m</name><desc>This is an automatically generated list. I have not checked them all. Do not attempt these if you're a beginner. Generated 2026-09-13 17:42 from Kartverket 10 m terrain. Ascent lines are least-cost terrain paths under 35°, not verified routes. Not a snow-stability assessment.</desc></metadata><wpt lat="62.668704" lon="9.497374"><ele>753</ele><name>Car · Gråhåmmåren 1039 m</name></wpt><wpt lat="62.676107" lon="9.514008"><ele>1039</ele><name>Gråhåmmåren 1039 m</name></wpt><trk><name>Up · Gråhåmmåren 1039 m</name><desc>least-cost ascent: +298 m over 1283 m, max 28°, 0.0% on 30–35°, ≈1.07 h at 4 km/h + 400 m/h. Terrain possibility, not a checked route.</desc><trkseg><trkpt lat="62.668704" lon="9.497374"><ele>753</ele></trkpt><trkpt lat="62.669189" lon="9.498263"><ele>747</ele></trkpt><trkpt lat="62.669674" lon="9.499151"><ele>750</ele></trkpt><trkpt lat="62.670159" lon="9.500040"><ele>767</ele></trkpt><trkpt lat="62.670644" lon="9.500928"><ele>781</ele></trkpt><trkpt lat="62.671128" lon="9.501817"><ele>798</ele></trkpt><trkpt lat="62.671613" lon="9.502705"><ele>812</ele></trkpt><trkpt lat="62.672098" lon="9.503594"><ele>831</ele></trkpt><trkpt lat="62.672583" lon="9.504482"><ele>857</ele></trkpt><trkpt lat="62.673060" lon="9.505177"><ele>882</ele></trkpt><trkpt lat="62.673456" lon="9.506082"><ele>909</ele></trkpt><trkpt lat="62.673583" lon="9.507037"><ele>927</ele></trkpt><trkpt lat="62.673890" lon="9.507959"><ele>940</ele></trkpt><trkpt lat="62.674285" lon="9.508865"><ele>962</ele></trkpt><trkpt lat="62.674323" lon="9.509836"><ele>977</ele></trkpt><trkpt lat="62.674362" lon="9.510808"><ele>992</ele></trkpt><trkpt lat="62.674846" lon="9.511697"><ele>1016</ele></trkpt><trkpt lat="62.675331" lon="9.512586"><ele>1014</ele></trkpt><trkpt lat="62.675816" lon="9.513475"><ele>1031</ele></trkpt><trkpt lat="62.676107" lon="9.514008"><ele>1039</ele></trkpt></trkseg></trk><wpt lat="62.673334" lon="9.502973"><ele>838</ele><name>Run end · Gråhåmmåren 1039 m</name></wpt><trk><name>Down · Gråhåmmåren 1039 m</name><desc>fall-line run: 346 m of 20–30°, 179 m drop, aspect 250°, max 31°, 4.7% ≥30°; ends 0.59 km from the car.</desc><trkseg><trkpt lat="62.676107" lon="9.514008"><ele>1039</ele></trkpt><trkpt lat="62.674995" lon="9.510886"><ele>1017</ele></trkpt><trkpt lat="62.674704" lon="9.510353"><ele>997</ele></trkpt><trkpt lat="62.674502" lon="9.509803"><ele>980</ele></trkpt><trkpt lat="62.674479" lon="9.509220"><ele>969</ele></trkpt><trkpt lat="62.674188" lon="9.508687"><ele>957</ele></trkpt><trkpt lat="62.673987" lon="9.508137"><ele>945</ele></trkpt><trkpt lat="62.673874" lon="9.507570"><ele>934</ele></trkpt><trkpt lat="62.673852" lon="9.506987"><ele>928</ele></trkpt><trkpt lat="62.673739" lon="9.506421"><ele>919</ele></trkpt><trkpt lat="62.673716" lon="9.505838"><ele>908</ele></trkpt><trkpt lat="62.673693" lon="9.505255"><ele>895</ele></trkpt><trkpt lat="62.673671" lon="9.504672"><ele>882</ele></trkpt><trkpt lat="62.673469" lon="9.504122"><ele>867</ele></trkpt><trkpt lat="62.673357" lon="9.503556"><ele>850</ele></trkpt><trkpt lat="62.673334" lon="9.502973"><ele>838</ele></trkpt><trkpt lat="62.673334" lon="9.502973"><ele>838</ele></trkpt></trkseg></trk></gpx>