<?xml version="1.0" encoding="UTF-8"?>
<gpx version="1.1" creator="Rando toppturs" xmlns="http://www.topografix.com/GPX/1/1"><metadata><name>101 Unnamed 1653 m</name><desc>This is an automatically generated list. I have not checked them all. Do not attempt these if you're a beginner. Generated 2026-09-13 17:42 from Kartverket 10 m terrain. Ascent lines are least-cost terrain paths under 35°, not verified routes. Not a snow-stability assessment.</desc></metadata><wpt lat="62.451926" lon="9.530006"><ele>1267</ele><name>Car · Unnamed summit 1653 m</name></wpt><wpt lat="62.400119" lon="9.422127"><ele>1653</ele><name>Unnamed summit 1653 m</name></wpt><trk><name>Up · Unnamed summit 1653 m</name><desc>least-cost ascent: +645 m over 8372 m, max 26°, 0.0% on 30–35°, ≈3.71 h at 4 km/h + 400 m/h. Terrain possibility, not a checked route.</desc><trkseg><trkpt lat="62.451926" lon="9.530006"><ele>1267</ele></trkpt><trkpt lat="62.451709" lon="9.529074"><ele>1272</ele></trkpt><trkpt lat="62.451225" lon="9.528192"><ele>1278</ele></trkpt><trkpt lat="62.450740" lon="9.527309"><ele>1281</ele></trkpt><trkpt lat="62.450255" lon="9.526426"><ele>1285</ele></trkpt><trkpt lat="62.449771" lon="9.525544"><ele>1290</ele></trkpt><trkpt lat="62.449286" lon="9.524661"><ele>1294</ele></trkpt><trkpt lat="62.448801" lon="9.523779"><ele>1299</ele></trkpt><trkpt lat="62.448316" lon="9.522896"><ele>1305</ele></trkpt><trkpt lat="62.447832" lon="9.522014"><ele>1314</ele></trkpt><trkpt lat="62.447347" lon="9.521131"><ele>1320</ele></trkpt><trkpt lat="62.446862" lon="9.520249"><ele>1329</ele></trkpt><trkpt lat="62.446377" lon="9.519367"><ele>1331</ele></trkpt><trkpt lat="62.445893" lon="9.518484"><ele>1338</ele></trkpt><trkpt lat="62.445408" lon="9.517602"><ele>1347</ele></trkpt><trkpt lat="62.444923" lon="9.516720"><ele>1356</ele></trkpt><trkpt lat="62.444438" lon="9.515838"><ele>1364</ele></trkpt><trkpt lat="62.443954" lon="9.514955"><ele>1373</ele></trkpt><trkpt lat="62.443469" lon="9.514073"><ele>1383</ele></trkpt><trkpt lat="62.443341" lon="9.513125"><ele>1389</ele></trkpt><trkpt lat="62.443303" lon="9.512161"><ele>1393</ele></trkpt><trkpt lat="62.442819" lon="9.511279"><ele>1406</ele></trkpt><trkpt lat="62.442334" lon="9.510397"><ele>1417</ele></trkpt><trkpt lat="62.441849" lon="9.509515"><ele>1420</ele></trkpt><trkpt lat="62.441364" lon="9.508633"><ele>1429</ele></trkpt><trkpt lat="62.440879" lon="9.507751"><ele>1430</ele></trkpt><trkpt lat="62.440395" lon="9.506869"><ele>1430</ele></trkpt><trkpt lat="62.439910" lon="9.505987"><ele>1431</ele></trkpt><trkpt lat="62.439425" lon="9.505105"><ele>1430</ele></trkpt><trkpt lat="62.438940" lon="9.504223"><ele>1434</ele></trkpt><trkpt lat="62.438455" lon="9.503341"><ele>1432</ele></trkpt><trkpt lat="62.437970" lon="9.502459"><ele>1432</ele></trkpt><trkpt lat="62.437486" lon="9.501577"><ele>1431</ele></trkpt><trkpt lat="62.437001" lon="9.500696"><ele>1430</ele></trkpt><trkpt lat="62.436516" lon="9.499814"><ele>1426</ele></trkpt><trkpt lat="62.436031" lon="9.498932"><ele>1420</ele></trkpt><trkpt lat="62.435546" lon="9.498050"><ele>1415</ele></trkpt><trkpt lat="62.435061" lon="9.497169"><ele>1409</ele></trkpt><trkpt lat="62.434576" lon="9.496287"><ele>1404</ele></trkpt><trkpt lat="62.434091" lon="9.495405"><ele>1398</ele></trkpt><trkpt lat="62.433607" lon="9.494524"><ele>1392</ele></trkpt><trkpt lat="62.433122" lon="9.493642"><ele>1384</ele></trkpt><trkpt lat="62.432637" lon="9.492761"><ele>1374</ele></trkpt><trkpt lat="62.432152" lon="9.491879"><ele>1367</ele></trkpt><trkpt lat="62.431667" lon="9.490998"><ele>1363</ele></trkpt><trkpt lat="62.431182" lon="9.490116"><ele>1366</ele></trkpt><trkpt lat="62.430697" lon="9.489235"><ele>1370</ele></trkpt><trkpt lat="62.430212" lon="9.488354"><ele>1371</ele></trkpt><trkpt lat="62.429727" lon="9.487472"><ele>1370</ele></trkpt><trkpt lat="62.429242" lon="9.486591"><ele>1370</ele></trkpt><trkpt lat="62.428757" lon="9.485710"><ele>1370</ele></trkpt><trkpt lat="62.428272" lon="9.484828"><ele>1373</ele></trkpt><trkpt lat="62.427877" lon="9.483931"><ele>1381</ele></trkpt><trkpt lat="62.427481" lon="9.483033"><ele>1389</ele></trkpt><trkpt lat="62.426996" lon="9.482152"><ele>1398</ele></trkpt><trkpt lat="62.426690" lon="9.481237"><ele>1405</ele></trkpt><trkpt lat="62.426652" lon="9.480274"><ele>1403</ele></trkpt><trkpt lat="62.426435" lon="9.479343"><ele>1410</ele></trkpt><trkpt lat="62.426218" lon="9.478412"><ele>1416</ele></trkpt><trkpt lat="62.426179" lon="9.477449"><ele>1415</ele></trkpt><trkpt lat="62.425694" lon="9.476568"><ele>1430</ele></trkpt><trkpt lat="62.425299" lon="9.475670"><ele>1439</ele></trkpt><trkpt lat="62.424814" lon="9.474789"><ele>1448</ele></trkpt><trkpt lat="62.424329" lon="9.473908"><ele>1461</ele></trkpt><trkpt lat="62.423844" lon="9.473027"><ele>1476</ele></trkpt><trkpt lat="62.423359" lon="9.472146"><ele>1483</ele></trkpt><trkpt lat="62.422874" lon="9.471265"><ele>1499</ele></trkpt><trkpt lat="62.422478" lon="9.470368"><ele>1517</ele></trkpt><trkpt lat="62.421993" lon="9.469487"><ele>1530</ele></trkpt><trkpt lat="62.421508" lon="9.468606"><ele>1541</ele></trkpt><trkpt lat="62.421023" lon="9.467726"><ele>1558</ele></trkpt><trkpt lat="62.420538" lon="9.466845"><ele>1574</ele></trkpt><trkpt lat="62.420053" lon="9.465964"><ele>1591</ele></trkpt><trkpt lat="62.419567" lon="9.465083"><ele>1609</ele></trkpt><trkpt lat="62.419082" lon="9.464203"><ele>1627</ele></trkpt><trkpt lat="62.418597" lon="9.463322"><ele>1641</ele></trkpt><trkpt lat="62.418112" lon="9.462441"><ele>1651</ele></trkpt><trkpt lat="62.417627" lon="9.461561"><ele>1657</ele></trkpt><trkpt lat="62.417142" lon="9.460680"><ele>1655</ele></trkpt><trkpt lat="62.416657" lon="9.459800"><ele>1650</ele></trkpt><trkpt lat="62.416172" lon="9.458919"><ele>1644</ele></trkpt><trkpt lat="62.415687" lon="9.458039"><ele>1636</ele></trkpt><trkpt lat="62.415202" lon="9.457158"><ele>1627</ele></trkpt><trkpt lat="62.414716" lon="9.456278"><ele>1613</ele></trkpt><trkpt lat="62.414231" lon="9.455398"><ele>1601</ele></trkpt><trkpt lat="62.413746" lon="9.454517"><ele>1586</ele></trkpt><trkpt lat="62.413261" lon="9.453637"><ele>1575</ele></trkpt><trkpt lat="62.412776" lon="9.452757"><ele>1561</ele></trkpt><trkpt lat="62.412291" lon="9.451876"><ele>1546</ele></trkpt><trkpt lat="62.411806" lon="9.450996"><ele>1536</ele></trkpt><trkpt lat="62.411320" lon="9.450116"><ele>1525</ele></trkpt><trkpt lat="62.410835" lon="9.449236"><ele>1519</ele></trkpt><trkpt lat="62.410350" lon="9.448356"><ele>1512</ele></trkpt><trkpt lat="62.409865" lon="9.447475"><ele>1504</ele></trkpt><trkpt lat="62.409380" lon="9.446595"><ele>1499</ele></trkpt><trkpt lat="62.408894" lon="9.445715"><ele>1498</ele></trkpt><trkpt lat="62.408409" lon="9.444835"><ele>1494</ele></trkpt><trkpt lat="62.407924" lon="9.443955"><ele>1491</ele></trkpt><trkpt lat="62.407439" lon="9.443075"><ele>1489</ele></trkpt><trkpt lat="62.406954" lon="9.442195"><ele>1491</ele></trkpt><trkpt lat="62.406468" lon="9.441315"><ele>1489</ele></trkpt><trkpt lat="62.405983" lon="9.440435"><ele>1487</ele></trkpt><trkpt lat="62.405498" lon="9.439556"><ele>1484</ele></trkpt><trkpt lat="62.405013" lon="9.438676"><ele>1485</ele></trkpt><trkpt lat="62.404528" lon="9.437796"><ele>1491</ele></trkpt><trkpt lat="62.404042" lon="9.436916"><ele>1498</ele></trkpt><trkpt lat="62.403557" lon="9.436036"><ele>1505</ele></trkpt><trkpt lat="62.403072" lon="9.435157"><ele>1510</ele></trkpt><trkpt lat="62.402586" lon="9.434277"><ele>1516</ele></trkpt><trkpt lat="62.402101" lon="9.433397"><ele>1525</ele></trkpt><trkpt lat="62.401616" lon="9.432518"><ele>1529</ele></trkpt><trkpt lat="62.401131" lon="9.431638"><ele>1536</ele></trkpt><trkpt lat="62.400645" lon="9.430758"><ele>1547</ele></trkpt><trkpt lat="62.400160" lon="9.429879"><ele>1565</ele></trkpt><trkpt lat="62.399854" lon="9.428966"><ele>1585</ele></trkpt><trkpt lat="62.399726" lon="9.428020"><ele>1604</ele></trkpt><trkpt lat="62.399687" lon="9.427057"><ele>1619</ele></trkpt><trkpt lat="62.399648" lon="9.426094"><ele>1633</ele></trkpt><trkpt lat="62.399610" lon="9.425132"><ele>1642</ele></trkpt><trkpt lat="62.399571" lon="9.424169"><ele>1647</ele></trkpt><trkpt lat="62.399711" lon="9.423173"><ele>1649</ele></trkpt><trkpt lat="62.400119" lon="9.422127"><ele>1653</ele></trkpt><trkpt lat="62.400119" lon="9.422127"><ele>1653</ele></trkpt></trkseg></trk><wpt lat="62.405018" lon="9.411900"><ele>1461</ele><name>Run end · Unnamed summit 1653 m</name></wpt><trk><name>Down · Unnamed summit 1653 m</name><desc>fall-line run: 335 m of 20–30°, 122 m drop, aspect 7°, max 27°, 0.0% ≥30°; ends 8.04 km from the car.</desc><trkseg><trkpt lat="62.400119" lon="9.422127"><ele>1653</ele></trkpt><trkpt lat="62.402478" lon="9.411404"><ele>1583</ele></trkpt><trkpt lat="62.402746" lon="9.411354"><ele>1571</ele></trkpt><trkpt lat="62.403014" lon="9.411304"><ele>1559</ele></trkpt><trkpt lat="62.403282" lon="9.411254"><ele>1547</ele></trkpt><trkpt lat="62.403550" lon="9.411204"><ele>1533</ele></trkpt><trkpt lat="62.403818" lon="9.411154"><ele>1518</ele></trkpt><trkpt lat="62.404086" lon="9.411104"><ele>1506</ele></trkpt><trkpt lat="62.404370" lon="9.411439"><ele>1493</ele></trkpt><trkpt lat="62.404661" lon="9.411966"><ele>1476</ele></trkpt><trkpt lat="62.404929" lon="9.411916"><ele>1465</ele></trkpt><trkpt lat="62.405018" lon="9.411900"><ele>1461</ele></trkpt></trkseg></trk></gpx>