<?xml version="1.0" encoding="UTF-8"?>
<gpx version="1.1" creator="Rando toppturs" xmlns="http://www.topografix.com/GPX/1/1"><metadata><name>102 Gragjelfjellet 946 m</name><desc>This is an automatically generated list. I have not checked them all. Do not attempt these if you're a beginner. Generated 2026-09-13 17:42 from Kartverket 10 m terrain. Ascent lines are least-cost terrain paths under 35°, not verified routes. Not a snow-stability assessment.</desc></metadata><wpt lat="62.895550" lon="9.887482"><ele>657</ele><name>Car · Gragjelfjellet 946 m</name></wpt><wpt lat="62.916505" lon="9.884808"><ele>946</ele><name>Gragjelfjellet 946 m</name></wpt><trk><name>Up · Gragjelfjellet 946 m</name><desc>least-cost ascent: +299 m over 2391 m, max 24°, 0.0% on 30–35°, ≈1.34 h at 4 km/h + 400 m/h. Terrain possibility, not a checked route.</desc><trkseg><trkpt lat="62.895550" lon="9.887482"><ele>657</ele></trkpt><trkpt lat="62.895997" lon="9.887404"><ele>671</ele></trkpt><trkpt lat="62.896444" lon="9.887326"><ele>675</ele></trkpt><trkpt lat="62.896891" lon="9.887248"><ele>676</ele></trkpt><trkpt lat="62.897338" lon="9.887170"><ele>679</ele></trkpt><trkpt lat="62.897785" lon="9.887092"><ele>682</ele></trkpt><trkpt lat="62.898232" lon="9.887014"><ele>691</ele></trkpt><trkpt lat="62.898679" lon="9.886936"><ele>697</ele></trkpt><trkpt lat="62.899126" lon="9.886858"><ele>704</ele></trkpt><trkpt lat="62.899573" lon="9.886780"><ele>706</ele></trkpt><trkpt lat="62.900020" lon="9.886702"><ele>705</ele></trkpt><trkpt lat="62.900467" lon="9.886624"><ele>705</ele></trkpt><trkpt lat="62.900914" lon="9.886546"><ele>709</ele></trkpt><trkpt lat="62.901361" lon="9.886468"><ele>714</ele></trkpt><trkpt lat="62.901808" lon="9.886390"><ele>718</ele></trkpt><trkpt lat="62.902255" lon="9.886312"><ele>717</ele></trkpt><trkpt lat="62.902702" lon="9.886234"><ele>716</ele></trkpt><trkpt lat="62.903149" lon="9.886155"><ele>715</ele></trkpt><trkpt lat="62.903596" lon="9.886077"><ele>715</ele></trkpt><trkpt lat="62.904043" lon="9.885999"><ele>717</ele></trkpt><trkpt lat="62.904490" lon="9.885921"><ele>723</ele></trkpt><trkpt lat="62.904937" lon="9.885843"><ele>728</ele></trkpt><trkpt lat="62.905384" lon="9.885765"><ele>732</ele></trkpt><trkpt lat="62.905831" lon="9.885687"><ele>736</ele></trkpt><trkpt lat="62.906278" lon="9.885609"><ele>742</ele></trkpt><trkpt lat="62.906725" lon="9.885531"><ele>751</ele></trkpt><trkpt lat="62.907186" lon="9.885845"><ele>761</ele></trkpt><trkpt lat="62.907640" lon="9.885963"><ele>781</ele></trkpt><trkpt lat="62.908087" lon="9.885885"><ele>791</ele></trkpt><trkpt lat="62.908534" lon="9.885806"><ele>805</ele></trkpt><trkpt lat="62.908981" lon="9.885728"><ele>814</ele></trkpt><trkpt lat="62.909435" lon="9.885846"><ele>827</ele></trkpt><trkpt lat="62.909889" lon="9.885964"><ele>841</ele></trkpt><trkpt lat="62.910336" lon="9.885886"><ele>850</ele></trkpt><trkpt lat="62.910783" lon="9.885808"><ele>857</ele></trkpt><trkpt lat="62.911230" lon="9.885730"><ele>865</ele></trkpt><trkpt lat="62.911677" lon="9.885652"><ele>874</ele></trkpt><trkpt lat="62.912124" lon="9.885574"><ele>876</ele></trkpt><trkpt lat="62.912571" lon="9.885496"><ele>888</ele></trkpt><trkpt lat="62.913018" lon="9.885418"><ele>894</ele></trkpt><trkpt lat="62.913465" lon="9.885339"><ele>904</ele></trkpt><trkpt lat="62.913912" lon="9.885261"><ele>911</ele></trkpt><trkpt lat="62.914359" lon="9.885183"><ele>922</ele></trkpt><trkpt lat="62.914806" lon="9.885105"><ele>922</ele></trkpt><trkpt lat="62.915253" lon="9.885027"><ele>925</ele></trkpt><trkpt lat="62.915700" lon="9.884949"><ele>933</ele></trkpt><trkpt lat="62.916147" lon="9.884871"><ele>942</ele></trkpt><trkpt lat="62.916505" lon="9.884808"><ele>946</ele></trkpt></trkseg></trk><wpt lat="62.912615" lon="9.866942"><ele>679</ele><name>Run end · Gragjelfjellet 946 m</name></wpt><trk><name>Down · Gragjelfjellet 946 m</name><desc>fall-line run: 330 m of 20–30°, 246 m drop, aspect 246°, max 32°, 1.1% ≥30°; ends 2.17 km from the car.</desc><trkseg><trkpt lat="62.916505" lon="9.884808"><ele>946</ele></trkpt><trkpt lat="62.915489" lon="9.881631"><ele>925</ele></trkpt><trkpt lat="62.915221" lon="9.881678"><ele>911</ele></trkpt><trkpt lat="62.914953" lon="9.881725"><ele>898</ele></trkpt><trkpt lat="62.914685" lon="9.881772"><ele>883</ele></trkpt><trkpt lat="62.914410" lon="9.881623"><ele>868</ele></trkpt><trkpt lat="62.914127" lon="9.881278"><ele>851</ele></trkpt><trkpt lat="62.913845" lon="9.880932"><ele>840</ele></trkpt><trkpt lat="62.913569" lon="9.880783"><ele>830</ele></trkpt><trkpt lat="62.913369" lon="9.880226"><ele>823</ele></trkpt><trkpt lat="62.913348" lon="9.879638"><ele>815</ele></trkpt><trkpt lat="62.913326" lon="9.879050"><ele>812</ele></trkpt><trkpt lat="62.913126" lon="9.878493"><ele>810</ele></trkpt><trkpt lat="62.913105" lon="9.877905"><ele>805</ele></trkpt><trkpt lat="62.912994" lon="9.877332"><ele>801</ele></trkpt><trkpt lat="62.912973" lon="9.876744"><ele>794</ele></trkpt><trkpt lat="62.912862" lon="9.876172"><ele>791</ele></trkpt><trkpt lat="62.912840" lon="9.875584"><ele>790</ele></trkpt><trkpt lat="62.912819" lon="9.874996"><ele>783</ele></trkpt><trkpt lat="62.912798" lon="9.874407"><ele>777</ele></trkpt><trkpt lat="62.912776" lon="9.873819"><ele>771</ele></trkpt><trkpt lat="62.912844" lon="9.873215"><ele>764</ele></trkpt><trkpt lat="62.912733" lon="9.872643"><ele>760</ele></trkpt><trkpt lat="62.912712" lon="9.872055"><ele>757</ele></trkpt><trkpt lat="62.912690" lon="9.871467"><ele>753</ele></trkpt><trkpt lat="62.912580" lon="9.870894"><ele>749</ele></trkpt><trkpt lat="62.912469" lon="9.870322"><ele>738</ele></trkpt><trkpt lat="62.912447" lon="9.869734"><ele>729</ele></trkpt><trkpt lat="62.912337" lon="9.869161"><ele>713</ele></trkpt><trkpt lat="62.912404" lon="9.868557"><ele>699</ele></trkpt><trkpt lat="62.912383" lon="9.867969"><ele>693</ele></trkpt><trkpt lat="62.912451" lon="9.867365"><ele>689</ele></trkpt><trkpt lat="62.912615" lon="9.866942"><ele>679</ele></trkpt></trkseg></trk></gpx>