<?xml version="1.0" encoding="UTF-8"?>
<gpx version="1.1" creator="Rando toppturs" xmlns="http://www.topografix.com/GPX/1/1"><metadata><name>103 Veslhornet 1144 m</name><desc>Generated 2026-09-13 17:42 from Kartverket 10 m terrain. Ascent lines are least-cost terrain paths under 35°, not verified routes. Not a snow-stability assessment.</desc></metadata><wpt lat="62.659243" lon="9.456085"><ele>701</ele><name>Car · Veslhornet 1144 m</name></wpt><wpt lat="62.642529" lon="9.447678"><ele>1144</ele><name>Veslhornet 1144 m</name></wpt><trk><name>Up · Veslhornet 1144 m</name><desc>least-cost ascent: +446 m over 2129 m, max 25°, 0.0% on 30–35°, ≈1.65 h at 4 km/h + 400 m/h. Terrain possibility, not a checked route.</desc><trkseg><trkpt lat="62.659243" lon="9.456085"><ele>701</ele></trkpt><trkpt lat="62.658781" lon="9.455780"><ele>713</ele></trkpt><trkpt lat="62.658311" lon="9.455281"><ele>731</ele></trkpt><trkpt lat="62.657826" lon="9.454394"><ele>759</ele></trkpt><trkpt lat="62.657371" lon="9.454284"><ele>774</ele></trkpt><trkpt lat="62.656925" lon="9.454367"><ele>784</ele></trkpt><trkpt lat="62.656478" lon="9.454451"><ele>795</ele></trkpt><trkpt lat="62.655993" lon="9.453564"><ele>810</ele></trkpt><trkpt lat="62.655507" lon="9.452676"><ele>832</ele></trkpt><trkpt lat="62.655061" lon="9.452760"><ele>845</ele></trkpt><trkpt lat="62.654614" lon="9.452844"><ele>857</ele></trkpt><trkpt lat="62.654167" lon="9.452928"><ele>868</ele></trkpt><trkpt lat="62.653721" lon="9.453012"><ele>877</ele></trkpt><trkpt lat="62.653274" lon="9.453095"><ele>881</ele></trkpt><trkpt lat="62.652812" lon="9.452791"><ele>888</ele></trkpt><trkpt lat="62.652327" lon="9.451903"><ele>898</ele></trkpt><trkpt lat="62.651842" lon="9.451016"><ele>912</ele></trkpt><trkpt lat="62.651356" lon="9.450129"><ele>928</ele></trkpt><trkpt lat="62.650871" lon="9.449242"><ele>946</ele></trkpt><trkpt lat="62.650386" lon="9.448355"><ele>958</ele></trkpt><trkpt lat="62.649901" lon="9.447468"><ele>972</ele></trkpt><trkpt lat="62.649431" lon="9.446969"><ele>986</ele></trkpt><trkpt lat="62.648984" lon="9.447053"><ele>996</ele></trkpt><trkpt lat="62.648537" lon="9.447137"><ele>1005</ele></trkpt><trkpt lat="62.648091" lon="9.447221"><ele>1015</ele></trkpt><trkpt lat="62.647644" lon="9.447305"><ele>1028</ele></trkpt><trkpt lat="62.647166" lon="9.446612"><ele>1051</ele></trkpt><trkpt lat="62.646720" lon="9.446696"><ele>1065</ele></trkpt><trkpt lat="62.646273" lon="9.446779"><ele>1086</ele></trkpt><trkpt lat="62.645826" lon="9.446863"><ele>1102</ele></trkpt><trkpt lat="62.645380" lon="9.446947"><ele>1110</ele></trkpt><trkpt lat="62.644933" lon="9.447031"><ele>1124</ele></trkpt><trkpt lat="62.644486" lon="9.447115"><ele>1126</ele></trkpt><trkpt lat="62.644040" lon="9.447198"><ele>1125</ele></trkpt><trkpt lat="62.643593" lon="9.447282"><ele>1134</ele></trkpt><trkpt lat="62.643146" lon="9.447366"><ele>1140</ele></trkpt><trkpt lat="62.642700" lon="9.447450"><ele>1144</ele></trkpt><trkpt lat="62.642529" lon="9.447678"><ele>1144</ele></trkpt></trkseg></trk><wpt lat="62.644160" lon="9.459302"><ele>939</ele><name>Run end · Veslhornet 1144 m</name></wpt><trk><name>Down · Veslhornet 1144 m</name><desc>fall-line run: 330 m of 20–30°, 145 m drop, aspect 60°, max 32°, 3.4% ≥30°; ends 1.69 km from the car.</desc><trkseg><trkpt lat="62.642529" lon="9.447678"><ele>1144</ele></trkpt><trkpt lat="62.641979" lon="9.454234"><ele>1084</ele></trkpt><trkpt lat="62.642270" lon="9.454767"><ele>1067</ele></trkpt><trkpt lat="62.642561" lon="9.455299"><ele>1050</ele></trkpt><trkpt lat="62.642852" lon="9.455831"><ele>1034</ele></trkpt><trkpt lat="62.643144" lon="9.456363"><ele>1018</ele></trkpt><trkpt lat="62.643435" lon="9.456895"><ele>1002</ele></trkpt><trkpt lat="62.643726" lon="9.457428"><ele>987</ele></trkpt><trkpt lat="62.644017" lon="9.457960"><ele>967</ele></trkpt><trkpt lat="62.644129" lon="9.458526"><ele>953</ele></trkpt><trkpt lat="62.644152" lon="9.459108"><ele>943</ele></trkpt><trkpt lat="62.644160" lon="9.459302"><ele>939</ele></trkpt></trkseg></trk></gpx>