<?xml version="1.0" encoding="UTF-8"?>
<gpx version="1.1" creator="Rando toppturs" xmlns="http://www.topografix.com/GPX/1/1"><metadata><name>104 Sørlipynten 930 m</name><desc>Generated 2026-09-13 17:42 from Kartverket 10 m terrain. Ascent lines are least-cost terrain paths under 35°, not verified routes. Not a snow-stability assessment.</desc></metadata><wpt lat="62.817132" lon="9.829349"><ele>716</ele><name>Car · Sørlipynten 930 m</name></wpt><wpt lat="62.810429" lon="9.840359"><ele>930</ele><name>Sørlipynten 930 m</name></wpt><trk><name>Up · Sørlipynten 930 m</name><desc>least-cost ascent: +223 m over 1133 m, max 30°, 0.0% on 30–35°, ≈0.84 h at 4 km/h + 400 m/h. Terrain possibility, not a checked route.</desc><trkseg><trkpt lat="62.817132" lon="9.829349"><ele>716</ele></trkpt><trkpt lat="62.816900" lon="9.830373"><ele>735</ele></trkpt><trkpt lat="62.816936" lon="9.831350"><ele>760</ele></trkpt><trkpt lat="62.816882" lon="9.832343"><ele>787</ele></trkpt><trkpt lat="62.816739" lon="9.833351"><ele>812</ele></trkpt><trkpt lat="62.816300" lon="9.833625"><ele>830</ele></trkpt><trkpt lat="62.815882" lon="9.834486"><ele>849</ele></trkpt><trkpt lat="62.815442" lon="9.834759"><ele>865</ele></trkpt><trkpt lat="62.814995" lon="9.834838"><ele>865</ele></trkpt><trkpt lat="62.814577" lon="9.835698"><ele>873</ele></trkpt><trkpt lat="62.814130" lon="9.835777"><ele>868</ele></trkpt><trkpt lat="62.813711" lon="9.836637"><ele>869</ele></trkpt><trkpt lat="62.813293" lon="9.837497"><ele>879</ele></trkpt><trkpt lat="62.812868" lon="9.838161"><ele>892</ele></trkpt><trkpt lat="62.812428" lon="9.838435"><ele>900</ele></trkpt><trkpt lat="62.811995" lon="9.838904"><ele>916</ele></trkpt><trkpt lat="62.811548" lon="9.838983"><ele>920</ele></trkpt><trkpt lat="62.811102" lon="9.839061"><ele>921</ele></trkpt><trkpt lat="62.810676" lon="9.839726"><ele>924</ele></trkpt><trkpt lat="62.810429" lon="9.840359"><ele>930</ele></trkpt></trkseg></trk><wpt lat="62.806999" lon="9.832704"><ele>754</ele><name>Run end · Sørlipynten 930 m</name></wpt><trk><name>Down · Sørlipynten 930 m</name><desc>fall-line run: 329 m of 20–30°, 146 m drop, aspect 262°, max 33°, 2.9% ≥30°; ends 1.14 km from the car.</desc><trkseg><trkpt lat="62.810429" lon="9.840359"><ele>930</ele></trkpt><trkpt lat="62.807951" lon="9.839025"><ele>900</ele></trkpt><trkpt lat="62.807930" lon="9.838439"><ele>887</ele></trkpt><trkpt lat="62.807908" lon="9.837853"><ele>874</ele></trkpt><trkpt lat="62.807887" lon="9.837267"><ele>857</ele></trkpt><trkpt lat="62.807865" lon="9.836681"><ele>847</ele></trkpt><trkpt lat="62.807844" lon="9.836095"><ele>835</ele></trkpt><trkpt lat="62.807822" lon="9.835509"><ele>822</ele></trkpt><trkpt lat="62.807800" lon="9.834923"><ele>810</ele></trkpt><trkpt lat="62.807689" lon="9.834352"><ele>795</ele></trkpt><trkpt lat="62.807489" lon="9.833798"><ele>787</ele></trkpt><trkpt lat="62.807199" lon="9.833259"><ele>773</ele></trkpt><trkpt lat="62.806999" lon="9.832704"><ele>754</ele></trkpt><trkpt lat="62.806999" lon="9.832704"><ele>754</ele></trkpt></trkseg></trk></gpx>