<?xml version="1.0" encoding="UTF-8"?>
<gpx version="1.1" creator="Rando toppturs" xmlns="http://www.topografix.com/GPX/1/1"><metadata><name>105 Grythatten 1365 m</name><desc>This is an automatically generated list. I have not checked them all. Do not attempt these if you're a beginner. Generated 2026-09-13 17:42 from Kartverket 10 m terrain. Ascent lines are least-cost terrain paths under 35°, not verified routes. Not a snow-stability assessment.</desc></metadata><wpt lat="62.705413" lon="9.783876"><ele>766</ele><name>Car · Grythatten 1365 m</name></wpt><wpt lat="62.713473" lon="9.725224"><ele>1365</ele><name>Grythatten 1365 m</name></wpt><trk><name>Up · Grythatten 1365 m</name><desc>least-cost ascent: +615 m over 3492 m, max 29°, 0.0% on 30–35°, ≈2.41 h at 4 km/h + 400 m/h. Terrain possibility, not a checked route.</desc><trkseg><trkpt lat="62.705413" lon="9.783876"><ele>766</ele></trkpt><trkpt lat="62.705377" lon="9.782903"><ele>769</ele></trkpt><trkpt lat="62.705340" lon="9.781930"><ele>774</ele></trkpt><trkpt lat="62.705304" lon="9.780957"><ele>778</ele></trkpt><trkpt lat="62.705268" lon="9.779983"><ele>781</ele></trkpt><trkpt lat="62.705232" lon="9.779010"><ele>784</ele></trkpt><trkpt lat="62.705195" lon="9.778037"><ele>788</ele></trkpt><trkpt lat="62.705159" lon="9.777064"><ele>792</ele></trkpt><trkpt lat="62.705123" lon="9.776091"><ele>797</ele></trkpt><trkpt lat="62.705086" lon="9.775117"><ele>799</ele></trkpt><trkpt lat="62.705050" lon="9.774144"><ele>805</ele></trkpt><trkpt lat="62.705014" lon="9.773171"><ele>812</ele></trkpt><trkpt lat="62.704977" lon="9.772198"><ele>818</ele></trkpt><trkpt lat="62.704941" lon="9.771225"><ele>824</ele></trkpt><trkpt lat="62.705173" lon="9.770204"><ele>830</ele></trkpt><trkpt lat="62.705583" lon="9.769152"><ele>838</ele></trkpt><trkpt lat="62.705994" lon="9.768099"><ele>845</ele></trkpt><trkpt lat="62.706405" lon="9.767047"><ele>854</ele></trkpt><trkpt lat="62.706815" lon="9.765994"><ele>861</ele></trkpt><trkpt lat="62.707226" lon="9.764942"><ele>868</ele></trkpt><trkpt lat="62.707636" lon="9.763889"><ele>876</ele></trkpt><trkpt lat="62.708047" lon="9.762837"><ele>886</ele></trkpt><trkpt lat="62.708457" lon="9.761784"><ele>898</ele></trkpt><trkpt lat="62.708421" lon="9.760811"><ele>908</ele></trkpt><trkpt lat="62.708384" lon="9.759837"><ele>918</ele></trkpt><trkpt lat="62.708348" lon="9.758864"><ele>928</ele></trkpt><trkpt lat="62.708311" lon="9.757891"><ele>932</ele></trkpt><trkpt lat="62.708275" lon="9.756918"><ele>939</ele></trkpt><trkpt lat="62.708239" lon="9.755944"><ele>947</ele></trkpt><trkpt lat="62.708202" lon="9.754971"><ele>956</ele></trkpt><trkpt lat="62.708166" lon="9.753998"><ele>965</ele></trkpt><trkpt lat="62.708129" lon="9.753024"><ele>975</ele></trkpt><trkpt lat="62.708093" lon="9.752051"><ele>984</ele></trkpt><trkpt lat="62.708056" lon="9.751078"><ele>997</ele></trkpt><trkpt lat="62.708020" lon="9.750105"><ele>1012</ele></trkpt><trkpt lat="62.707983" lon="9.749131"><ele>1024</ele></trkpt><trkpt lat="62.707947" lon="9.748158"><ele>1035</ele></trkpt><trkpt lat="62.707910" lon="9.747185"><ele>1044</ele></trkpt><trkpt lat="62.707874" lon="9.746212"><ele>1053</ele></trkpt><trkpt lat="62.707837" lon="9.745238"><ele>1061</ele></trkpt><trkpt lat="62.707801" lon="9.744265"><ele>1066</ele></trkpt><trkpt lat="62.708211" lon="9.743212"><ele>1083</ele></trkpt><trkpt lat="62.708532" lon="9.742175"><ele>1099</ele></trkpt><trkpt lat="62.708942" lon="9.741122"><ele>1116</ele></trkpt><trkpt lat="62.709353" lon="9.740070"><ele>1131</ele></trkpt><trkpt lat="62.709763" lon="9.739017"><ele>1147</ele></trkpt><trkpt lat="62.710173" lon="9.737964"><ele>1168</ele></trkpt><trkpt lat="62.710226" lon="9.736974"><ele>1180</ele></trkpt><trkpt lat="62.710636" lon="9.735921"><ele>1203</ele></trkpt><trkpt lat="62.711047" lon="9.734868"><ele>1232</ele></trkpt><trkpt lat="62.711278" lon="9.733847"><ele>1250</ele></trkpt><trkpt lat="62.711688" lon="9.732794"><ele>1244</ele></trkpt><trkpt lat="62.711741" lon="9.731805"><ele>1237</ele></trkpt><trkpt lat="62.711705" lon="9.730831"><ele>1237</ele></trkpt><trkpt lat="62.711668" lon="9.729858"><ele>1249</ele></trkpt><trkpt lat="62.711810" lon="9.728853"><ele>1268</ele></trkpt><trkpt lat="62.712131" lon="9.727816"><ele>1302</ele></trkpt><trkpt lat="62.712556" lon="9.727152"><ele>1322</ele></trkpt><trkpt lat="62.712966" lon="9.726098"><ele>1340</ele></trkpt><trkpt lat="62.713384" lon="9.725240"><ele>1365</ele></trkpt><trkpt lat="62.713473" lon="9.725224"><ele>1365</ele></trkpt></trkseg></trk><wpt lat="62.719326" lon="9.737312"><ele>1045</ele><name>Run end · Grythatten 1365 m</name></wpt><trk><name>Down · Grythatten 1365 m</name><desc>fall-line run: 328 m of 20–30°, 233 m drop, aspect 76°, max 29°, 0.0% ≥30°; ends 2.84 km from the car.</desc><trkseg><trkpt lat="62.713473" lon="9.725224"><ele>1365</ele></trkpt><trkpt lat="62.717480" lon="9.724116"><ele>1278</ele></trkpt><trkpt lat="62.717770" lon="9.724652"><ele>1260</ele></trkpt><trkpt lat="62.717971" lon="9.725204"><ele>1247</ele></trkpt><trkpt lat="62.717993" lon="9.725788"><ele>1235</ele></trkpt><trkpt lat="62.718015" lon="9.726372"><ele>1219</ele></trkpt><trkpt lat="62.718037" lon="9.726956"><ele>1203</ele></trkpt><trkpt lat="62.718059" lon="9.727540"><ele>1186</ele></trkpt><trkpt lat="62.718081" lon="9.728125"><ele>1171</ele></trkpt><trkpt lat="62.718103" lon="9.728709"><ele>1156</ele></trkpt><trkpt lat="62.718125" lon="9.729293"><ele>1145</ele></trkpt><trkpt lat="62.718147" lon="9.729877"><ele>1135</ele></trkpt><trkpt lat="62.718258" lon="9.730445"><ele>1130</ele></trkpt><trkpt lat="62.718541" lon="9.730787"><ele>1122</ele></trkpt><trkpt lat="62.718817" lon="9.730934"><ele>1118</ele></trkpt><trkpt lat="62.719085" lon="9.730886"><ele>1115</ele></trkpt><trkpt lat="62.719375" lon="9.731422"><ele>1111</ele></trkpt><trkpt lat="62.719486" lon="9.731990"><ele>1108</ele></trkpt><trkpt lat="62.719508" lon="9.732574"><ele>1104</ele></trkpt><trkpt lat="62.719620" lon="9.733143"><ele>1098</ele></trkpt><trkpt lat="62.719552" lon="9.733743"><ele>1093</ele></trkpt><trkpt lat="62.719574" lon="9.734327"><ele>1082</ele></trkpt><trkpt lat="62.719596" lon="9.734911"><ele>1075</ele></trkpt><trkpt lat="62.719618" lon="9.735495"><ele>1069</ele></trkpt><trkpt lat="62.719372" lon="9.736127"><ele>1064</ele></trkpt><trkpt lat="62.719304" lon="9.736727"><ele>1056</ele></trkpt><trkpt lat="62.719326" lon="9.737312"><ele>1045</ele></trkpt><trkpt lat="62.719326" lon="9.737312"><ele>1045</ele></trkpt></trkseg></trk></gpx>