<?xml version="1.0" encoding="UTF-8"?>
<gpx version="1.1" creator="Rando toppturs" xmlns="http://www.topografix.com/GPX/1/1"><metadata><name>108 Blåøret 1604 m</name><desc>This is an automatically generated list. I have not checked them all. Do not attempt these if you're a beginner. Generated 2026-09-13 17:42 from Kartverket 10 m terrain. Ascent lines are least-cost terrain paths under 35°, not verified routes. Not a snow-stability assessment.</desc></metadata><wpt lat="62.624443" lon="9.733656"><ele>862</ele><name>Car · Blåøret 1604 m</name></wpt><wpt lat="62.659128" lon="9.680139"><ele>1604</ele><name>Blåøret 1604 m</name></wpt><trk><name>Up · Blåøret 1604 m</name><desc>least-cost ascent: +765 m over 5261 m, max 21°, 0.0% on 30–35°, ≈3.23 h at 4 km/h + 400 m/h. Terrain possibility, not a checked route.</desc><trkseg><trkpt lat="62.624443" lon="9.733656"><ele>862</ele></trkpt><trkpt lat="62.624406" lon="9.732686"><ele>868</ele></trkpt><trkpt lat="62.624548" lon="9.731683"><ele>873</ele></trkpt><trkpt lat="62.624512" lon="9.730713"><ele>872</ele></trkpt><trkpt lat="62.624565" lon="9.729726"><ele>879</ele></trkpt><trkpt lat="62.624975" lon="9.728676"><ele>895</ele></trkpt><trkpt lat="62.625385" lon="9.727626"><ele>909</ele></trkpt><trkpt lat="62.625795" lon="9.726576"><ele>916</ele></trkpt><trkpt lat="62.626206" lon="9.725526"><ele>924</ele></trkpt><trkpt lat="62.626616" lon="9.724476"><ele>927</ele></trkpt><trkpt lat="62.627055" lon="9.724202"><ele>933</ele></trkpt><trkpt lat="62.627480" lon="9.723540"><ele>948</ele></trkpt><trkpt lat="62.627891" lon="9.722490"><ele>966</ele></trkpt><trkpt lat="62.628301" lon="9.721440"><ele>985</ele></trkpt><trkpt lat="62.628733" lon="9.720972"><ele>1001</ele></trkpt><trkpt lat="62.629158" lon="9.720310"><ele>1020</ele></trkpt><trkpt lat="62.629575" lon="9.719454"><ele>1036</ele></trkpt><trkpt lat="62.629986" lon="9.718404"><ele>1050</ele></trkpt><trkpt lat="62.630396" lon="9.717353"><ele>1067</ele></trkpt><trkpt lat="62.630806" lon="9.716303"><ele>1084</ele></trkpt><trkpt lat="62.631224" lon="9.715447"><ele>1101</ele></trkpt><trkpt lat="62.631670" lon="9.715367"><ele>1113</ele></trkpt><trkpt lat="62.632103" lon="9.714899"><ele>1127</ele></trkpt><trkpt lat="62.632549" lon="9.714819"><ele>1142</ele></trkpt><trkpt lat="62.632982" lon="9.714351"><ele>1155</ele></trkpt><trkpt lat="62.633392" lon="9.713300"><ele>1171</ele></trkpt><trkpt lat="62.633802" lon="9.712250"><ele>1190</ele></trkpt><trkpt lat="62.634212" lon="9.711199"><ele>1199</ele></trkpt><trkpt lat="62.634622" lon="9.710149"><ele>1210</ele></trkpt><trkpt lat="62.635032" lon="9.709098"><ele>1223</ele></trkpt><trkpt lat="62.635443" lon="9.708047"><ele>1241</ele></trkpt><trkpt lat="62.635889" lon="9.707968"><ele>1256</ele></trkpt><trkpt lat="62.636336" lon="9.707888"><ele>1261</ele></trkpt><trkpt lat="62.636783" lon="9.707808"><ele>1254</ele></trkpt><trkpt lat="62.637230" lon="9.707728"><ele>1254</ele></trkpt><trkpt lat="62.637677" lon="9.707648"><ele>1257</ele></trkpt><trkpt lat="62.638124" lon="9.707568"><ele>1260</ele></trkpt><trkpt lat="62.638571" lon="9.707488"><ele>1258</ele></trkpt><trkpt lat="62.639018" lon="9.707408"><ele>1260</ele></trkpt><trkpt lat="62.639464" lon="9.707329"><ele>1263</ele></trkpt><trkpt lat="62.639911" lon="9.707249"><ele>1263</ele></trkpt><trkpt lat="62.640358" lon="9.707169"><ele>1265</ele></trkpt><trkpt lat="62.640805" lon="9.707089"><ele>1273</ele></trkpt><trkpt lat="62.641252" lon="9.707009"><ele>1273</ele></trkpt><trkpt lat="62.641699" lon="9.706929"><ele>1279</ele></trkpt><trkpt lat="62.642146" lon="9.706849"><ele>1286</ele></trkpt><trkpt lat="62.642592" lon="9.706769"><ele>1295</ele></trkpt><trkpt lat="62.643039" lon="9.706689"><ele>1301</ele></trkpt><trkpt lat="62.643486" lon="9.706609"><ele>1308</ele></trkpt><trkpt lat="62.643933" lon="9.706530"><ele>1319</ele></trkpt><trkpt lat="62.644380" lon="9.706450"><ele>1327</ele></trkpt><trkpt lat="62.644827" lon="9.706370"><ele>1338</ele></trkpt><trkpt lat="62.645274" lon="9.706290"><ele>1347</ele></trkpt><trkpt lat="62.645721" lon="9.706210"><ele>1359</ele></trkpt><trkpt lat="62.646167" lon="9.706130"><ele>1372</ele></trkpt><trkpt lat="62.646592" lon="9.705467"><ele>1385</ele></trkpt><trkpt lat="62.647002" lon="9.704416"><ele>1397</ele></trkpt><trkpt lat="62.647412" lon="9.703365"><ele>1408</ele></trkpt><trkpt lat="62.647823" lon="9.702314"><ele>1418</ele></trkpt><trkpt lat="62.648247" lon="9.701651"><ele>1429</ele></trkpt><trkpt lat="62.648694" lon="9.701571"><ele>1436</ele></trkpt><trkpt lat="62.649141" lon="9.701491"><ele>1444</ele></trkpt><trkpt lat="62.649588" lon="9.701411"><ele>1454</ele></trkpt><trkpt lat="62.650035" lon="9.701331"><ele>1465</ele></trkpt><trkpt lat="62.650482" lon="9.701251"><ele>1477</ele></trkpt><trkpt lat="62.650906" lon="9.700588"><ele>1484</ele></trkpt><trkpt lat="62.651331" lon="9.699925"><ele>1494</ele></trkpt><trkpt lat="62.651749" lon="9.699068"><ele>1502</ele></trkpt><trkpt lat="62.652159" lon="9.698017"><ele>1513</ele></trkpt><trkpt lat="62.652569" lon="9.696965"><ele>1525</ele></trkpt><trkpt lat="62.652979" lon="9.695914"><ele>1535</ele></trkpt><trkpt lat="62.653389" lon="9.694863"><ele>1540</ele></trkpt><trkpt lat="62.653799" lon="9.693811"><ele>1540</ele></trkpt><trkpt lat="62.654209" lon="9.692759"><ele>1537</ele></trkpt><trkpt lat="62.654619" lon="9.691708"><ele>1538</ele></trkpt><trkpt lat="62.655029" lon="9.690656"><ele>1536</ele></trkpt><trkpt lat="62.655439" lon="9.689605"><ele>1538</ele></trkpt><trkpt lat="62.655849" lon="9.688553"><ele>1542</ele></trkpt><trkpt lat="62.656259" lon="9.687501"><ele>1549</ele></trkpt><trkpt lat="62.656668" lon="9.686450"><ele>1555</ele></trkpt><trkpt lat="62.657078" lon="9.685398"><ele>1563</ele></trkpt><trkpt lat="62.657488" lon="9.684346"><ele>1573</ele></trkpt><trkpt lat="62.657898" lon="9.683294"><ele>1586</ele></trkpt><trkpt lat="62.658308" lon="9.682242"><ele>1591</ele></trkpt><trkpt lat="62.658718" lon="9.681190"><ele>1598</ele></trkpt><trkpt lat="62.659128" lon="9.680139"><ele>1604</ele></trkpt><trkpt lat="62.659128" lon="9.680139"><ele>1604</ele></trkpt></trkseg></trk><wpt lat="62.668685" lon="9.711493"><ele>1207</ele><name>Run end · Blåøret 1604 m</name></wpt><trk><name>Down · Blåøret 1604 m</name><desc>fall-line run: 327 m of 20–30°, 335 m drop, aspect 68°, max 30°, 0.9% ≥30°; ends 5.06 km from the car.</desc><trkseg><trkpt lat="62.659128" lon="9.680139"><ele>1604</ele></trkpt><trkpt lat="62.663876" lon="9.691416"><ele>1542</ele></trkpt><trkpt lat="62.664144" lon="9.691368"><ele>1529</ele></trkpt><trkpt lat="62.664434" lon="9.691903"><ele>1515</ele></trkpt><trkpt lat="62.664702" lon="9.691855"><ele>1505</ele></trkpt><trkpt lat="62.664992" lon="9.692390"><ele>1490</ele></trkpt><trkpt lat="62.665275" lon="9.692730"><ele>1478</ele></trkpt><trkpt lat="62.665565" lon="9.693265"><ele>1471</ele></trkpt><trkpt lat="62.665856" lon="9.693800"><ele>1459</ele></trkpt><trkpt lat="62.666146" lon="9.694335"><ele>1449</ele></trkpt><trkpt lat="62.666436" lon="9.694870"><ele>1438</ele></trkpt><trkpt lat="62.666726" lon="9.695405"><ele>1431</ele></trkpt><trkpt lat="62.667017" lon="9.695940"><ele>1422</ele></trkpt><trkpt lat="62.667307" lon="9.696475"><ele>1415</ele></trkpt><trkpt lat="62.667597" lon="9.697010"><ele>1409</ele></trkpt><trkpt lat="62.667887" lon="9.697545"><ele>1400</ele></trkpt><trkpt lat="62.667999" lon="9.698112"><ele>1396</ele></trkpt><trkpt lat="62.668021" lon="9.698696"><ele>1391</ele></trkpt><trkpt lat="62.668132" lon="9.699263"><ele>1387</ele></trkpt><trkpt lat="62.668244" lon="9.699830"><ele>1382</ele></trkpt><trkpt lat="62.668266" lon="9.700413"><ele>1377</ele></trkpt><trkpt lat="62.668288" lon="9.700996"><ele>1372</ele></trkpt><trkpt lat="62.668400" lon="9.701563"><ele>1365</ele></trkpt><trkpt lat="62.668422" lon="9.702146"><ele>1359</ele></trkpt><trkpt lat="62.668444" lon="9.702729"><ele>1352</ele></trkpt><trkpt lat="62.668466" lon="9.703313"><ele>1345</ele></trkpt><trkpt lat="62.668488" lon="9.703896"><ele>1338</ele></trkpt><trkpt lat="62.668599" lon="9.704463"><ele>1333</ele></trkpt><trkpt lat="62.668621" lon="9.705046"><ele>1328</ele></trkpt><trkpt lat="62.668643" lon="9.705629"><ele>1322</ele></trkpt><trkpt lat="62.668666" lon="9.706212"><ele>1314</ele></trkpt><trkpt lat="62.668688" lon="9.706795"><ele>1303</ele></trkpt><trkpt lat="62.668710" lon="9.707378"><ele>1291</ele></trkpt><trkpt lat="62.668732" lon="9.707962"><ele>1278</ele></trkpt><trkpt lat="62.668754" lon="9.708545"><ele>1264</ele></trkpt><trkpt lat="62.668776" lon="9.709128"><ele>1255</ele></trkpt><trkpt lat="62.668798" lon="9.709711"><ele>1246</ele></trkpt><trkpt lat="62.668820" lon="9.710294"><ele>1233</ele></trkpt><trkpt lat="62.668663" lon="9.710909"><ele>1220</ele></trkpt><trkpt lat="62.668685" lon="9.711493"><ele>1207</ele></trkpt><trkpt lat="62.668685" lon="9.711493"><ele>1207</ele></trkpt></trkseg></trk></gpx>