<?xml version="1.0" encoding="UTF-8"?>
<gpx version="1.1" creator="Rando toppturs" xmlns="http://www.topografix.com/GPX/1/1"><metadata><name>110 Snofjellet 1558 m</name><desc>This is an automatically generated list. I have not checked them all. Do not attempt these if you're a beginner. Generated 2026-09-13 17:42 from Kartverket 10 m terrain. Ascent lines are least-cost terrain paths under 35°, not verified routes. Not a snow-stability assessment.</desc></metadata><wpt lat="62.688980" lon="9.560192"><ele>888</ele><name>Car · Snofjellet 1558 m</name></wpt><wpt lat="62.682603" lon="9.675130"><ele>1558</ele><name>Snofjellet 1558 m</name></wpt><trk><name>Up · Snofjellet 1558 m</name><desc>least-cost ascent: +786 m over 6441 m, max 29°, 0.0% on 30–35°, ≈3.57 h at 4 km/h + 400 m/h. Terrain possibility, not a checked route.</desc><trkseg><trkpt lat="62.688980" lon="9.560192"><ele>888</ele></trkpt><trkpt lat="62.689018" lon="9.561164"><ele>902</ele></trkpt><trkpt lat="62.688877" lon="9.562169"><ele>913</ele></trkpt><trkpt lat="62.688914" lon="9.563142"><ele>928</ele></trkpt><trkpt lat="62.688952" lon="9.564114"><ele>946</ele></trkpt><trkpt lat="62.688990" lon="9.565086"><ele>958</ele></trkpt><trkpt lat="62.689028" lon="9.566059"><ele>979</ele></trkpt><trkpt lat="62.689066" lon="9.567031"><ele>992</ele></trkpt><trkpt lat="62.689103" lon="9.568004"><ele>1002</ele></trkpt><trkpt lat="62.689141" lon="9.568976"><ele>1009</ele></trkpt><trkpt lat="62.689179" lon="9.569948"><ele>1020</ele></trkpt><trkpt lat="62.689216" lon="9.570921"><ele>1032</ele></trkpt><trkpt lat="62.689433" lon="9.571860"><ele>1046</ele></trkpt><trkpt lat="62.689560" lon="9.572816"><ele>1060</ele></trkpt><trkpt lat="62.689598" lon="9.573788"><ele>1076</ele></trkpt><trkpt lat="62.689635" lon="9.574761"><ele>1091</ele></trkpt><trkpt lat="62.689405" lon="9.575782"><ele>1117</ele></trkpt><trkpt lat="62.689264" lon="9.576788"><ele>1136</ele></trkpt><trkpt lat="62.689212" lon="9.577776"><ele>1154</ele></trkpt><trkpt lat="62.688982" lon="9.578798"><ele>1165</ele></trkpt><trkpt lat="62.688573" lon="9.579852"><ele>1181</ele></trkpt><trkpt lat="62.688164" lon="9.580907"><ele>1193</ele></trkpt><trkpt lat="62.687844" lon="9.581945"><ele>1203</ele></trkpt><trkpt lat="62.687882" lon="9.582917"><ele>1206</ele></trkpt><trkpt lat="62.687919" lon="9.583889"><ele>1210</ele></trkpt><trkpt lat="62.687957" lon="9.584862"><ele>1220</ele></trkpt><trkpt lat="62.687995" lon="9.585834"><ele>1227</ele></trkpt><trkpt lat="62.688032" lon="9.586806"><ele>1233</ele></trkpt><trkpt lat="62.688070" lon="9.587779"><ele>1240</ele></trkpt><trkpt lat="62.688107" lon="9.588751"><ele>1248</ele></trkpt><trkpt lat="62.688145" lon="9.589723"><ele>1249</ele></trkpt><trkpt lat="62.688183" lon="9.590696"><ele>1252</ele></trkpt><trkpt lat="62.688220" lon="9.591668"><ele>1251</ele></trkpt><trkpt lat="62.688258" lon="9.592640"><ele>1253</ele></trkpt><trkpt lat="62.688295" lon="9.593613"><ele>1254</ele></trkpt><trkpt lat="62.688333" lon="9.594585"><ele>1241</ele></trkpt><trkpt lat="62.688370" lon="9.595558"><ele>1229</ele></trkpt><trkpt lat="62.688408" lon="9.596530"><ele>1215</ele></trkpt><trkpt lat="62.688446" lon="9.597502"><ele>1208</ele></trkpt><trkpt lat="62.688483" lon="9.598475"><ele>1200</ele></trkpt><trkpt lat="62.688521" lon="9.599447"><ele>1194</ele></trkpt><trkpt lat="62.688379" lon="9.600452"><ele>1193</ele></trkpt><trkpt lat="62.687970" lon="9.601506"><ele>1192</ele></trkpt><trkpt lat="62.687561" lon="9.602560"><ele>1189</ele></trkpt><trkpt lat="62.687152" lon="9.603614"><ele>1188</ele></trkpt><trkpt lat="62.686742" lon="9.604668"><ele>1184</ele></trkpt><trkpt lat="62.686333" lon="9.605722"><ele>1184</ele></trkpt><trkpt lat="62.685924" lon="9.606776"><ele>1192</ele></trkpt><trkpt lat="62.685782" lon="9.607781"><ele>1197</ele></trkpt><trkpt lat="62.685373" lon="9.608835"><ele>1197</ele></trkpt><trkpt lat="62.684964" lon="9.609889"><ele>1197</ele></trkpt><trkpt lat="62.684554" lon="9.610942"><ele>1194</ele></trkpt><trkpt lat="62.684145" lon="9.611996"><ele>1189</ele></trkpt><trkpt lat="62.683736" lon="9.613050"><ele>1176</ele></trkpt><trkpt lat="62.683326" lon="9.614103"><ele>1169</ele></trkpt><trkpt lat="62.682917" lon="9.615157"><ele>1165</ele></trkpt><trkpt lat="62.682508" lon="9.616211"><ele>1163</ele></trkpt><trkpt lat="62.682098" lon="9.617264"><ele>1163</ele></trkpt><trkpt lat="62.681689" lon="9.618318"><ele>1170</ele></trkpt><trkpt lat="62.681279" lon="9.619372"><ele>1185</ele></trkpt><trkpt lat="62.681049" lon="9.620393"><ele>1210</ele></trkpt><trkpt lat="62.681086" lon="9.621365"><ele>1223</ele></trkpt><trkpt lat="62.681123" lon="9.622337"><ele>1232</ele></trkpt><trkpt lat="62.681161" lon="9.623309"><ele>1241</ele></trkpt><trkpt lat="62.681198" lon="9.624281"><ele>1249</ele></trkpt><trkpt lat="62.681146" lon="9.625270"><ele>1261</ele></trkpt><trkpt lat="62.681183" lon="9.626242"><ele>1259</ele></trkpt><trkpt lat="62.681221" lon="9.627214"><ele>1259</ele></trkpt><trkpt lat="62.681258" lon="9.628186"><ele>1261</ele></trkpt><trkpt lat="62.681295" lon="9.629158"><ele>1265</ele></trkpt><trkpt lat="62.681333" lon="9.630131"><ele>1270</ele></trkpt><trkpt lat="62.681370" lon="9.631103"><ele>1274</ele></trkpt><trkpt lat="62.681407" lon="9.632075"><ele>1279</ele></trkpt><trkpt lat="62.681445" lon="9.633047"><ele>1282</ele></trkpt><trkpt lat="62.681482" lon="9.634019"><ele>1283</ele></trkpt><trkpt lat="62.681519" lon="9.634992"><ele>1285</ele></trkpt><trkpt lat="62.681557" lon="9.635964"><ele>1288</ele></trkpt><trkpt lat="62.681594" lon="9.636936"><ele>1291</ele></trkpt><trkpt lat="62.681631" lon="9.637908"><ele>1294</ele></trkpt><trkpt lat="62.681668" lon="9.638881"><ele>1298</ele></trkpt><trkpt lat="62.681706" lon="9.639853"><ele>1300</ele></trkpt><trkpt lat="62.681743" lon="9.640825"><ele>1302</ele></trkpt><trkpt lat="62.681780" lon="9.641797"><ele>1302</ele></trkpt><trkpt lat="62.681817" lon="9.642770"><ele>1303</ele></trkpt><trkpt lat="62.681854" lon="9.643742"><ele>1304</ele></trkpt><trkpt lat="62.681892" lon="9.644714"><ele>1304</ele></trkpt><trkpt lat="62.681929" lon="9.645686"><ele>1304</ele></trkpt><trkpt lat="62.681966" lon="9.646658"><ele>1305</ele></trkpt><trkpt lat="62.682003" lon="9.647631"><ele>1308</ele></trkpt><trkpt lat="62.682041" lon="9.648603"><ele>1310</ele></trkpt><trkpt lat="62.682078" lon="9.649575"><ele>1313</ele></trkpt><trkpt lat="62.682115" lon="9.650548"><ele>1314</ele></trkpt><trkpt lat="62.682152" lon="9.651520"><ele>1318</ele></trkpt><trkpt lat="62.682189" lon="9.652492"><ele>1323</ele></trkpt><trkpt lat="62.682226" lon="9.653464"><ele>1333</ele></trkpt><trkpt lat="62.682264" lon="9.654437"><ele>1344</ele></trkpt><trkpt lat="62.682301" lon="9.655409"><ele>1352</ele></trkpt><trkpt lat="62.682338" lon="9.656381"><ele>1357</ele></trkpt><trkpt lat="62.682375" lon="9.657353"><ele>1366</ele></trkpt><trkpt lat="62.682412" lon="9.658326"><ele>1375</ele></trkpt><trkpt lat="62.682449" lon="9.659298"><ele>1384</ele></trkpt><trkpt lat="62.682486" lon="9.660270"><ele>1393</ele></trkpt><trkpt lat="62.682523" lon="9.661243"><ele>1404</ele></trkpt><trkpt lat="62.682560" lon="9.662215"><ele>1414</ele></trkpt><trkpt lat="62.682598" lon="9.663187"><ele>1422</ele></trkpt><trkpt lat="62.682635" lon="9.664159"><ele>1428</ele></trkpt><trkpt lat="62.682672" lon="9.665132"><ele>1434</ele></trkpt><trkpt lat="62.682709" lon="9.666104"><ele>1443</ele></trkpt><trkpt lat="62.682567" lon="9.667109"><ele>1462</ele></trkpt><trkpt lat="62.682604" lon="9.668081"><ele>1472</ele></trkpt><trkpt lat="62.682641" lon="9.669053"><ele>1481</ele></trkpt><trkpt lat="62.682678" lon="9.670025"><ele>1488</ele></trkpt><trkpt lat="62.682715" lon="9.670998"><ele>1493</ele></trkpt><trkpt lat="62.682752" lon="9.671970"><ele>1506</ele></trkpt><trkpt lat="62.682789" lon="9.672942"><ele>1521</ele></trkpt><trkpt lat="62.682826" lon="9.673915"><ele>1540</ele></trkpt><trkpt lat="62.682685" lon="9.674919"><ele>1556</ele></trkpt><trkpt lat="62.682603" lon="9.675130"><ele>1558</ele></trkpt></trkseg></trk><wpt lat="62.691407" lon="9.693716"><ele>1239</ele><name>Run end · Snofjellet 1558 m</name></wpt><trk><name>Down · Snofjellet 1558 m</name><desc>fall-line run: 323 m of 20–30°, 217 m drop, aspect 48°, max 28°, 0.0% ≥30°; ends 6.85 km from the car.</desc><trkseg><trkpt lat="62.682603" lon="9.675130"><ele>1558</ele></trkpt><trkpt lat="62.687135" lon="9.685475"><ele>1457</ele></trkpt><trkpt lat="62.687247" lon="9.686042"><ele>1445</ele></trkpt><trkpt lat="62.687448" lon="9.686594"><ele>1430</ele></trkpt><trkpt lat="62.687738" lon="9.687129"><ele>1414</ele></trkpt><trkpt lat="62.688028" lon="9.687664"><ele>1396</ele></trkpt><trkpt lat="62.688318" lon="9.688200"><ele>1378</ele></trkpt><trkpt lat="62.688609" lon="9.688735"><ele>1361</ele></trkpt><trkpt lat="62.688899" lon="9.689270"><ele>1342</ele></trkpt><trkpt lat="62.689189" lon="9.689806"><ele>1332</ele></trkpt><trkpt lat="62.689479" lon="9.690341"><ele>1319</ele></trkpt><trkpt lat="62.689770" lon="9.690876"><ele>1306</ele></trkpt><trkpt lat="62.690060" lon="9.691412"><ele>1291</ele></trkpt><trkpt lat="62.690350" lon="9.691947"><ele>1277</ele></trkpt><trkpt lat="62.690640" lon="9.692482"><ele>1266</ele></trkpt><trkpt lat="62.690931" lon="9.693018"><ele>1253</ele></trkpt><trkpt lat="62.691214" lon="9.693359"><ele>1246</ele></trkpt><trkpt lat="62.691407" lon="9.693716"><ele>1239</ele></trkpt></trkseg></trk></gpx>