<?xml version="1.0" encoding="UTF-8"?>
<gpx version="1.1" creator="Rando toppturs" xmlns="http://www.topografix.com/GPX/1/1"><metadata><name>113 Vesl-Nystugguhøa 1512 m</name><desc>This is an automatically generated list. I have not checked them all. Do not attempt these if you're a beginner. Generated 2026-09-13 17:42 from Kartverket 10 m terrain. Ascent lines are least-cost terrain paths under 35°, not verified routes. Not a snow-stability assessment.</desc></metadata><wpt lat="62.297892" lon="9.597511"><ele>901</ele><name>Car · Vesl-Nystugguhøa 1512 m</name></wpt><wpt lat="62.326027" lon="9.527821"><ele>1512</ele><name>Vesl-Nystugguhøa 1512 m</name></wpt><trk><name>Up · Vesl-Nystugguhøa 1512 m</name><desc>least-cost ascent: +638 m over 4875 m, max 25°, 0.0% on 30–35°, ≈2.81 h at 4 km/h + 400 m/h. Terrain possibility, not a checked route.</desc><trkseg><trkpt lat="62.297892" lon="9.597511"><ele>901</ele></trkpt><trkpt lat="62.298302" lon="9.596471"><ele>889</ele></trkpt><trkpt lat="62.298711" lon="9.595430"><ele>888</ele></trkpt><trkpt lat="62.299121" lon="9.594390"><ele>903</ele></trkpt><trkpt lat="62.299530" lon="9.593350"><ele>912</ele></trkpt><trkpt lat="62.299939" lon="9.592310"><ele>933</ele></trkpt><trkpt lat="62.300349" lon="9.591270"><ele>949</ele></trkpt><trkpt lat="62.300758" lon="9.590229"><ele>962</ele></trkpt><trkpt lat="62.301167" lon="9.589189"><ele>975</ele></trkpt><trkpt lat="62.301577" lon="9.588149"><ele>988</ele></trkpt><trkpt lat="62.301986" lon="9.587108"><ele>995</ele></trkpt><trkpt lat="62.302395" lon="9.586068"><ele>1003</ele></trkpt><trkpt lat="62.302805" lon="9.585027"><ele>1015</ele></trkpt><trkpt lat="62.303214" lon="9.583987"><ele>1035</ele></trkpt><trkpt lat="62.303623" lon="9.582946"><ele>1041</ele></trkpt><trkpt lat="62.304040" lon="9.582098"><ele>1057</ele></trkpt><trkpt lat="62.304479" lon="9.581825"><ele>1070</ele></trkpt><trkpt lat="62.304889" lon="9.580785"><ele>1077</ele></trkpt><trkpt lat="62.305298" lon="9.579744"><ele>1083</ele></trkpt><trkpt lat="62.305730" lon="9.579279"><ele>1088</ele></trkpt><trkpt lat="62.306146" lon="9.578431"><ele>1093</ele></trkpt><trkpt lat="62.306556" lon="9.577390"><ele>1095</ele></trkpt><trkpt lat="62.306965" lon="9.576349"><ele>1104</ele></trkpt><trkpt lat="62.307374" lon="9.575309"><ele>1117</ele></trkpt><trkpt lat="62.307783" lon="9.574268"><ele>1127</ele></trkpt><trkpt lat="62.308193" lon="9.573227"><ele>1142</ele></trkpt><trkpt lat="62.308602" lon="9.572186"><ele>1147</ele></trkpt><trkpt lat="62.309011" lon="9.571145"><ele>1149</ele></trkpt><trkpt lat="62.309420" lon="9.570105"><ele>1151</ele></trkpt><trkpt lat="62.309829" lon="9.569064"><ele>1153</ele></trkpt><trkpt lat="62.310239" lon="9.568023"><ele>1156</ele></trkpt><trkpt lat="62.310648" lon="9.566982"><ele>1160</ele></trkpt><trkpt lat="62.311057" lon="9.565941"><ele>1159</ele></trkpt><trkpt lat="62.311466" lon="9.564900"><ele>1158</ele></trkpt><trkpt lat="62.311875" lon="9.563859"><ele>1162</ele></trkpt><trkpt lat="62.312284" lon="9.562818"><ele>1169</ele></trkpt><trkpt lat="62.312693" lon="9.561777"><ele>1175</ele></trkpt><trkpt lat="62.313103" lon="9.560735"><ele>1176</ele></trkpt><trkpt lat="62.313512" lon="9.559694"><ele>1182</ele></trkpt><trkpt lat="62.313921" lon="9.558653"><ele>1194</ele></trkpt><trkpt lat="62.314330" lon="9.557612"><ele>1201</ele></trkpt><trkpt lat="62.314739" lon="9.556571"><ele>1215</ele></trkpt><trkpt lat="62.315148" lon="9.555529"><ele>1225</ele></trkpt><trkpt lat="62.315557" lon="9.554488"><ele>1236</ele></trkpt><trkpt lat="62.315966" lon="9.553447"><ele>1251</ele></trkpt><trkpt lat="62.316375" lon="9.552405"><ele>1262</ele></trkpt><trkpt lat="62.316784" lon="9.551364"><ele>1277</ele></trkpt><trkpt lat="62.317193" lon="9.550323"><ele>1288</ele></trkpt><trkpt lat="62.317602" lon="9.549281"><ele>1300</ele></trkpt><trkpt lat="62.318011" lon="9.548240"><ele>1313</ele></trkpt><trkpt lat="62.318420" lon="9.547198"><ele>1323</ele></trkpt><trkpt lat="62.318829" lon="9.546157"><ele>1335</ele></trkpt><trkpt lat="62.319238" lon="9.545115"><ele>1347</ele></trkpt><trkpt lat="62.319647" lon="9.544074"><ele>1353</ele></trkpt><trkpt lat="62.320056" lon="9.543032"><ele>1356</ele></trkpt><trkpt lat="62.320465" lon="9.541990"><ele>1363</ele></trkpt><trkpt lat="62.320874" lon="9.540949"><ele>1369</ele></trkpt><trkpt lat="62.321283" lon="9.539907"><ele>1377</ele></trkpt><trkpt lat="62.321692" lon="9.538865"><ele>1387</ele></trkpt><trkpt lat="62.322101" lon="9.537824"><ele>1397</ele></trkpt><trkpt lat="62.322510" lon="9.536782"><ele>1408</ele></trkpt><trkpt lat="62.322919" lon="9.535740"><ele>1420</ele></trkpt><trkpt lat="62.323328" lon="9.534698"><ele>1431</ele></trkpt><trkpt lat="62.323737" lon="9.533656"><ele>1440</ele></trkpt><trkpt lat="62.324146" lon="9.532614"><ele>1454</ele></trkpt><trkpt lat="62.324555" lon="9.531572"><ele>1473</ele></trkpt><trkpt lat="62.324963" lon="9.530531"><ele>1488</ele></trkpt><trkpt lat="62.325372" lon="9.529489"><ele>1502</ele></trkpt><trkpt lat="62.325781" lon="9.528447"><ele>1511</ele></trkpt><trkpt lat="62.326027" lon="9.527821"><ele>1512</ele></trkpt></trkseg></trk><wpt lat="62.336836" lon="9.523526"><ele>1249</ele><name>Run end · Vesl-Nystugguhøa 1512 m</name></wpt><trk><name>Down · Vesl-Nystugguhøa 1512 m</name><desc>fall-line run: 317 m of 20–30°, 224 m drop, aspect 346°, max 27°, 0.0% ≥30°; ends 5.8 km from the car.</desc><trkseg><trkpt lat="62.326027" lon="9.527821"><ele>1512</ele></trkpt><trkpt lat="62.330353" lon="9.528000"><ele>1473</ele></trkpt><trkpt lat="62.330599" lon="9.527374"><ele>1453</ele></trkpt><trkpt lat="62.330844" lon="9.526749"><ele>1437</ele></trkpt><trkpt lat="62.331089" lon="9.526124"><ele>1427</ele></trkpt><trkpt lat="62.331335" lon="9.525498"><ele>1420</ele></trkpt><trkpt lat="62.331587" lon="9.525065"><ele>1416</ele></trkpt><trkpt lat="62.331863" lon="9.525208"><ele>1413</ele></trkpt><trkpt lat="62.332154" lon="9.525736"><ele>1411</ele></trkpt><trkpt lat="62.332437" lon="9.526071"><ele>1408</ele></trkpt><trkpt lat="62.332705" lon="9.526022"><ele>1405</ele></trkpt><trkpt lat="62.332973" lon="9.525973"><ele>1401</ele></trkpt><trkpt lat="62.333241" lon="9.525924"><ele>1397</ele></trkpt><trkpt lat="62.333509" lon="9.525875"><ele>1389</ele></trkpt><trkpt lat="62.333777" lon="9.525826"><ele>1381</ele></trkpt><trkpt lat="62.334045" lon="9.525778"><ele>1370</ele></trkpt><trkpt lat="62.334314" lon="9.525729"><ele>1363</ele></trkpt><trkpt lat="62.334582" lon="9.525680"><ele>1356</ele></trkpt><trkpt lat="62.334850" lon="9.525631"><ele>1349</ele></trkpt><trkpt lat="62.335118" lon="9.525582"><ele>1339</ele></trkpt><trkpt lat="62.335378" lon="9.525341"><ele>1327</ele></trkpt><trkpt lat="62.335623" lon="9.524715"><ele>1312</ele></trkpt><trkpt lat="62.335884" lon="9.524474"><ele>1298</ele></trkpt><trkpt lat="62.336137" lon="9.524041"><ele>1282</ele></trkpt><trkpt lat="62.336397" lon="9.523800"><ele>1268</ele></trkpt><trkpt lat="62.336665" lon="9.523751"><ele>1258</ele></trkpt><trkpt lat="62.336836" lon="9.523526"><ele>1249</ele></trkpt></trkseg></trk></gpx>