<?xml version="1.0" encoding="UTF-8"?>
<gpx version="1.1" creator="Rando toppturs" xmlns="http://www.topografix.com/GPX/1/1"><metadata><name>115 Unnamed 1622 m</name><desc>This is an automatically generated list. I have not checked them all. Do not attempt these if you're a beginner. Generated 2026-09-13 17:42 from Kartverket 10 m terrain. Ascent lines are least-cost terrain paths under 35°, not verified routes. Not a snow-stability assessment.</desc></metadata><wpt lat="62.536162" lon="8.959007"><ele>752</ele><name>Car · Unnamed summit 1622 m</name></wpt><wpt lat="62.514333" lon="8.798409"><ele>1622</ele><name>Unnamed summit 1622 m</name></wpt><trk><name>Up · Unnamed summit 1622 m</name><desc>least-cost ascent: +1094 m over 9275 m, max 25°, 0.0% on 30–35°, ≈5.05 h at 4 km/h + 400 m/h. Terrain possibility, not a checked route.</desc><trkseg><trkpt lat="62.536162" lon="8.959007"><ele>752</ele></trkpt><trkpt lat="62.535674" lon="8.958132"><ele>757</ele></trkpt><trkpt lat="62.535186" lon="8.957256"><ele>771</ele></trkpt><trkpt lat="62.534697" lon="8.956381"><ele>791</ele></trkpt><trkpt lat="62.534209" lon="8.955505"><ele>809</ele></trkpt><trkpt lat="62.533721" lon="8.954630"><ele>825</ele></trkpt><trkpt lat="62.533233" lon="8.953754"><ele>846</ele></trkpt><trkpt lat="62.532744" lon="8.952879"><ele>870</ele></trkpt><trkpt lat="62.532256" lon="8.952003"><ele>894</ele></trkpt><trkpt lat="62.531857" lon="8.951110"><ele>915</ele></trkpt><trkpt lat="62.531547" lon="8.950198"><ele>938</ele></trkpt><trkpt lat="62.531059" lon="8.949323"><ele>955</ele></trkpt><trkpt lat="62.530928" lon="8.948375"><ele>970</ele></trkpt><trkpt lat="62.530797" lon="8.947427"><ele>982</ele></trkpt><trkpt lat="62.530755" lon="8.946461"><ele>993</ele></trkpt><trkpt lat="62.530534" lon="8.945531"><ele>1002</ele></trkpt><trkpt lat="62.530403" lon="8.944583"><ele>1012</ele></trkpt><trkpt lat="62.530272" lon="8.943635"><ele>1021</ele></trkpt><trkpt lat="62.529962" lon="8.942724"><ele>1025</ele></trkpt><trkpt lat="62.529741" lon="8.941794"><ele>1032</ele></trkpt><trkpt lat="62.529521" lon="8.940864"><ele>1038</ele></trkpt><trkpt lat="62.529479" lon="8.939898"><ele>1047</ele></trkpt><trkpt lat="62.529437" lon="8.938932"><ele>1059</ele></trkpt><trkpt lat="62.529395" lon="8.937966"><ele>1070</ele></trkpt><trkpt lat="62.529263" lon="8.937018"><ele>1075</ele></trkpt><trkpt lat="62.529221" lon="8.936052"><ele>1084</ele></trkpt><trkpt lat="62.529179" lon="8.935086"><ele>1093</ele></trkpt><trkpt lat="62.529137" lon="8.934120"><ele>1098</ele></trkpt><trkpt lat="62.529006" lon="8.933172"><ele>1101</ele></trkpt><trkpt lat="62.528964" lon="8.932206"><ele>1108</ele></trkpt><trkpt lat="62.528922" lon="8.931240"><ele>1112</ele></trkpt><trkpt lat="62.528790" lon="8.930292"><ele>1117</ele></trkpt><trkpt lat="62.528302" lon="8.929417"><ele>1110</ele></trkpt><trkpt lat="62.528081" lon="8.928488"><ele>1113</ele></trkpt><trkpt lat="62.527861" lon="8.927558"><ele>1115</ele></trkpt><trkpt lat="62.527640" lon="8.926629"><ele>1119</ele></trkpt><trkpt lat="62.527598" lon="8.925663"><ele>1128</ele></trkpt><trkpt lat="62.527466" lon="8.924715"><ele>1133</ele></trkpt><trkpt lat="62.527424" lon="8.923749"><ele>1139</ele></trkpt><trkpt lat="62.527382" lon="8.922783"><ele>1144</ele></trkpt><trkpt lat="62.527340" lon="8.921817"><ele>1147</ele></trkpt><trkpt lat="62.527298" lon="8.920851"><ele>1152</ele></trkpt><trkpt lat="62.527256" lon="8.919885"><ele>1155</ele></trkpt><trkpt lat="62.527213" lon="8.918919"><ele>1162</ele></trkpt><trkpt lat="62.527171" lon="8.917953"><ele>1170</ele></trkpt><trkpt lat="62.527129" lon="8.916987"><ele>1176</ele></trkpt><trkpt lat="62.527087" lon="8.916021"><ele>1181</ele></trkpt><trkpt lat="62.527045" lon="8.915055"><ele>1187</ele></trkpt><trkpt lat="62.527002" lon="8.914089"><ele>1192</ele></trkpt><trkpt lat="62.526960" lon="8.913123"><ele>1198</ele></trkpt><trkpt lat="62.526918" lon="8.912157"><ele>1202</ele></trkpt><trkpt lat="62.526876" lon="8.911191"><ele>1204</ele></trkpt><trkpt lat="62.526834" lon="8.910225"><ele>1211</ele></trkpt><trkpt lat="62.526791" lon="8.909259"><ele>1217</ele></trkpt><trkpt lat="62.526749" lon="8.908293"><ele>1221</ele></trkpt><trkpt lat="62.526707" lon="8.907327"><ele>1226</ele></trkpt><trkpt lat="62.526665" lon="8.906362"><ele>1230</ele></trkpt><trkpt lat="62.526622" lon="8.905396"><ele>1233</ele></trkpt><trkpt lat="62.526580" lon="8.904430"><ele>1234</ele></trkpt><trkpt lat="62.526538" lon="8.903464"><ele>1238</ele></trkpt><trkpt lat="62.526495" lon="8.902498"><ele>1246</ele></trkpt><trkpt lat="62.526453" lon="8.901532"><ele>1253</ele></trkpt><trkpt lat="62.526411" lon="8.900566"><ele>1258</ele></trkpt><trkpt lat="62.526368" lon="8.899600"><ele>1263</ele></trkpt><trkpt lat="62.526326" lon="8.898634"><ele>1265</ele></trkpt><trkpt lat="62.526284" lon="8.897668"><ele>1270</ele></trkpt><trkpt lat="62.526242" lon="8.896702"><ele>1272</ele></trkpt><trkpt lat="62.526110" lon="8.895755"><ele>1281</ele></trkpt><trkpt lat="62.525978" lon="8.894807"><ele>1289</ele></trkpt><trkpt lat="62.525936" lon="8.893841"><ele>1293</ele></trkpt><trkpt lat="62.525715" lon="8.892912"><ele>1304</ele></trkpt><trkpt lat="62.525494" lon="8.891983"><ele>1318</ele></trkpt><trkpt lat="62.525452" lon="8.891017"><ele>1326</ele></trkpt><trkpt lat="62.525410" lon="8.890051"><ele>1336</ele></trkpt><trkpt lat="62.525367" lon="8.889085"><ele>1345</ele></trkpt><trkpt lat="62.525325" lon="8.888120"><ele>1356</ele></trkpt><trkpt lat="62.525282" lon="8.887154"><ele>1364</ele></trkpt><trkpt lat="62.525240" lon="8.886188"><ele>1374</ele></trkpt><trkpt lat="62.525198" lon="8.885222"><ele>1384</ele></trkpt><trkpt lat="62.525155" lon="8.884256"><ele>1395</ele></trkpt><trkpt lat="62.525113" lon="8.883290"><ele>1407</ele></trkpt><trkpt lat="62.525070" lon="8.882324"><ele>1416</ele></trkpt><trkpt lat="62.525028" lon="8.881359"><ele>1425</ele></trkpt><trkpt lat="62.524985" lon="8.880393"><ele>1434</ele></trkpt><trkpt lat="62.524943" lon="8.879427"><ele>1443</ele></trkpt><trkpt lat="62.524900" lon="8.878461"><ele>1449</ele></trkpt><trkpt lat="62.524858" lon="8.877495"><ele>1454</ele></trkpt><trkpt lat="62.524816" lon="8.876529"><ele>1458</ele></trkpt><trkpt lat="62.524773" lon="8.875564"><ele>1463</ele></trkpt><trkpt lat="62.524731" lon="8.874598"><ele>1468</ele></trkpt><trkpt lat="62.524688" lon="8.873632"><ele>1475</ele></trkpt><trkpt lat="62.524646" lon="8.872666"><ele>1483</ele></trkpt><trkpt lat="62.524603" lon="8.871700"><ele>1492</ele></trkpt><trkpt lat="62.524561" lon="8.870735"><ele>1501</ele></trkpt><trkpt lat="62.524518" lon="8.869769"><ele>1514</ele></trkpt><trkpt lat="62.524476" lon="8.868803"><ele>1524</ele></trkpt><trkpt lat="62.524433" lon="8.867837"><ele>1534</ele></trkpt><trkpt lat="62.524390" lon="8.866871"><ele>1543</ele></trkpt><trkpt lat="62.524348" lon="8.865906"><ele>1552</ele></trkpt><trkpt lat="62.524305" lon="8.864940"><ele>1559</ele></trkpt><trkpt lat="62.524263" lon="8.863974"><ele>1564</ele></trkpt><trkpt lat="62.524220" lon="8.863008"><ele>1564</ele></trkpt><trkpt lat="62.524178" lon="8.862043"><ele>1565</ele></trkpt><trkpt lat="62.524135" lon="8.861077"><ele>1569</ele></trkpt><trkpt lat="62.524092" lon="8.860111"><ele>1573</ele></trkpt><trkpt lat="62.524050" lon="8.859145"><ele>1577</ele></trkpt><trkpt lat="62.524007" lon="8.858180"><ele>1579</ele></trkpt><trkpt lat="62.523965" lon="8.857214"><ele>1582</ele></trkpt><trkpt lat="62.523922" lon="8.856248"><ele>1584</ele></trkpt><trkpt lat="62.523879" lon="8.855282"><ele>1588</ele></trkpt><trkpt lat="62.523748" lon="8.854335"><ele>1591</ele></trkpt><trkpt lat="62.523526" lon="8.853406"><ele>1598</ele></trkpt><trkpt lat="62.523484" lon="8.852440"><ele>1599</ele></trkpt><trkpt lat="62.523441" lon="8.851475"><ele>1601</ele></trkpt><trkpt lat="62.523399" lon="8.850509"><ele>1603</ele></trkpt><trkpt lat="62.523267" lon="8.849562"><ele>1604</ele></trkpt><trkpt lat="62.523135" lon="8.848614"><ele>1605</ele></trkpt><trkpt lat="62.522735" lon="8.847723"><ele>1614</ele></trkpt><trkpt lat="62.522246" lon="8.846849"><ele>1626</ele></trkpt><trkpt lat="62.521936" lon="8.845939"><ele>1633</ele></trkpt><trkpt lat="62.521715" lon="8.845010"><ele>1632</ele></trkpt><trkpt lat="62.521583" lon="8.844063"><ele>1625</ele></trkpt><trkpt lat="62.521451" lon="8.843116"><ele>1621</ele></trkpt><trkpt lat="62.521230" lon="8.842187"><ele>1617</ele></trkpt><trkpt lat="62.521098" lon="8.841240"><ele>1613</ele></trkpt><trkpt lat="62.520966" lon="8.840293"><ele>1608</ele></trkpt><trkpt lat="62.520923" lon="8.839327"><ele>1600</ele></trkpt><trkpt lat="62.520880" lon="8.838362"><ele>1592</ele></trkpt><trkpt lat="62.520837" lon="8.837396"><ele>1583</ele></trkpt><trkpt lat="62.520616" lon="8.836467"><ele>1568</ele></trkpt><trkpt lat="62.520484" lon="8.835520"><ele>1554</ele></trkpt><trkpt lat="62.520442" lon="8.834555"><ele>1542</ele></trkpt><trkpt lat="62.520399" lon="8.833589"><ele>1534</ele></trkpt><trkpt lat="62.520356" lon="8.832624"><ele>1527</ele></trkpt><trkpt lat="62.520313" lon="8.831658"><ele>1522</ele></trkpt><trkpt lat="62.520270" lon="8.830692"><ele>1522</ele></trkpt><trkpt lat="62.520228" lon="8.829727"><ele>1520</ele></trkpt><trkpt lat="62.520185" lon="8.828761"><ele>1516</ele></trkpt><trkpt lat="62.520142" lon="8.827796"><ele>1512</ele></trkpt><trkpt lat="62.520099" lon="8.826830"><ele>1506</ele></trkpt><trkpt lat="62.520056" lon="8.825865"><ele>1503</ele></trkpt><trkpt lat="62.520014" lon="8.824899"><ele>1498</ele></trkpt><trkpt lat="62.519971" lon="8.823933"><ele>1489</ele></trkpt><trkpt lat="62.519928" lon="8.822968"><ele>1479</ele></trkpt><trkpt lat="62.519796" lon="8.822021"><ele>1473</ele></trkpt><trkpt lat="62.519396" lon="8.821129"><ele>1459</ele></trkpt><trkpt lat="62.519353" lon="8.820164"><ele>1451</ele></trkpt><trkpt lat="62.519310" lon="8.819198"><ele>1446</ele></trkpt><trkpt lat="62.518821" lon="8.818326"><ele>1454</ele></trkpt><trkpt lat="62.518332" lon="8.817453"><ele>1473</ele></trkpt><trkpt lat="62.518111" lon="8.816524"><ele>1482</ele></trkpt><trkpt lat="62.517800" lon="8.815615"><ele>1494</ele></trkpt><trkpt lat="62.517668" lon="8.814668"><ele>1501</ele></trkpt><trkpt lat="62.517625" lon="8.813702"><ele>1506</ele></trkpt><trkpt lat="62.517493" lon="8.812755"><ele>1512</ele></trkpt><trkpt lat="62.517450" lon="8.811790"><ele>1511</ele></trkpt><trkpt lat="62.517407" lon="8.810824"><ele>1514</ele></trkpt><trkpt lat="62.517364" lon="8.809859"><ele>1522</ele></trkpt><trkpt lat="62.517321" lon="8.808894"><ele>1531</ele></trkpt><trkpt lat="62.517278" lon="8.807928"><ele>1538</ele></trkpt><trkpt lat="62.517235" lon="8.806963"><ele>1545</ele></trkpt><trkpt lat="62.517192" lon="8.805997"><ele>1548</ele></trkpt><trkpt lat="62.517150" lon="8.805032"><ele>1550</ele></trkpt><trkpt lat="62.516928" lon="8.804104"><ele>1556</ele></trkpt><trkpt lat="62.516439" lon="8.803231"><ele>1572</ele></trkpt><trkpt lat="62.515950" lon="8.802359"><ele>1583</ele></trkpt><trkpt lat="62.515461" lon="8.801486"><ele>1593</ele></trkpt><trkpt lat="62.514971" lon="8.800614"><ele>1605</ele></trkpt><trkpt lat="62.514661" lon="8.799704"><ele>1617</ele></trkpt><trkpt lat="62.514529" lon="8.798758"><ele>1617</ele></trkpt><trkpt lat="62.514333" lon="8.798409"><ele>1622</ele></trkpt></trkseg></trk><wpt lat="62.509498" lon="8.809158"><ele>1394</ele><name>Run end · Unnamed summit 1622 m</name></wpt><trk><name>Down · Unnamed summit 1622 m</name><desc>fall-line run: 310 m of 20–30°, 121 m drop, aspect 212°, max 28°, 0.0% ≥30°; ends 8.28 km from the car.</desc><trkseg><trkpt lat="62.514333" lon="8.798409"><ele>1622</ele></trkpt><trkpt lat="62.511356" lon="8.812474"><ele>1515</ele></trkpt><trkpt lat="62.511063" lon="8.811950"><ele>1498</ele></trkpt><trkpt lat="62.510769" lon="8.811427"><ele>1480</ele></trkpt><trkpt lat="62.510476" lon="8.810903"><ele>1460</ele></trkpt><trkpt lat="62.510182" lon="8.810380"><ele>1440</ele></trkpt><trkpt lat="62.509889" lon="8.809856"><ele>1420</ele></trkpt><trkpt lat="62.509596" lon="8.809333"><ele>1399</ele></trkpt><trkpt lat="62.509498" lon="8.809158"><ele>1394</ele></trkpt></trkseg></trk></gpx>