<?xml version="1.0" encoding="UTF-8"?>
<gpx version="1.1" creator="Rando toppturs" xmlns="http://www.topografix.com/GPX/1/1"><metadata><name>116 Indre Gjevillvasskamben 1601 m</name><desc>This is an automatically generated list. I have not checked them all. Do not attempt these if you're a beginner. Generated 2026-09-13 17:42 from Kartverket 10 m terrain. Ascent lines are least-cost terrain paths under 35°, not verified routes. Not a snow-stability assessment.</desc></metadata><wpt lat="62.691923" lon="9.123331"><ele>702</ele><name>Car · Indre Gjevillvasskamben 1601 m</name></wpt><wpt lat="62.728722" lon="9.228810"><ele>1601</ele><name>Indre Gjevillvasskamben 1601 m</name></wpt><trk><name>Up · Indre Gjevillvasskamben 1601 m</name><desc>least-cost ascent: +1135 m over 8497 m, max 32°, 0.4% on 30–35°, ≈4.96 h at 4 km/h + 400 m/h. Terrain possibility, not a checked route.</desc><trkseg><trkpt lat="62.691923" lon="9.123331"><ele>702</ele></trkpt><trkpt lat="62.691963" lon="9.124302"><ele>708</ele></trkpt><trkpt lat="62.692183" lon="9.125239"><ele>718</ele></trkpt><trkpt lat="62.692224" lon="9.126210"><ele>726</ele></trkpt><trkpt lat="62.692354" lon="9.127164"><ele>733</ele></trkpt><trkpt lat="62.692573" lon="9.128100"><ele>750</ele></trkpt><trkpt lat="62.692703" lon="9.129054"><ele>762</ele></trkpt><trkpt lat="62.692833" lon="9.130008"><ele>772</ele></trkpt><trkpt lat="62.692874" lon="9.130980"><ele>779</ele></trkpt><trkpt lat="62.693093" lon="9.131916"><ele>795</ele></trkpt><trkpt lat="62.693491" lon="9.132817"><ele>816</ele></trkpt><trkpt lat="62.693889" lon="9.133718"><ele>830</ele></trkpt><trkpt lat="62.693930" lon="9.134690"><ele>837</ele></trkpt><trkpt lat="62.693971" lon="9.135662"><ele>843</ele></trkpt><trkpt lat="62.694279" lon="9.136580"><ele>854</ele></trkpt><trkpt lat="62.694766" lon="9.137463"><ele>866</ele></trkpt><trkpt lat="62.695254" lon="9.138346"><ele>874</ele></trkpt><trkpt lat="62.695741" lon="9.139230"><ele>881</ele></trkpt><trkpt lat="62.696228" lon="9.140113"><ele>882</ele></trkpt><trkpt lat="62.696715" lon="9.140996"><ele>888</ele></trkpt><trkpt lat="62.697113" lon="9.141897"><ele>891</ele></trkpt><trkpt lat="62.697511" lon="9.142798"><ele>890</ele></trkpt><trkpt lat="62.697730" lon="9.143735"><ele>893</ele></trkpt><trkpt lat="62.698128" lon="9.144636"><ele>899</ele></trkpt><trkpt lat="62.698615" lon="9.145519"><ele>902</ele></trkpt><trkpt lat="62.699102" lon="9.146403"><ele>905</ele></trkpt><trkpt lat="62.699565" lon="9.146703"><ele>917</ele></trkpt><trkpt lat="62.700019" lon="9.146809"><ele>926</ele></trkpt><trkpt lat="62.700474" lon="9.146914"><ele>934</ele></trkpt><trkpt lat="62.700937" lon="9.147215"><ele>938</ele></trkpt><trkpt lat="62.701391" lon="9.147321"><ele>942</ele></trkpt><trkpt lat="62.701838" lon="9.147232"><ele>949</ele></trkpt><trkpt lat="62.702300" lon="9.147532"><ele>950</ele></trkpt><trkpt lat="62.702755" lon="9.147638"><ele>951</ele></trkpt><trkpt lat="62.703201" lon="9.147550"><ele>953</ele></trkpt><trkpt lat="62.703656" lon="9.147656"><ele>954</ele></trkpt><trkpt lat="62.704119" lon="9.147956"><ele>959</ele></trkpt><trkpt lat="62.704606" lon="9.148839"><ele>960</ele></trkpt><trkpt lat="62.705093" lon="9.149723"><ele>964</ele></trkpt><trkpt lat="62.705580" lon="9.150607"><ele>972</ele></trkpt><trkpt lat="62.706067" lon="9.151490"><ele>979</ele></trkpt><trkpt lat="62.706554" lon="9.152374"><ele>979</ele></trkpt><trkpt lat="62.707041" lon="9.153258"><ele>975</ele></trkpt><trkpt lat="62.707528" lon="9.154142"><ele>972</ele></trkpt><trkpt lat="62.708015" lon="9.155026"><ele>969</ele></trkpt><trkpt lat="62.708502" lon="9.155909"><ele>962</ele></trkpt><trkpt lat="62.708981" lon="9.156599"><ele>953</ele></trkpt><trkpt lat="62.709444" lon="9.156899"><ele>948</ele></trkpt><trkpt lat="62.709915" lon="9.157394"><ele>933</ele></trkpt><trkpt lat="62.710402" lon="9.158278"><ele>913</ele></trkpt><trkpt lat="62.710873" lon="9.158773"><ele>895</ele></trkpt><trkpt lat="62.711319" lon="9.158685"><ele>887</ele></trkpt><trkpt lat="62.711774" lon="9.158791"><ele>876</ele></trkpt><trkpt lat="62.712261" lon="9.159675"><ele>854</ele></trkpt><trkpt lat="62.712724" lon="9.159976"><ele>843</ele></trkpt><trkpt lat="62.713211" lon="9.160860"><ele>829</ele></trkpt><trkpt lat="62.713698" lon="9.161744"><ele>813</ele></trkpt><trkpt lat="62.714185" lon="9.162628"><ele>801</ele></trkpt><trkpt lat="62.714672" lon="9.163512"><ele>799</ele></trkpt><trkpt lat="62.715159" lon="9.164396"><ele>803</ele></trkpt><trkpt lat="62.715646" lon="9.165280"><ele>807</ele></trkpt><trkpt lat="62.716133" lon="9.166165"><ele>799</ele></trkpt><trkpt lat="62.716620" lon="9.167049"><ele>795</ele></trkpt><trkpt lat="62.717107" lon="9.167933"><ele>792</ele></trkpt><trkpt lat="62.717577" lon="9.168428"><ele>787</ele></trkpt><trkpt lat="62.718064" lon="9.169313"><ele>793</ele></trkpt><trkpt lat="62.718551" lon="9.170197"><ele>805</ele></trkpt><trkpt lat="62.719038" lon="9.171082"><ele>821</ele></trkpt><trkpt lat="62.719525" lon="9.171966"><ele>837</ele></trkpt><trkpt lat="62.720012" lon="9.172851"><ele>852</ele></trkpt><trkpt lat="62.720467" lon="9.172957"><ele>869</ele></trkpt><trkpt lat="62.720913" lon="9.172869"><ele>884</ele></trkpt><trkpt lat="62.721368" lon="9.172975"><ele>897</ele></trkpt><trkpt lat="62.721814" lon="9.172887"><ele>909</ele></trkpt><trkpt lat="62.722261" lon="9.172798"><ele>915</ele></trkpt><trkpt lat="62.722707" lon="9.172710"><ele>915</ele></trkpt><trkpt lat="62.723154" lon="9.172622"><ele>917</ele></trkpt><trkpt lat="62.723600" lon="9.172534"><ele>924</ele></trkpt><trkpt lat="62.724047" lon="9.172445"><ele>930</ele></trkpt><trkpt lat="62.724493" lon="9.172357"><ele>929</ele></trkpt><trkpt lat="62.724940" lon="9.172269"><ele>928</ele></trkpt><trkpt lat="62.725386" lon="9.172181"><ele>929</ele></trkpt><trkpt lat="62.725832" lon="9.172092"><ele>929</ele></trkpt><trkpt lat="62.726279" lon="9.172004"><ele>937</ele></trkpt><trkpt lat="62.726725" lon="9.171916"><ele>947</ele></trkpt><trkpt lat="62.727180" lon="9.172022"><ele>949</ele></trkpt><trkpt lat="62.727667" lon="9.172907"><ele>957</ele></trkpt><trkpt lat="62.728154" lon="9.173792"><ele>970</ele></trkpt><trkpt lat="62.728641" lon="9.174676"><ele>989</ele></trkpt><trkpt lat="62.729128" lon="9.175561"><ele>1010</ele></trkpt><trkpt lat="62.729436" lon="9.176481"><ele>1033</ele></trkpt><trkpt lat="62.729477" lon="9.177454"><ele>1056</ele></trkpt><trkpt lat="62.729428" lon="9.178445"><ele>1083</ele></trkpt><trkpt lat="62.729379" lon="9.179436"><ele>1114</ele></trkpt><trkpt lat="62.729419" lon="9.180409"><ele>1141</ele></trkpt><trkpt lat="62.729460" lon="9.181382"><ele>1164</ele></trkpt><trkpt lat="62.729500" lon="9.182355"><ele>1185</ele></trkpt><trkpt lat="62.729541" lon="9.183328"><ele>1198</ele></trkpt><trkpt lat="62.729581" lon="9.184301"><ele>1207</ele></trkpt><trkpt lat="62.729622" lon="9.185274"><ele>1210</ele></trkpt><trkpt lat="62.729662" lon="9.186247"><ele>1214</ele></trkpt><trkpt lat="62.729702" lon="9.187220"><ele>1220</ele></trkpt><trkpt lat="62.729743" lon="9.188193"><ele>1224</ele></trkpt><trkpt lat="62.729783" lon="9.189166"><ele>1229</ele></trkpt><trkpt lat="62.729824" lon="9.190139"><ele>1237</ele></trkpt><trkpt lat="62.729864" lon="9.191112"><ele>1245</ele></trkpt><trkpt lat="62.729904" lon="9.192085"><ele>1255</ele></trkpt><trkpt lat="62.729945" lon="9.193058"><ele>1266</ele></trkpt><trkpt lat="62.729985" lon="9.194031"><ele>1276</ele></trkpt><trkpt lat="62.730025" lon="9.195004"><ele>1285</ele></trkpt><trkpt lat="62.730066" lon="9.195978"><ele>1292</ele></trkpt><trkpt lat="62.730106" lon="9.196951"><ele>1299</ele></trkpt><trkpt lat="62.730146" lon="9.197924"><ele>1307</ele></trkpt><trkpt lat="62.730187" lon="9.198897"><ele>1318</ele></trkpt><trkpt lat="62.730227" lon="9.199870"><ele>1327</ele></trkpt><trkpt lat="62.730267" lon="9.200843"><ele>1334</ele></trkpt><trkpt lat="62.730308" lon="9.201816"><ele>1338</ele></trkpt><trkpt lat="62.730348" lon="9.202789"><ele>1342</ele></trkpt><trkpt lat="62.730388" lon="9.203762"><ele>1343</ele></trkpt><trkpt lat="62.730428" lon="9.204735"><ele>1340</ele></trkpt><trkpt lat="62.730469" lon="9.205709"><ele>1337</ele></trkpt><trkpt lat="62.730330" lon="9.206717"><ele>1345</ele></trkpt><trkpt lat="62.730281" lon="9.207707"><ele>1359</ele></trkpt><trkpt lat="62.729875" lon="9.208768"><ele>1382</ele></trkpt><trkpt lat="62.729826" lon="9.209759"><ele>1394</ele></trkpt><trkpt lat="62.729777" lon="9.210750"><ele>1407</ele></trkpt><trkpt lat="62.729817" lon="9.211723"><ele>1419</ele></trkpt><trkpt lat="62.729858" lon="9.212696"><ele>1431</ele></trkpt><trkpt lat="62.729898" lon="9.213669"><ele>1444</ele></trkpt><trkpt lat="62.729938" lon="9.214642"><ele>1457</ele></trkpt><trkpt lat="62.729978" lon="9.215615"><ele>1469</ele></trkpt><trkpt lat="62.730018" lon="9.216588"><ele>1482</ele></trkpt><trkpt lat="62.730059" lon="9.217561"><ele>1498</ele></trkpt><trkpt lat="62.730099" lon="9.218534"><ele>1513</ele></trkpt><trkpt lat="62.730139" lon="9.219508"><ele>1527</ele></trkpt><trkpt lat="62.730179" lon="9.220481"><ele>1540</ele></trkpt><trkpt lat="62.730219" lon="9.221454"><ele>1551</ele></trkpt><trkpt lat="62.730259" lon="9.222427"><ele>1561</ele></trkpt><trkpt lat="62.730300" lon="9.223400"><ele>1569</ele></trkpt><trkpt lat="62.730340" lon="9.224373"><ele>1576</ele></trkpt><trkpt lat="62.730023" lon="9.225416"><ele>1585</ele></trkpt><trkpt lat="62.729616" lon="9.226477"><ele>1594</ele></trkpt><trkpt lat="62.729210" lon="9.227537"><ele>1598</ele></trkpt><trkpt lat="62.728804" lon="9.228598"><ele>1601</ele></trkpt><trkpt lat="62.728722" lon="9.228810"><ele>1601</ele></trkpt></trkseg></trk><wpt lat="62.742624" lon="9.218824"><ele>1248</ele><name>Run end · Indre Gjevillvasskamben 1601 m</name></wpt><trk><name>Down · Indre Gjevillvasskamben 1601 m</name><desc>fall-line run: 310 m of 20–30°, 281 m drop, aspect 344°, max 30°, 0.0% ≥30°; ends 7.48 km from the car.</desc><trkseg><trkpt lat="62.728722" lon="9.228810"><ele>1601</ele></trkpt><trkpt lat="62.733805" lon="9.225460"><ele>1529</ele></trkpt><trkpt lat="62.734073" lon="9.225408"><ele>1516</ele></trkpt><trkpt lat="62.734341" lon="9.225355"><ele>1503</ele></trkpt><trkpt lat="62.734609" lon="9.225303"><ele>1487</ele></trkpt><trkpt lat="62.734877" lon="9.225250"><ele>1474</ele></trkpt><trkpt lat="62.735145" lon="9.225198"><ele>1466</ele></trkpt><trkpt lat="62.735413" lon="9.225145"><ele>1460</ele></trkpt><trkpt lat="62.735673" lon="9.224898"><ele>1455</ele></trkpt><trkpt lat="62.735916" lon="9.224261"><ele>1448</ele></trkpt><trkpt lat="62.736160" lon="9.223625"><ele>1440</ele></trkpt><trkpt lat="62.736404" lon="9.222988"><ele>1433</ele></trkpt><trkpt lat="62.736648" lon="9.222352"><ele>1424</ele></trkpt><trkpt lat="62.736892" lon="9.221715"><ele>1416</ele></trkpt><trkpt lat="62.737046" lon="9.221096"><ele>1412</ele></trkpt><trkpt lat="62.737298" lon="9.220654"><ele>1410</ele></trkpt><trkpt lat="62.737574" lon="9.220797"><ele>1406</ele></trkpt><trkpt lat="62.737858" lon="9.221133"><ele>1400</ele></trkpt><trkpt lat="62.738126" lon="9.221081"><ele>1397</ele></trkpt><trkpt lat="62.738370" lon="9.220444"><ele>1393</ele></trkpt><trkpt lat="62.738621" lon="9.220002"><ele>1388</ele></trkpt><trkpt lat="62.738889" lon="9.219950"><ele>1380</ele></trkpt><trkpt lat="62.739157" lon="9.219897"><ele>1371</ele></trkpt><trkpt lat="62.739425" lon="9.219845"><ele>1365</ele></trkpt><trkpt lat="62.739685" lon="9.219597"><ele>1357</ele></trkpt><trkpt lat="62.739953" lon="9.219545"><ele>1349</ele></trkpt><trkpt lat="62.740221" lon="9.219492"><ele>1341</ele></trkpt><trkpt lat="62.740489" lon="9.219440"><ele>1336</ele></trkpt><trkpt lat="62.740749" lon="9.219192"><ele>1330</ele></trkpt><trkpt lat="62.741008" lon="9.218945"><ele>1322</ele></trkpt><trkpt lat="62.741260" lon="9.218503"><ele>1310</ele></trkpt><trkpt lat="62.741520" lon="9.218256"><ele>1298</ele></trkpt><trkpt lat="62.741804" lon="9.218593"><ele>1285</ele></trkpt><trkpt lat="62.742080" lon="9.218735"><ele>1274</ele></trkpt><trkpt lat="62.742356" lon="9.218877"><ele>1261</ele></trkpt><trkpt lat="62.742624" lon="9.218824"><ele>1248</ele></trkpt><trkpt lat="62.742624" lon="9.218824"><ele>1248</ele></trkpt></trkseg></trk></gpx>