<?xml version="1.0" encoding="UTF-8"?>
<gpx version="1.1" creator="Rando toppturs" xmlns="http://www.topografix.com/GPX/1/1"><metadata><name>118 Hestdalsfjellet 912 m</name><desc>Generated 2026-09-13 17:42 from Kartverket 10 m terrain. Ascent lines are least-cost terrain paths under 35°, not verified routes. Not a snow-stability assessment.</desc></metadata><wpt lat="62.895985" lon="9.941828"><ele>662</ele><name>Car · Hestdalsfjellet 912 m</name></wpt><wpt lat="62.906768" lon="9.956533"><ele>912</ele><name>Hestdalsfjellet 912 m</name></wpt><trk><name>Up · Hestdalsfjellet 912 m</name><desc>least-cost ascent: +257 m over 1517 m, max 22°, 0.0% on 30–35°, ≈1.02 h at 4 km/h + 400 m/h. Terrain possibility, not a checked route.</desc><trkseg><trkpt lat="62.895985" lon="9.941828"><ele>662</ele></trkpt><trkpt lat="62.896453" lon="9.942338"><ele>667</ele></trkpt><trkpt lat="62.896935" lon="9.943241"><ele>679</ele></trkpt><trkpt lat="62.897418" lon="9.944144"><ele>683</ele></trkpt><trkpt lat="62.897900" lon="9.945046"><ele>687</ele></trkpt><trkpt lat="62.898382" lon="9.945949"><ele>699</ele></trkpt><trkpt lat="62.898864" lon="9.946852"><ele>711</ele></trkpt><trkpt lat="62.899346" lon="9.947755"><ele>722</ele></trkpt><trkpt lat="62.899829" lon="9.948657"><ele>736</ele></trkpt><trkpt lat="62.900290" lon="9.948972"><ele>751</ele></trkpt><trkpt lat="62.900737" lon="9.948895"><ele>763</ele></trkpt><trkpt lat="62.901184" lon="9.948818"><ele>773</ele></trkpt><trkpt lat="62.901652" lon="9.949329"><ele>785</ele></trkpt><trkpt lat="62.902134" lon="9.950232"><ele>803</ele></trkpt><trkpt lat="62.902616" lon="9.951135"><ele>817</ele></trkpt><trkpt lat="62.903099" lon="9.952038"><ele>823</ele></trkpt><trkpt lat="62.903581" lon="9.952941"><ele>825</ele></trkpt><trkpt lat="62.904056" lon="9.953648"><ele>847</ele></trkpt><trkpt lat="62.904524" lon="9.954159"><ele>868</ele></trkpt><trkpt lat="62.905006" lon="9.955062"><ele>871</ele></trkpt><trkpt lat="62.905460" lon="9.955181"><ele>878</ele></trkpt><trkpt lat="62.905907" lon="9.955104"><ele>890</ele></trkpt><trkpt lat="62.906382" lon="9.955811"><ele>896</ele></trkpt><trkpt lat="62.906768" lon="9.956533"><ele>912</ele></trkpt></trkseg></trk></gpx>