<?xml version="1.0" encoding="UTF-8"?>
<gpx version="1.1" creator="Rando toppturs" xmlns="http://www.topografix.com/GPX/1/1"><metadata><name>119 Ondusfjellet 949 m</name><desc>Generated 2026-09-13 17:42 from Kartverket 10 m terrain. Ascent lines are least-cost terrain paths under 35°, not verified routes. Not a snow-stability assessment.</desc></metadata><wpt lat="62.842421" lon="9.606976"><ele>814</ele><name>Car · Ondusfjellet 949 m</name></wpt><wpt lat="62.859333" lon="9.560134"><ele>949</ele><name>Ondusfjellet 949 m</name></wpt><trk><name>Up · Ondusfjellet 949 m</name><desc>least-cost ascent: +168 m over 3094 m, max 19°, 0.0% on 30–35°, ≈1.19 h at 4 km/h + 400 m/h. Terrain possibility, not a checked route.</desc><trkseg><trkpt lat="62.842421" lon="9.606976"><ele>814</ele></trkpt><trkpt lat="62.842562" lon="9.605966"><ele>807</ele></trkpt><trkpt lat="62.842971" lon="9.604906"><ele>806</ele></trkpt><trkpt lat="62.843380" lon="9.603847"><ele>806</ele></trkpt><trkpt lat="62.843789" lon="9.602787"><ele>806</ele></trkpt><trkpt lat="62.844199" lon="9.601727"><ele>806</ele></trkpt><trkpt lat="62.844608" lon="9.600668"><ele>806</ele></trkpt><trkpt lat="62.845017" lon="9.599608"><ele>807</ele></trkpt><trkpt lat="62.845426" lon="9.598548"><ele>805</ele></trkpt><trkpt lat="62.845835" lon="9.597488"><ele>804</ele></trkpt><trkpt lat="62.846245" lon="9.596428"><ele>806</ele></trkpt><trkpt lat="62.846654" lon="9.595369"><ele>810</ele></trkpt><trkpt lat="62.847063" lon="9.594309"><ele>809</ele></trkpt><trkpt lat="62.847472" lon="9.593249"><ele>814</ele></trkpt><trkpt lat="62.847881" lon="9.592189"><ele>817</ele></trkpt><trkpt lat="62.848290" lon="9.591129"><ele>816</ele></trkpt><trkpt lat="62.848700" lon="9.590069"><ele>815</ele></trkpt><trkpt lat="62.849109" lon="9.589009"><ele>814</ele></trkpt><trkpt lat="62.849518" lon="9.587949"><ele>817</ele></trkpt><trkpt lat="62.849570" lon="9.586954"><ele>822</ele></trkpt><trkpt lat="62.849532" lon="9.585977"><ele>822</ele></trkpt><trkpt lat="62.849852" lon="9.584933"><ele>819</ele></trkpt><trkpt lat="62.850261" lon="9.583873"><ele>820</ele></trkpt><trkpt lat="62.850670" lon="9.582813"><ele>821</ele></trkpt><trkpt lat="62.851079" lon="9.581752"><ele>830</ele></trkpt><trkpt lat="62.851488" lon="9.580692"><ele>831</ele></trkpt><trkpt lat="62.851897" lon="9.579632"><ele>846</ele></trkpt><trkpt lat="62.852306" lon="9.578572"><ele>850</ele></trkpt><trkpt lat="62.852715" lon="9.577511"><ele>857</ele></trkpt><trkpt lat="62.853124" lon="9.576451"><ele>860</ele></trkpt><trkpt lat="62.853533" lon="9.575390"><ele>855</ele></trkpt><trkpt lat="62.853942" lon="9.574330"><ele>857</ele></trkpt><trkpt lat="62.854262" lon="9.573286"><ele>875</ele></trkpt><trkpt lat="62.854671" lon="9.572226"><ele>890</ele></trkpt><trkpt lat="62.855080" lon="9.571165"><ele>896</ele></trkpt><trkpt lat="62.855489" lon="9.570104"><ele>902</ele></trkpt><trkpt lat="62.855898" lon="9.569044"><ele>909</ele></trkpt><trkpt lat="62.856307" lon="9.567983"><ele>914</ele></trkpt><trkpt lat="62.856715" lon="9.566923"><ele>920</ele></trkpt><trkpt lat="62.857124" lon="9.565862"><ele>923</ele></trkpt><trkpt lat="62.857533" lon="9.564801"><ele>929</ele></trkpt><trkpt lat="62.857942" lon="9.563741"><ele>937</ele></trkpt><trkpt lat="62.858351" lon="9.562680"><ele>939</ele></trkpt><trkpt lat="62.858760" lon="9.561619"><ele>941</ele></trkpt><trkpt lat="62.859169" lon="9.560558"><ele>946</ele></trkpt><trkpt lat="62.859333" lon="9.560134"><ele>949</ele></trkpt></trkseg></trk></gpx>