<?xml version="1.0" encoding="UTF-8"?>
<gpx version="1.1" creator="Rando toppturs" xmlns="http://www.topografix.com/GPX/1/1"><metadata><name>122 Refshuskollen 995 m</name><desc>This is an automatically generated list. I have not checked them all. Do not attempt these if you're a beginner. Generated 2026-09-13 17:42 from Kartverket 10 m terrain. Ascent lines are least-cost terrain paths under 35°, not verified routes. Not a snow-stability assessment.</desc></metadata><wpt lat="62.808500" lon="9.708768"><ele>713</ele><name>Car · Refshuskollen 995 m</name></wpt><wpt lat="62.811122" lon="9.735433"><ele>995</ele><name>Refshuskollen 995 m</name></wpt><trk><name>Up · Refshuskollen 995 m</name><desc>least-cost ascent: +285 m over 1491 m, max 24°, 0.0% on 30–35°, ≈1.09 h at 4 km/h + 400 m/h. Terrain possibility, not a checked route.</desc><trkseg><trkpt lat="62.808500" lon="9.708768"><ele>713</ele></trkpt><trkpt lat="62.808537" lon="9.709744"><ele>723</ele></trkpt><trkpt lat="62.808574" lon="9.710721"><ele>732</ele></trkpt><trkpt lat="62.808611" lon="9.711697"><ele>743</ele></trkpt><trkpt lat="62.808647" lon="9.712674"><ele>756</ele></trkpt><trkpt lat="62.808684" lon="9.713650"><ele>772</ele></trkpt><trkpt lat="62.808721" lon="9.714627"><ele>788</ele></trkpt><trkpt lat="62.808758" lon="9.715604"><ele>805</ele></trkpt><trkpt lat="62.808794" lon="9.716580"><ele>816</ele></trkpt><trkpt lat="62.808831" lon="9.717557"><ele>830</ele></trkpt><trkpt lat="62.808868" lon="9.718533"><ele>847</ele></trkpt><trkpt lat="62.808905" lon="9.719510"><ele>861</ele></trkpt><trkpt lat="62.808941" lon="9.720486"><ele>875</ele></trkpt><trkpt lat="62.808978" lon="9.721463"><ele>889</ele></trkpt><trkpt lat="62.809104" lon="9.722423"><ele>902</ele></trkpt><trkpt lat="62.809141" lon="9.723400"><ele>909</ele></trkpt><trkpt lat="62.809178" lon="9.724376"><ele>913</ele></trkpt><trkpt lat="62.809304" lon="9.725337"><ele>926</ele></trkpt><trkpt lat="62.809340" lon="9.726314"><ele>933</ele></trkpt><trkpt lat="62.809377" lon="9.727290"><ele>941</ele></trkpt><trkpt lat="62.809771" lon="9.728203"><ele>957</ele></trkpt><trkpt lat="62.810165" lon="9.729115"><ele>971</ele></trkpt><trkpt lat="62.810202" lon="9.730092"><ele>976</ele></trkpt><trkpt lat="62.810507" lon="9.731020"><ele>980</ele></trkpt><trkpt lat="62.810990" lon="9.731917"><ele>980</ele></trkpt><trkpt lat="62.811027" lon="9.732893"><ele>981</ele></trkpt><trkpt lat="62.811064" lon="9.733870"><ele>986</ele></trkpt><trkpt lat="62.811100" lon="9.734847"><ele>993</ele></trkpt><trkpt lat="62.811122" lon="9.735433"><ele>995</ele></trkpt></trkseg></trk></gpx>