<?xml version="1.0" encoding="UTF-8"?>
<gpx version="1.1" creator="Rando toppturs" xmlns="http://www.topografix.com/GPX/1/1"><metadata><name>124 Tolvseksti 1243 m</name><desc>Generated 2026-09-13 17:42 from Kartverket 10 m terrain. Ascent lines are least-cost terrain paths under 35°, not verified routes. Not a snow-stability assessment.</desc></metadata><wpt lat="62.775292" lon="9.711006"><ele>742</ele><name>Car · Tolvseksti 1243 m</name></wpt><wpt lat="62.783663" lon="9.775904"><ele>1243</ele><name>Tolvseksti 1243 m</name></wpt><trk><name>Up · Tolvseksti 1243 m</name><desc>least-cost ascent: +574 m over 3787 m, max 29°, 0.0% on 30–35°, ≈2.38 h at 4 km/h + 400 m/h. Terrain possibility, not a checked route.</desc><trkseg><trkpt lat="62.775292" lon="9.711006"><ele>742</ele></trkpt><trkpt lat="62.775329" lon="9.711982"><ele>751</ele></trkpt><trkpt lat="62.775366" lon="9.712957"><ele>761</ele></trkpt><trkpt lat="62.775403" lon="9.713933"><ele>770</ele></trkpt><trkpt lat="62.775439" lon="9.714908"><ele>778</ele></trkpt><trkpt lat="62.775476" lon="9.715884"><ele>784</ele></trkpt><trkpt lat="62.775513" lon="9.716859"><ele>789</ele></trkpt><trkpt lat="62.775550" lon="9.717834"><ele>795</ele></trkpt><trkpt lat="62.775586" lon="9.718810"><ele>801</ele></trkpt><trkpt lat="62.775623" lon="9.719785"><ele>809</ele></trkpt><trkpt lat="62.775660" lon="9.720761"><ele>813</ele></trkpt><trkpt lat="62.775697" lon="9.721736"><ele>818</ele></trkpt><trkpt lat="62.775733" lon="9.722712"><ele>822</ele></trkpt><trkpt lat="62.775770" lon="9.723687"><ele>829</ele></trkpt><trkpt lat="62.775807" lon="9.724663"><ele>832</ele></trkpt><trkpt lat="62.775843" lon="9.725638"><ele>837</ele></trkpt><trkpt lat="62.775880" lon="9.726614"><ele>845</ele></trkpt><trkpt lat="62.775827" lon="9.727605"><ele>858</ele></trkpt><trkpt lat="62.775864" lon="9.728581"><ele>877</ele></trkpt><trkpt lat="62.775901" lon="9.729556"><ele>897</ele></trkpt><trkpt lat="62.775937" lon="9.730531"><ele>910</ele></trkpt><trkpt lat="62.775974" lon="9.731507"><ele>919</ele></trkpt><trkpt lat="62.776011" lon="9.732482"><ele>931</ele></trkpt><trkpt lat="62.776047" lon="9.733458"><ele>947</ele></trkpt><trkpt lat="62.776084" lon="9.734433"><ele>963</ele></trkpt><trkpt lat="62.776120" lon="9.735409"><ele>985</ele></trkpt><trkpt lat="62.776157" lon="9.736384"><ele>1005</ele></trkpt><trkpt lat="62.776551" lon="9.737296"><ele>1030</ele></trkpt><trkpt lat="62.776856" lon="9.738224"><ele>1051</ele></trkpt><trkpt lat="62.776982" lon="9.739183"><ele>1070</ele></trkpt><trkpt lat="62.777108" lon="9.740143"><ele>1088</ele></trkpt><trkpt lat="62.777234" lon="9.741102"><ele>1104</ele></trkpt><trkpt lat="62.777270" lon="9.742078"><ele>1112</ele></trkpt><trkpt lat="62.777307" lon="9.743053"><ele>1118</ele></trkpt><trkpt lat="62.777343" lon="9.744029"><ele>1126</ele></trkpt><trkpt lat="62.777380" lon="9.745004"><ele>1118</ele></trkpt><trkpt lat="62.777417" lon="9.745980"><ele>1110</ele></trkpt><trkpt lat="62.777453" lon="9.746955"><ele>1104</ele></trkpt><trkpt lat="62.777490" lon="9.747931"><ele>1102</ele></trkpt><trkpt lat="62.777526" lon="9.748907"><ele>1094</ele></trkpt><trkpt lat="62.777563" lon="9.749882"><ele>1093</ele></trkpt><trkpt lat="62.777599" lon="9.750858"><ele>1093</ele></trkpt><trkpt lat="62.777636" lon="9.751833"><ele>1097</ele></trkpt><trkpt lat="62.777672" lon="9.752809"><ele>1095</ele></trkpt><trkpt lat="62.777709" lon="9.753784"><ele>1094</ele></trkpt><trkpt lat="62.777745" lon="9.754760"><ele>1092</ele></trkpt><trkpt lat="62.777782" lon="9.755736"><ele>1086</ele></trkpt><trkpt lat="62.777818" lon="9.756711"><ele>1075</ele></trkpt><trkpt lat="62.777855" lon="9.757687"><ele>1073</ele></trkpt><trkpt lat="62.777891" lon="9.758662"><ele>1071</ele></trkpt><trkpt lat="62.777928" lon="9.759638"><ele>1071</ele></trkpt><trkpt lat="62.778232" lon="9.760566"><ele>1072</ele></trkpt><trkpt lat="62.778447" lon="9.761509"><ele>1072</ele></trkpt><trkpt lat="62.778752" lon="9.762437"><ele>1073</ele></trkpt><trkpt lat="62.779056" lon="9.763365"><ele>1072</ele></trkpt><trkpt lat="62.779272" lon="9.764309"><ele>1079</ele></trkpt><trkpt lat="62.779487" lon="9.765253"><ele>1089</ele></trkpt><trkpt lat="62.779523" lon="9.766229"><ele>1095</ele></trkpt><trkpt lat="62.779738" lon="9.767172"><ele>1099</ele></trkpt><trkpt lat="62.780222" lon="9.768069"><ele>1102</ele></trkpt><trkpt lat="62.780705" lon="9.768965"><ele>1113</ele></trkpt><trkpt lat="62.781099" lon="9.769877"><ele>1128</ele></trkpt><trkpt lat="62.781582" lon="9.770773"><ele>1128</ele></trkpt><trkpt lat="62.782065" lon="9.771670"><ele>1130</ele></trkpt><trkpt lat="62.782459" lon="9.772582"><ele>1145</ele></trkpt><trkpt lat="62.782585" lon="9.773542"><ele>1163</ele></trkpt><trkpt lat="62.782621" lon="9.774518"><ele>1187</ele></trkpt><trkpt lat="62.782926" lon="9.775446"><ele>1204</ele></trkpt><trkpt lat="62.783402" lon="9.776147"><ele>1230</ele></trkpt><trkpt lat="62.783663" lon="9.775904"><ele>1243</ele></trkpt></trkseg></trk></gpx>