<?xml version="1.0" encoding="UTF-8"?>
<gpx version="1.1" creator="Rando toppturs" xmlns="http://www.topografix.com/GPX/1/1"><metadata><name>126 Henberget 1021 m</name><desc>Generated 2026-09-13 17:42 from Kartverket 10 m terrain. Ascent lines are least-cost terrain paths under 35°, not verified routes. Not a snow-stability assessment.</desc></metadata><wpt lat="62.734012" lon="9.890993"><ele>614</ele><name>Car · Henberget 1021 m</name></wpt><wpt lat="62.770137" lon="9.880014"><ele>1021</ele><name>Henberget 1021 m</name></wpt><trk><name>Up · Henberget 1021 m</name><desc>least-cost ascent: +445 m over 4199 m, max 23°, 0.0% on 30–35°, ≈2.16 h at 4 km/h + 400 m/h. Terrain possibility, not a checked route.</desc><trkseg><trkpt lat="62.734012" lon="9.890993"><ele>614</ele></trkpt><trkpt lat="62.734459" lon="9.890915"><ele>615</ele></trkpt><trkpt lat="62.734906" lon="9.890838"><ele>616</ele></trkpt><trkpt lat="62.735353" lon="9.890760"><ele>620</ele></trkpt><trkpt lat="62.735800" lon="9.890683"><ele>627</ele></trkpt><trkpt lat="62.736247" lon="9.890605"><ele>634</ele></trkpt><trkpt lat="62.736694" lon="9.890528"><ele>641</ele></trkpt><trkpt lat="62.737141" lon="9.890450"><ele>647</ele></trkpt><trkpt lat="62.737588" lon="9.890373"><ele>654</ele></trkpt><trkpt lat="62.738035" lon="9.890296"><ele>661</ele></trkpt><trkpt lat="62.738482" lon="9.890218"><ele>667</ele></trkpt><trkpt lat="62.738929" lon="9.890141"><ele>673</ele></trkpt><trkpt lat="62.739376" lon="9.890063"><ele>681</ele></trkpt><trkpt lat="62.739823" lon="9.889986"><ele>688</ele></trkpt><trkpt lat="62.740270" lon="9.889908"><ele>696</ele></trkpt><trkpt lat="62.740717" lon="9.889831"><ele>705</ele></trkpt><trkpt lat="62.741164" lon="9.889753"><ele>713</ele></trkpt><trkpt lat="62.741611" lon="9.889676"><ele>720</ele></trkpt><trkpt lat="62.742058" lon="9.889598"><ele>730</ele></trkpt><trkpt lat="62.742505" lon="9.889521"><ele>737</ele></trkpt><trkpt lat="62.742952" lon="9.889443"><ele>744</ele></trkpt><trkpt lat="62.743399" lon="9.889366"><ele>752</ele></trkpt><trkpt lat="62.743846" lon="9.889288"><ele>760</ele></trkpt><trkpt lat="62.744293" lon="9.889211"><ele>769</ele></trkpt><trkpt lat="62.744740" lon="9.889133"><ele>778</ele></trkpt><trkpt lat="62.745152" lon="9.888081"><ele>793</ele></trkpt><trkpt lat="62.745592" lon="9.887809"><ele>803</ele></trkpt><trkpt lat="62.746039" lon="9.887731"><ele>812</ele></trkpt><trkpt lat="62.746486" lon="9.887654"><ele>819</ele></trkpt><trkpt lat="62.746933" lon="9.887576"><ele>828</ele></trkpt><trkpt lat="62.747380" lon="9.887499"><ele>840</ele></trkpt><trkpt lat="62.747827" lon="9.887421"><ele>848</ele></trkpt><trkpt lat="62.748274" lon="9.887344"><ele>856</ele></trkpt><trkpt lat="62.748721" lon="9.887266"><ele>858</ele></trkpt><trkpt lat="62.749168" lon="9.887189"><ele>857</ele></trkpt><trkpt lat="62.749615" lon="9.887111"><ele>857</ele></trkpt><trkpt lat="62.750062" lon="9.887033"><ele>860</ele></trkpt><trkpt lat="62.750509" lon="9.886956"><ele>859</ele></trkpt><trkpt lat="62.750956" lon="9.886878"><ele>857</ele></trkpt><trkpt lat="62.751403" lon="9.886801"><ele>853</ele></trkpt><trkpt lat="62.751850" lon="9.886723"><ele>850</ele></trkpt><trkpt lat="62.752297" lon="9.886646"><ele>847</ele></trkpt><trkpt lat="62.752744" lon="9.886568"><ele>844</ele></trkpt><trkpt lat="62.753191" lon="9.886491"><ele>842</ele></trkpt><trkpt lat="62.753638" lon="9.886413"><ele>840</ele></trkpt><trkpt lat="62.754085" lon="9.886335"><ele>840</ele></trkpt><trkpt lat="62.754532" lon="9.886258"><ele>839</ele></trkpt><trkpt lat="62.754979" lon="9.886180"><ele>837</ele></trkpt><trkpt lat="62.755426" lon="9.886103"><ele>837</ele></trkpt><trkpt lat="62.755873" lon="9.886025"><ele>839</ele></trkpt><trkpt lat="62.756320" lon="9.885948"><ele>840</ele></trkpt><trkpt lat="62.756766" lon="9.885870"><ele>843</ele></trkpt><trkpt lat="62.757213" lon="9.885792"><ele>845</ele></trkpt><trkpt lat="62.757660" lon="9.885715"><ele>846</ele></trkpt><trkpt lat="62.758107" lon="9.885637"><ele>847</ele></trkpt><trkpt lat="62.758554" lon="9.885560"><ele>851</ele></trkpt><trkpt lat="62.759001" lon="9.885482"><ele>857</ele></trkpt><trkpt lat="62.759448" lon="9.885404"><ele>865</ele></trkpt><trkpt lat="62.759895" lon="9.885327"><ele>870</ele></trkpt><trkpt lat="62.760342" lon="9.885249"><ele>879</ele></trkpt><trkpt lat="62.760789" lon="9.885172"><ele>889</ele></trkpt><trkpt lat="62.761236" lon="9.885094"><ele>897</ele></trkpt><trkpt lat="62.761683" lon="9.885016"><ele>900</ele></trkpt><trkpt lat="62.762130" lon="9.884939"><ele>901</ele></trkpt><trkpt lat="62.762577" lon="9.884861"><ele>903</ele></trkpt><trkpt lat="62.763024" lon="9.884783"><ele>909</ele></trkpt><trkpt lat="62.763471" lon="9.884706"><ele>905</ele></trkpt><trkpt lat="62.763918" lon="9.884628"><ele>904</ele></trkpt><trkpt lat="62.764365" lon="9.884551"><ele>913</ele></trkpt><trkpt lat="62.764805" lon="9.884278"><ele>922</ele></trkpt><trkpt lat="62.765252" lon="9.884200"><ele>930</ele></trkpt><trkpt lat="62.765699" lon="9.884123"><ele>936</ele></trkpt><trkpt lat="62.766146" lon="9.884045"><ele>937</ele></trkpt><trkpt lat="62.766558" lon="9.882992"><ele>941</ele></trkpt><trkpt lat="62.766969" lon="9.881939"><ele>956</ele></trkpt><trkpt lat="62.767388" lon="9.881081"><ele>963</ele></trkpt><trkpt lat="62.767835" lon="9.881003"><ele>966</ele></trkpt><trkpt lat="62.768281" lon="9.880925"><ele>972</ele></trkpt><trkpt lat="62.768721" lon="9.880653"><ele>990</ele></trkpt><trkpt lat="62.769168" lon="9.880575"><ele>1001</ele></trkpt><trkpt lat="62.769608" lon="9.880302"><ele>1008</ele></trkpt><trkpt lat="62.770055" lon="9.880224"><ele>1019</ele></trkpt><trkpt lat="62.770137" lon="9.880014"><ele>1021</ele></trkpt></trkseg></trk></gpx>