<?xml version="1.0" encoding="UTF-8"?>
<gpx version="1.1" creator="Rando toppturs" xmlns="http://www.topografix.com/GPX/1/1"><metadata><name>127 Unnamed 1126 m</name><desc>This is an automatically generated list. I have not checked them all. Do not attempt these if you're a beginner. Generated 2026-09-13 17:42 from Kartverket 10 m terrain. Ascent lines are least-cost terrain paths under 35°, not verified routes. Not a snow-stability assessment.</desc></metadata><wpt lat="62.767858" lon="9.714305"><ele>752</ele><name>Car · Unnamed summit 1126 m</name></wpt><wpt lat="62.764962" lon="9.749773"><ele>1126</ele><name>Unnamed summit 1126 m</name></wpt><trk><name>Up · Unnamed summit 1126 m</name><desc>least-cost ascent: +385 m over 2179 m, max 35°, 2.7% on 30–35°, ≈1.51 h at 4 km/h + 400 m/h. Terrain possibility, not a checked route.</desc><trkseg><trkpt lat="62.767858" lon="9.714305"><ele>752</ele></trkpt><trkpt lat="62.767895" lon="9.715281"><ele>756</ele></trkpt><trkpt lat="62.767932" lon="9.716256"><ele>760</ele></trkpt><trkpt lat="62.767969" lon="9.717231"><ele>762</ele></trkpt><trkpt lat="62.768005" lon="9.718206"><ele>766</ele></trkpt><trkpt lat="62.768042" lon="9.719181"><ele>772</ele></trkpt><trkpt lat="62.768079" lon="9.720157"><ele>773</ele></trkpt><trkpt lat="62.768116" lon="9.721132"><ele>775</ele></trkpt><trkpt lat="62.767884" lon="9.722155"><ele>785</ele></trkpt><trkpt lat="62.767742" lon="9.723162"><ele>792</ele></trkpt><trkpt lat="62.767511" lon="9.724185"><ele>802</ele></trkpt><trkpt lat="62.767190" lon="9.725225"><ele>806</ele></trkpt><trkpt lat="62.767227" lon="9.726200"><ele>821</ele></trkpt><trkpt lat="62.767174" lon="9.727191"><ele>838</ele></trkpt><trkpt lat="62.767211" lon="9.728166"><ele>849</ele></trkpt><trkpt lat="62.766890" lon="9.729205"><ele>854</ele></trkpt><trkpt lat="62.766479" lon="9.730261"><ele>856</ele></trkpt><trkpt lat="62.766069" lon="9.731316"><ele>860</ele></trkpt><trkpt lat="62.765838" lon="9.732339"><ele>869</ele></trkpt><trkpt lat="62.765874" lon="9.733314"><ele>878</ele></trkpt><trkpt lat="62.765553" lon="9.734353"><ele>881</ele></trkpt><trkpt lat="62.765143" lon="9.735408"><ele>890</ele></trkpt><trkpt lat="62.764822" lon="9.736447"><ele>905</ele></trkpt><trkpt lat="62.764859" lon="9.737422"><ele>922</ele></trkpt><trkpt lat="62.764538" lon="9.738461"><ele>934</ele></trkpt><trkpt lat="62.764575" lon="9.739436"><ele>946</ele></trkpt><trkpt lat="62.764611" lon="9.740411"><ele>952</ele></trkpt><trkpt lat="62.764648" lon="9.741387"><ele>951</ele></trkpt><trkpt lat="62.764684" lon="9.742362"><ele>959</ele></trkpt><trkpt lat="62.764631" lon="9.743353"><ele>965</ele></trkpt><trkpt lat="62.764221" lon="9.744408"><ele>960</ele></trkpt><trkpt lat="62.764168" lon="9.745399"><ele>979</ele></trkpt><trkpt lat="62.764294" lon="9.746358"><ele>1006</ele></trkpt><trkpt lat="62.764063" lon="9.747381"><ele>1039</ele></trkpt><trkpt lat="62.763920" lon="9.748388"><ele>1063</ele></trkpt><trkpt lat="62.764225" lon="9.749315"><ele>1087</ele></trkpt><trkpt lat="62.764694" lon="9.749820"><ele>1112</ele></trkpt><trkpt lat="62.764962" lon="9.749773"><ele>1126</ele></trkpt></trkseg></trk></gpx>