<?xml version="1.0" encoding="UTF-8"?>
<gpx version="1.1" creator="Rando toppturs" xmlns="http://www.topografix.com/GPX/1/1"><metadata><name>128 Duggurdsknappen 1058 m</name><desc>This is an automatically generated list. I have not checked them all. Do not attempt these if you're a beginner. Generated 2026-09-13 17:42 from Kartverket 10 m terrain. Ascent lines are least-cost terrain paths under 35°, not verified routes. Not a snow-stability assessment.</desc></metadata><wpt lat="62.763855" lon="9.708349"><ele>775</ele><name>Car · Duggurdsknappen 1058 m</name></wpt><wpt lat="62.757363" lon="9.731891"><ele>1058</ele><name>Duggurdsknappen 1058 m</name></wpt><trk><name>Up · Duggurdsknappen 1058 m</name><desc>least-cost ascent: +295 m over 1729 m, max 34°, 1.4% on 30–35°, ≈1.17 h at 4 km/h + 400 m/h. Terrain possibility, not a checked route.</desc><trkseg><trkpt lat="62.763855" lon="9.708349"><ele>775</ele></trkpt><trkpt lat="62.763422" lon="9.708819"><ele>779</ele></trkpt><trkpt lat="62.762983" lon="9.709094"><ele>778</ele></trkpt><trkpt lat="62.762543" lon="9.709370"><ele>782</ele></trkpt><trkpt lat="62.762097" lon="9.709450"><ele>785</ele></trkpt><trkpt lat="62.761657" lon="9.709725"><ele>786</ele></trkpt><trkpt lat="62.761247" lon="9.710780"><ele>788</ele></trkpt><trkpt lat="62.760837" lon="9.711836"><ele>791</ele></trkpt><trkpt lat="62.760427" lon="9.712891"><ele>797</ele></trkpt><trkpt lat="62.760017" lon="9.713946"><ele>800</ele></trkpt><trkpt lat="62.759607" lon="9.715001"><ele>810</ele></trkpt><trkpt lat="62.759196" lon="9.716056"><ele>825</ele></trkpt><trkpt lat="62.758772" lon="9.716721"><ele>836</ele></trkpt><trkpt lat="62.758362" lon="9.717776"><ele>848</ele></trkpt><trkpt lat="62.757951" lon="9.718831"><ele>866</ele></trkpt><trkpt lat="62.757534" lon="9.719691"><ele>886</ele></trkpt><trkpt lat="62.757571" lon="9.720666"><ele>905</ele></trkpt><trkpt lat="62.757518" lon="9.721657"><ele>920</ele></trkpt><trkpt lat="62.757465" lon="9.722648"><ele>929</ele></trkpt><trkpt lat="62.757323" lon="9.723655"><ele>948</ele></trkpt><trkpt lat="62.757360" lon="9.724630"><ele>977</ele></trkpt><trkpt lat="62.757039" lon="9.725668"><ele>1001</ele></trkpt><trkpt lat="62.756897" lon="9.726675"><ele>1010</ele></trkpt><trkpt lat="62.756576" lon="9.727714"><ele>1020</ele></trkpt><trkpt lat="62.756523" lon="9.728705"><ele>1029</ele></trkpt><trkpt lat="62.756560" lon="9.729680"><ele>1039</ele></trkpt><trkpt lat="62.756686" lon="9.730639"><ele>1050</ele></trkpt><trkpt lat="62.757080" lon="9.731549"><ele>1044</ele></trkpt><trkpt lat="62.757363" lon="9.731891"><ele>1058</ele></trkpt></trkseg></trk></gpx>