<?xml version="1.0" encoding="UTF-8"?>
<gpx version="1.1" creator="Rando toppturs" xmlns="http://www.topografix.com/GPX/1/1"><metadata><name>129 Fremre Bekkhøa 1056 m</name><desc>This is an automatically generated list. I have not checked them all. Do not attempt these if you're a beginner. Generated 2026-09-13 17:42 from Kartverket 10 m terrain. Ascent lines are least-cost terrain paths under 35°, not verified routes. Not a snow-stability assessment.</desc></metadata><wpt lat="62.733584" lon="9.889106"><ele>622</ele><name>Car · Fremre Bekkhøa 1056 m</name></wpt><wpt lat="62.758214" lon="9.851665"><ele>1056</ele><name>Fremre Bekkhøa 1056 m</name></wpt><trk><name>Up · Fremre Bekkhøa 1056 m</name><desc>least-cost ascent: +476 m over 3637 m, max 20°, 0.0% on 30–35°, ≈2.1 h at 4 km/h + 400 m/h. Terrain possibility, not a checked route.</desc><trkseg><trkpt lat="62.733584" lon="9.889106"><ele>622</ele></trkpt><trkpt lat="62.734017" lon="9.888639"><ele>621</ele></trkpt><trkpt lat="62.734428" lon="9.887587"><ele>624</ele></trkpt><trkpt lat="62.734839" lon="9.886535"><ele>632</ele></trkpt><trkpt lat="62.735251" lon="9.885483"><ele>651</ele></trkpt><trkpt lat="62.735662" lon="9.884431"><ele>667</ele></trkpt><trkpt lat="62.736074" lon="9.883379"><ele>676</ele></trkpt><trkpt lat="62.736485" lon="9.882327"><ele>687</ele></trkpt><trkpt lat="62.736897" lon="9.881275"><ele>700</ele></trkpt><trkpt lat="62.737308" lon="9.880223"><ele>711</ele></trkpt><trkpt lat="62.737719" lon="9.879171"><ele>723</ele></trkpt><trkpt lat="62.738131" lon="9.878119"><ele>736</ele></trkpt><trkpt lat="62.738542" lon="9.877067"><ele>748</ele></trkpt><trkpt lat="62.738953" lon="9.876015"><ele>759</ele></trkpt><trkpt lat="62.739365" lon="9.874963"><ele>771</ele></trkpt><trkpt lat="62.739776" lon="9.873911"><ele>783</ele></trkpt><trkpt lat="62.740187" lon="9.872858"><ele>796</ele></trkpt><trkpt lat="62.740599" lon="9.871806"><ele>810</ele></trkpt><trkpt lat="62.741010" lon="9.870754"><ele>824</ele></trkpt><trkpt lat="62.741450" lon="9.870481"><ele>833</ele></trkpt><trkpt lat="62.741897" lon="9.870403"><ele>840</ele></trkpt><trkpt lat="62.742344" lon="9.870326"><ele>847</ele></trkpt><trkpt lat="62.742791" lon="9.870248"><ele>856</ele></trkpt><trkpt lat="62.743238" lon="9.870170"><ele>864</ele></trkpt><trkpt lat="62.743685" lon="9.870092"><ele>874</ele></trkpt><trkpt lat="62.744132" lon="9.870014"><ele>883</ele></trkpt><trkpt lat="62.744579" lon="9.869937"><ele>891</ele></trkpt><trkpt lat="62.745026" lon="9.869859"><ele>900</ele></trkpt><trkpt lat="62.745473" lon="9.869781"><ele>908</ele></trkpt><trkpt lat="62.745920" lon="9.869703"><ele>917</ele></trkpt><trkpt lat="62.746367" lon="9.869626"><ele>927</ele></trkpt><trkpt lat="62.746814" lon="9.869548"><ele>936</ele></trkpt><trkpt lat="62.747261" lon="9.869470"><ele>947</ele></trkpt><trkpt lat="62.747708" lon="9.869392"><ele>958</ele></trkpt><trkpt lat="62.748155" lon="9.869314"><ele>964</ele></trkpt><trkpt lat="62.748602" lon="9.869236"><ele>966</ele></trkpt><trkpt lat="62.749049" lon="9.869159"><ele>969</ele></trkpt><trkpt lat="62.749496" lon="9.869081"><ele>975</ele></trkpt><trkpt lat="62.749943" lon="9.869003"><ele>982</ele></trkpt><trkpt lat="62.750354" lon="9.867950"><ele>989</ele></trkpt><trkpt lat="62.750765" lon="9.866898"><ele>985</ele></trkpt><trkpt lat="62.751176" lon="9.865845"><ele>977</ele></trkpt><trkpt lat="62.751588" lon="9.864792"><ele>979</ele></trkpt><trkpt lat="62.751999" lon="9.863739"><ele>982</ele></trkpt><trkpt lat="62.752410" lon="9.862687"><ele>990</ele></trkpt><trkpt lat="62.752821" lon="9.861634"><ele>987</ele></trkpt><trkpt lat="62.753233" lon="9.860581"><ele>987</ele></trkpt><trkpt lat="62.753644" lon="9.859528"><ele>983</ele></trkpt><trkpt lat="62.754055" lon="9.858475"><ele>971</ele></trkpt><trkpt lat="62.754466" lon="9.857422"><ele>968</ele></trkpt><trkpt lat="62.754878" lon="9.856369"><ele>970</ele></trkpt><trkpt lat="62.755289" lon="9.855316"><ele>977</ele></trkpt><trkpt lat="62.755700" lon="9.854263"><ele>992</ele></trkpt><trkpt lat="62.756147" lon="9.854185"><ele>1008</ele></trkpt><trkpt lat="62.756594" lon="9.854107"><ele>1021</ele></trkpt><trkpt lat="62.757041" lon="9.854029"><ele>1030</ele></trkpt><trkpt lat="62.757474" lon="9.853561"><ele>1039</ele></trkpt><trkpt lat="62.757885" lon="9.852508"><ele>1055</ele></trkpt><trkpt lat="62.758214" lon="9.851665"><ele>1056</ele></trkpt></trkseg></trk></gpx>