<?xml version="1.0" encoding="UTF-8"?>
<gpx version="1.1" creator="Rando toppturs" xmlns="http://www.topografix.com/GPX/1/1"><metadata><name>130 Litlråa 1200 m</name><desc>This is an automatically generated list. I have not checked them all. Do not attempt these if you're a beginner. Generated 2026-09-13 17:42 from Kartverket 10 m terrain. Ascent lines are least-cost terrain paths under 35°, not verified routes. Not a snow-stability assessment.</desc></metadata><wpt lat="62.764049" lon="9.706351"><ele>779</ele><name>Car · Litlråa 1200 m</name></wpt><wpt lat="62.749694" lon="9.674195"><ele>1200</ele><name>Litlråa 1200 m</name></wpt><trk><name>Up · Litlråa 1200 m</name><desc>least-cost ascent: +425 m over 2424 m, max 24°, 0.0% on 30–35°, ≈1.67 h at 4 km/h + 400 m/h. Terrain possibility, not a checked route.</desc><trkseg><trkpt lat="62.764049" lon="9.706351"><ele>779</ele></trkpt><trkpt lat="62.763834" lon="9.705408"><ele>782</ele></trkpt><trkpt lat="62.763707" lon="9.704449"><ele>785</ele></trkpt><trkpt lat="62.763224" lon="9.703554"><ele>793</ele></trkpt><trkpt lat="62.762740" lon="9.702659"><ele>809</ele></trkpt><trkpt lat="62.762256" lon="9.701765"><ele>811</ele></trkpt><trkpt lat="62.761773" lon="9.700870"><ele>829</ele></trkpt><trkpt lat="62.761646" lon="9.699911"><ele>844</ele></trkpt><trkpt lat="62.761252" lon="9.699001"><ele>857</ele></trkpt><trkpt lat="62.760768" lon="9.698106"><ele>863</ele></trkpt><trkpt lat="62.760285" lon="9.697212"><ele>873</ele></trkpt><trkpt lat="62.759801" lon="9.696317"><ele>890</ele></trkpt><trkpt lat="62.759317" lon="9.695423"><ele>900</ele></trkpt><trkpt lat="62.758833" lon="9.694529"><ele>910</ele></trkpt><trkpt lat="62.758350" lon="9.693634"><ele>914</ele></trkpt><trkpt lat="62.757866" lon="9.692740"><ele>918</ele></trkpt><trkpt lat="62.757382" lon="9.691846"><ele>923</ele></trkpt><trkpt lat="62.756898" lon="9.690951"><ele>931</ele></trkpt><trkpt lat="62.756414" lon="9.690057"><ele>940</ele></trkpt><trkpt lat="62.755931" lon="9.689163"><ele>949</ele></trkpt><trkpt lat="62.755447" lon="9.688269"><ele>961</ele></trkpt><trkpt lat="62.755053" lon="9.687358"><ele>975</ele></trkpt><trkpt lat="62.754569" lon="9.686464"><ele>988</ele></trkpt><trkpt lat="62.754085" lon="9.685570"><ele>1002</ele></trkpt><trkpt lat="62.753601" lon="9.684676"><ele>1013</ele></trkpt><trkpt lat="62.753117" lon="9.683782"><ele>1030</ele></trkpt><trkpt lat="62.752633" lon="9.682888"><ele>1046</ele></trkpt><trkpt lat="62.752418" lon="9.681946"><ele>1065</ele></trkpt><trkpt lat="62.751934" lon="9.681052"><ele>1080</ele></trkpt><trkpt lat="62.751450" lon="9.680158"><ele>1098</ele></trkpt><trkpt lat="62.751234" lon="9.679216"><ele>1114</ele></trkpt><trkpt lat="62.750840" lon="9.678306"><ele>1135</ele></trkpt><trkpt lat="62.750803" lon="9.677331"><ele>1151</ele></trkpt><trkpt lat="62.750498" lon="9.676405"><ele>1171</ele></trkpt><trkpt lat="62.750371" lon="9.675446"><ele>1180</ele></trkpt><trkpt lat="62.749887" lon="9.674553"><ele>1191</ele></trkpt><trkpt lat="62.749694" lon="9.674195"><ele>1200</ele></trkpt></trkseg></trk></gpx>