<?xml version="1.0" encoding="UTF-8"?>
<gpx version="1.1" creator="Rando toppturs" xmlns="http://www.topografix.com/GPX/1/1"><metadata><name>131 Rundhaugen 1249 m</name><desc>This is an automatically generated list. I have not checked them all. Do not attempt these if you're a beginner. Generated 2026-09-13 17:42 from Kartverket 10 m terrain. Ascent lines are least-cost terrain paths under 35°, not verified routes. Not a snow-stability assessment.</desc></metadata><wpt lat="62.763818" lon="9.707374"><ele>775</ele><name>Car · Rundhaugen 1249 m</name></wpt><wpt lat="62.733618" lon="9.663173"><ele>1249</ele><name>Rundhaugen 1249 m</name></wpt><trk><name>Up · Rundhaugen 1249 m</name><desc>least-cost ascent: +521 m over 4278 m, max 29°, 0.0% on 30–35°, ≈2.37 h at 4 km/h + 400 m/h. Terrain possibility, not a checked route.</desc><trkseg><trkpt lat="62.763818" lon="9.707374"><ele>775</ele></trkpt><trkpt lat="62.763371" lon="9.707454"><ele>783</ele></trkpt><trkpt lat="62.762909" lon="9.707144"><ele>791</ele></trkpt><trkpt lat="62.762463" lon="9.707225"><ele>796</ele></trkpt><trkpt lat="62.762008" lon="9.707110"><ele>797</ele></trkpt><trkpt lat="62.761554" lon="9.706995"><ele>802</ele></trkpt><trkpt lat="62.761100" lon="9.706881"><ele>803</ele></trkpt><trkpt lat="62.760616" lon="9.705986"><ele>810</ele></trkpt><trkpt lat="62.760132" lon="9.705091"><ele>824</ele></trkpt><trkpt lat="62.759649" lon="9.704197"><ele>836</ele></trkpt><trkpt lat="62.759165" lon="9.703302"><ele>841</ele></trkpt><trkpt lat="62.758681" lon="9.702408"><ele>856</ele></trkpt><trkpt lat="62.758205" lon="9.701708"><ele>862</ele></trkpt><trkpt lat="62.757721" lon="9.700814"><ele>873</ele></trkpt><trkpt lat="62.757238" lon="9.699919"><ele>882</ele></trkpt><trkpt lat="62.756754" lon="9.699025"><ele>897</ele></trkpt><trkpt lat="62.756270" lon="9.698131"><ele>910</ele></trkpt><trkpt lat="62.755786" lon="9.697236"><ele>907</ele></trkpt><trkpt lat="62.755303" lon="9.696342"><ele>919</ele></trkpt><trkpt lat="62.754819" lon="9.695448"><ele>928</ele></trkpt><trkpt lat="62.754350" lon="9.694943"><ele>931</ele></trkpt><trkpt lat="62.753903" lon="9.695024"><ele>934</ele></trkpt><trkpt lat="62.753419" lon="9.694130"><ele>935</ele></trkpt><trkpt lat="62.752936" lon="9.693235"><ele>942</ele></trkpt><trkpt lat="62.752452" lon="9.692341"><ele>946</ele></trkpt><trkpt lat="62.751968" lon="9.691447"><ele>957</ele></trkpt><trkpt lat="62.751484" lon="9.690553"><ele>974</ele></trkpt><trkpt lat="62.751023" lon="9.690244"><ele>985</ele></trkpt><trkpt lat="62.750568" lon="9.690129"><ele>994</ele></trkpt><trkpt lat="62.750114" lon="9.690015"><ele>996</ele></trkpt><trkpt lat="62.749630" lon="9.689121"><ele>1010</ele></trkpt><trkpt lat="62.749147" lon="9.688227"><ele>1027</ele></trkpt><trkpt lat="62.748663" lon="9.687333"><ele>1036</ele></trkpt><trkpt lat="62.748201" lon="9.687024"><ele>1050</ele></trkpt><trkpt lat="62.747754" lon="9.687104"><ele>1061</ele></trkpt><trkpt lat="62.747285" lon="9.686600"><ele>1067</ele></trkpt><trkpt lat="62.746816" lon="9.686096"><ele>1083</ele></trkpt><trkpt lat="62.746333" lon="9.685202"><ele>1099</ele></trkpt><trkpt lat="62.745849" lon="9.684308"><ele>1114</ele></trkpt><trkpt lat="62.745365" lon="9.683415"><ele>1126</ele></trkpt><trkpt lat="62.744881" lon="9.682521"><ele>1134</ele></trkpt><trkpt lat="62.744397" lon="9.681627"><ele>1139</ele></trkpt><trkpt lat="62.743913" lon="9.680733"><ele>1149</ele></trkpt><trkpt lat="62.743430" lon="9.679840"><ele>1138</ele></trkpt><trkpt lat="62.742946" lon="9.678946"><ele>1148</ele></trkpt><trkpt lat="62.742462" lon="9.678052"><ele>1149</ele></trkpt><trkpt lat="62.741978" lon="9.677159"><ele>1144</ele></trkpt><trkpt lat="62.741494" lon="9.676265"><ele>1135</ele></trkpt><trkpt lat="62.741010" lon="9.675372"><ele>1139</ele></trkpt><trkpt lat="62.740527" lon="9.674478"><ele>1142</ele></trkpt><trkpt lat="62.740043" lon="9.673585"><ele>1140</ele></trkpt><trkpt lat="62.739559" lon="9.672691"><ele>1136</ele></trkpt><trkpt lat="62.739075" lon="9.671798"><ele>1135</ele></trkpt><trkpt lat="62.738591" lon="9.670905"><ele>1135</ele></trkpt><trkpt lat="62.738107" lon="9.670011"><ele>1138</ele></trkpt><trkpt lat="62.737623" lon="9.669118"><ele>1137</ele></trkpt><trkpt lat="62.737139" lon="9.668225"><ele>1139</ele></trkpt><trkpt lat="62.736655" lon="9.667331"><ele>1141</ele></trkpt><trkpt lat="62.736171" lon="9.666438"><ele>1147</ele></trkpt><trkpt lat="62.735695" lon="9.665740"><ele>1163</ele></trkpt><trkpt lat="62.735211" lon="9.664846"><ele>1176</ele></trkpt><trkpt lat="62.734735" lon="9.664148"><ele>1195</ele></trkpt><trkpt lat="62.734265" lon="9.663645"><ele>1221</ele></trkpt><trkpt lat="62.733796" lon="9.663141"><ele>1244</ele></trkpt><trkpt lat="62.733618" lon="9.663173"><ele>1249</ele></trkpt></trkseg></trk></gpx>