<?xml version="1.0" encoding="UTF-8"?>
<gpx version="1.1" creator="Rando toppturs" xmlns="http://www.topografix.com/GPX/1/1"><metadata><name>133 Grythatten 1361 m</name><desc>Generated 2026-09-13 17:42 from Kartverket 10 m terrain. Ascent lines are least-cost terrain paths under 35°, not verified routes. Not a snow-stability assessment.</desc></metadata><wpt lat="62.705413" lon="9.783876"><ele>766</ele><name>Car · Grythatten 1361 m</name></wpt><wpt lat="62.717125" lon="9.705165"><ele>1361</ele><name>Grythatten 1361 m</name></wpt><trk><name>Up · Grythatten 1361 m</name><desc>least-cost ascent: +631 m over 4757 m, max 26°, 0.0% on 30–35°, ≈2.77 h at 4 km/h + 400 m/h. Terrain possibility, not a checked route.</desc><trkseg><trkpt lat="62.705413" lon="9.783876"><ele>766</ele></trkpt><trkpt lat="62.705377" lon="9.782903"><ele>769</ele></trkpt><trkpt lat="62.705340" lon="9.781930"><ele>774</ele></trkpt><trkpt lat="62.705304" lon="9.780957"><ele>778</ele></trkpt><trkpt lat="62.705268" lon="9.779983"><ele>781</ele></trkpt><trkpt lat="62.705232" lon="9.779010"><ele>784</ele></trkpt><trkpt lat="62.705195" lon="9.778037"><ele>788</ele></trkpt><trkpt lat="62.705159" lon="9.777064"><ele>792</ele></trkpt><trkpt lat="62.705123" lon="9.776091"><ele>797</ele></trkpt><trkpt lat="62.705086" lon="9.775117"><ele>799</ele></trkpt><trkpt lat="62.705050" lon="9.774144"><ele>805</ele></trkpt><trkpt lat="62.705014" lon="9.773171"><ele>812</ele></trkpt><trkpt lat="62.704977" lon="9.772198"><ele>818</ele></trkpt><trkpt lat="62.704941" lon="9.771225"><ele>824</ele></trkpt><trkpt lat="62.704994" lon="9.770236"><ele>825</ele></trkpt><trkpt lat="62.705137" lon="9.769231"><ele>838</ele></trkpt><trkpt lat="62.705100" lon="9.768258"><ele>842</ele></trkpt><trkpt lat="62.705153" lon="9.767268"><ele>848</ele></trkpt><trkpt lat="62.705564" lon="9.766216"><ele>855</ele></trkpt><trkpt lat="62.705974" lon="9.765164"><ele>864</ele></trkpt><trkpt lat="62.706385" lon="9.764111"><ele>871</ele></trkpt><trkpt lat="62.706795" lon="9.763059"><ele>880</ele></trkpt><trkpt lat="62.707206" lon="9.762006"><ele>890</ele></trkpt><trkpt lat="62.707616" lon="9.760954"><ele>902</ele></trkpt><trkpt lat="62.707580" lon="9.759980"><ele>910</ele></trkpt><trkpt lat="62.707543" lon="9.759007"><ele>919</ele></trkpt><trkpt lat="62.707507" lon="9.758034"><ele>924</ele></trkpt><trkpt lat="62.707471" lon="9.757060"><ele>929</ele></trkpt><trkpt lat="62.707434" lon="9.756087"><ele>938</ele></trkpt><trkpt lat="62.707398" lon="9.755114"><ele>946</ele></trkpt><trkpt lat="62.707361" lon="9.754141"><ele>955</ele></trkpt><trkpt lat="62.707325" lon="9.753167"><ele>966</ele></trkpt><trkpt lat="62.707288" lon="9.752194"><ele>975</ele></trkpt><trkpt lat="62.707252" lon="9.751221"><ele>987</ele></trkpt><trkpt lat="62.707215" lon="9.750248"><ele>999</ele></trkpt><trkpt lat="62.707179" lon="9.749274"><ele>1010</ele></trkpt><trkpt lat="62.707142" lon="9.748301"><ele>1021</ele></trkpt><trkpt lat="62.707106" lon="9.747328"><ele>1030</ele></trkpt><trkpt lat="62.707069" lon="9.746355"><ele>1038</ele></trkpt><trkpt lat="62.707033" lon="9.745382"><ele>1042</ele></trkpt><trkpt lat="62.706996" lon="9.744408"><ele>1047</ele></trkpt><trkpt lat="62.706960" lon="9.743435"><ele>1050</ele></trkpt><trkpt lat="62.706923" lon="9.742462"><ele>1053</ele></trkpt><trkpt lat="62.706887" lon="9.741489"><ele>1058</ele></trkpt><trkpt lat="62.706850" lon="9.740515"><ele>1070</ele></trkpt><trkpt lat="62.706813" lon="9.739542"><ele>1080</ele></trkpt><trkpt lat="62.706777" lon="9.738569"><ele>1087</ele></trkpt><trkpt lat="62.706740" lon="9.737596"><ele>1093</ele></trkpt><trkpt lat="62.706704" lon="9.736623"><ele>1101</ele></trkpt><trkpt lat="62.706757" lon="9.735633"><ele>1109</ele></trkpt><trkpt lat="62.706720" lon="9.734660"><ele>1116</ele></trkpt><trkpt lat="62.706683" lon="9.733687"><ele>1122</ele></trkpt><trkpt lat="62.706647" lon="9.732714"><ele>1126</ele></trkpt><trkpt lat="62.706610" lon="9.731741"><ele>1130</ele></trkpt><trkpt lat="62.706573" lon="9.730767"><ele>1129</ele></trkpt><trkpt lat="62.706894" lon="9.729730"><ele>1135</ele></trkpt><trkpt lat="62.707305" lon="9.728677"><ele>1146</ele></trkpt><trkpt lat="62.707715" lon="9.727624"><ele>1160</ele></trkpt><trkpt lat="62.708125" lon="9.726571"><ele>1168</ele></trkpt><trkpt lat="62.708535" lon="9.725518"><ele>1171</ele></trkpt><trkpt lat="62.708946" lon="9.724465"><ele>1172</ele></trkpt><trkpt lat="62.709356" lon="9.723412"><ele>1169</ele></trkpt><trkpt lat="62.709766" lon="9.722359"><ele>1170</ele></trkpt><trkpt lat="62.710176" lon="9.721306"><ele>1173</ele></trkpt><trkpt lat="62.710586" lon="9.720252"><ele>1165</ele></trkpt><trkpt lat="62.710996" lon="9.719199"><ele>1160</ele></trkpt><trkpt lat="62.711407" lon="9.718146"><ele>1157</ele></trkpt><trkpt lat="62.711817" lon="9.717093"><ele>1162</ele></trkpt><trkpt lat="62.712227" lon="9.716039"><ele>1157</ele></trkpt><trkpt lat="62.712637" lon="9.714986"><ele>1161</ele></trkpt><trkpt lat="62.713047" lon="9.713933"><ele>1167</ele></trkpt><trkpt lat="62.713457" lon="9.712879"><ele>1172</ele></trkpt><trkpt lat="62.713867" lon="9.711826"><ele>1190</ele></trkpt><trkpt lat="62.714278" lon="9.710772"><ele>1210</ele></trkpt><trkpt lat="62.714688" lon="9.709719"><ele>1231</ele></trkpt><trkpt lat="62.714830" lon="9.708713"><ele>1249</ele></trkpt><trkpt lat="62.715150" lon="9.707676"><ele>1265</ele></trkpt><trkpt lat="62.715114" lon="9.706702"><ele>1284</ele></trkpt><trkpt lat="62.715442" lon="9.705859"><ele>1309</ele></trkpt><trkpt lat="62.715881" lon="9.705584"><ele>1328</ele></trkpt><trkpt lat="62.716328" lon="9.705504"><ele>1336</ele></trkpt><trkpt lat="62.716775" lon="9.705424"><ele>1345</ele></trkpt><trkpt lat="62.717125" lon="9.705165"><ele>1361</ele></trkpt></trkseg></trk></gpx>