<?xml version="1.0" encoding="UTF-8"?>
<gpx version="1.1" creator="Rando toppturs" xmlns="http://www.topografix.com/GPX/1/1"><metadata><name>134 Unnamed 1198 m</name><desc>This is an automatically generated list. I have not checked them all. Do not attempt these if you're a beginner. Generated 2026-09-13 17:42 from Kartverket 10 m terrain. Ascent lines are least-cost terrain paths under 35°, not verified routes. Not a snow-stability assessment.</desc></metadata><wpt lat="62.703930" lon="9.785118"><ele>767</ele><name>Car · Unnamed summit 1198 m</name></wpt><wpt lat="62.678711" lon="9.733973"><ele>1198</ele><name>Unnamed summit 1198 m</name></wpt><trk><name>Up · Unnamed summit 1198 m</name><desc>least-cost ascent: +437 m over 3948 m, max 22°, 0.0% on 30–35°, ≈2.08 h at 4 km/h + 400 m/h. Terrain possibility, not a checked route.</desc><trkseg><trkpt lat="62.703930" lon="9.785118"><ele>767</ele></trkpt><trkpt lat="62.703715" lon="9.784176"><ele>771</ele></trkpt><trkpt lat="62.703232" lon="9.783282"><ele>774</ele></trkpt><trkpt lat="62.702748" lon="9.782388"><ele>779</ele></trkpt><trkpt lat="62.702265" lon="9.781494"><ele>783</ele></trkpt><trkpt lat="62.701782" lon="9.780600"><ele>789</ele></trkpt><trkpt lat="62.701299" lon="9.779706"><ele>794</ele></trkpt><trkpt lat="62.700816" lon="9.778812"><ele>800</ele></trkpt><trkpt lat="62.700332" lon="9.777918"><ele>804</ele></trkpt><trkpt lat="62.699849" lon="9.777023"><ele>809</ele></trkpt><trkpt lat="62.699366" lon="9.776130"><ele>816</ele></trkpt><trkpt lat="62.698883" lon="9.775236"><ele>823</ele></trkpt><trkpt lat="62.698399" lon="9.774342"><ele>830</ele></trkpt><trkpt lat="62.697916" lon="9.773448"><ele>839</ele></trkpt><trkpt lat="62.697433" lon="9.772554"><ele>848</ele></trkpt><trkpt lat="62.696950" lon="9.771660"><ele>855</ele></trkpt><trkpt lat="62.696466" lon="9.770766"><ele>867</ele></trkpt><trkpt lat="62.695983" lon="9.769872"><ele>871</ele></trkpt><trkpt lat="62.695500" lon="9.768979"><ele>880</ele></trkpt><trkpt lat="62.695017" lon="9.768085"><ele>887</ele></trkpt><trkpt lat="62.694533" lon="9.767191"><ele>891</ele></trkpt><trkpt lat="62.694050" lon="9.766298"><ele>896</ele></trkpt><trkpt lat="62.693567" lon="9.765404"><ele>901</ele></trkpt><trkpt lat="62.693083" lon="9.764510"><ele>906</ele></trkpt><trkpt lat="62.692600" lon="9.763617"><ele>913</ele></trkpt><trkpt lat="62.692117" lon="9.762723"><ele>918</ele></trkpt><trkpt lat="62.691634" lon="9.761830"><ele>922</ele></trkpt><trkpt lat="62.691150" lon="9.760936"><ele>929</ele></trkpt><trkpt lat="62.690667" lon="9.760043"><ele>936</ele></trkpt><trkpt lat="62.690184" lon="9.759149"><ele>941</ele></trkpt><trkpt lat="62.689700" lon="9.758256"><ele>954</ele></trkpt><trkpt lat="62.689217" lon="9.757363"><ele>965</ele></trkpt><trkpt lat="62.688734" lon="9.756469"><ele>975</ele></trkpt><trkpt lat="62.688250" lon="9.755576"><ele>986</ele></trkpt><trkpt lat="62.687767" lon="9.754683"><ele>999</ele></trkpt><trkpt lat="62.687283" lon="9.753789"><ele>1016</ele></trkpt><trkpt lat="62.686800" lon="9.752896"><ele>1028</ele></trkpt><trkpt lat="62.686317" lon="9.752003"><ele>1035</ele></trkpt><trkpt lat="62.685833" lon="9.751110"><ele>1041</ele></trkpt><trkpt lat="62.685350" lon="9.750217"><ele>1053</ele></trkpt><trkpt lat="62.684867" lon="9.749323"><ele>1071</ele></trkpt><trkpt lat="62.684562" lon="9.748399"><ele>1089</ele></trkpt><trkpt lat="62.684257" lon="9.747474"><ele>1099</ele></trkpt><trkpt lat="62.683774" lon="9.746581"><ele>1103</ele></trkpt><trkpt lat="62.683290" lon="9.745688"><ele>1107</ele></trkpt><trkpt lat="62.682807" lon="9.744795"><ele>1107</ele></trkpt><trkpt lat="62.682324" lon="9.743902"><ele>1112</ele></trkpt><trkpt lat="62.681840" lon="9.743009"><ele>1114</ele></trkpt><trkpt lat="62.681357" lon="9.742116"><ele>1114</ele></trkpt><trkpt lat="62.680873" lon="9.741223"><ele>1120</ele></trkpt><trkpt lat="62.680390" lon="9.740330"><ele>1128</ele></trkpt><trkpt lat="62.679996" lon="9.739422"><ele>1142</ele></trkpt><trkpt lat="62.679781" lon="9.738481"><ele>1152</ele></trkpt><trkpt lat="62.679655" lon="9.737525"><ele>1157</ele></trkpt><trkpt lat="62.679171" lon="9.736632"><ele>1168</ele></trkpt><trkpt lat="62.678866" lon="9.735707"><ele>1181</ele></trkpt><trkpt lat="62.678740" lon="9.734751"><ele>1195</ele></trkpt><trkpt lat="62.678711" lon="9.733973"><ele>1198</ele></trkpt></trkseg></trk></gpx>