<?xml version="1.0" encoding="UTF-8"?>
<gpx version="1.1" creator="Rando toppturs" xmlns="http://www.topografix.com/GPX/1/1"><metadata><name>135 Finnpiggan 1530 m</name><desc>This is an automatically generated list. I have not checked them all. Do not attempt these if you're a beginner. Generated 2026-09-13 17:42 from Kartverket 10 m terrain. Ascent lines are least-cost terrain paths under 35°, not verified routes. Not a snow-stability assessment.</desc></metadata><wpt lat="62.660636" lon="9.546426"><ele>804</ele><name>Car · Finnpiggan 1530 m</name></wpt><wpt lat="62.664265" lon="9.644971"><ele>1530</ele><name>Finnpiggan 1530 m</name></wpt><trk><name>Up · Finnpiggan 1530 m</name><desc>least-cost ascent: +834 m over 5262 m, max 30°, 0.0% on 30–35°, ≈3.4 h at 4 km/h + 400 m/h. Terrain possibility, not a checked route.</desc><trkseg><trkpt lat="62.660636" lon="9.546426"><ele>804</ele></trkpt><trkpt lat="62.660674" lon="9.547397"><ele>814</ele></trkpt><trkpt lat="62.660712" lon="9.548368"><ele>822</ele></trkpt><trkpt lat="62.660750" lon="9.549340"><ele>835</ele></trkpt><trkpt lat="62.660787" lon="9.550311"><ele>845</ele></trkpt><trkpt lat="62.660825" lon="9.551282"><ele>859</ele></trkpt><trkpt lat="62.660952" lon="9.552237"><ele>878</ele></trkpt><trkpt lat="62.660990" lon="9.553209"><ele>892</ele></trkpt><trkpt lat="62.661028" lon="9.554180"><ele>901</ele></trkpt><trkpt lat="62.661066" lon="9.555152"><ele>911</ele></trkpt><trkpt lat="62.661193" lon="9.556107"><ele>931</ele></trkpt><trkpt lat="62.661231" lon="9.557078"><ele>946</ele></trkpt><trkpt lat="62.661269" lon="9.558049"><ele>960</ele></trkpt><trkpt lat="62.661307" lon="9.559021"><ele>975</ele></trkpt><trkpt lat="62.661344" lon="9.559992"><ele>989</ele></trkpt><trkpt lat="62.661382" lon="9.560964"><ele>1001</ele></trkpt><trkpt lat="62.661420" lon="9.561935"><ele>1014</ele></trkpt><trkpt lat="62.661458" lon="9.562907"><ele>1029</ele></trkpt><trkpt lat="62.661496" lon="9.563878"><ele>1045</ele></trkpt><trkpt lat="62.661444" lon="9.564866"><ele>1064</ele></trkpt><trkpt lat="62.661482" lon="9.565837"><ele>1080</ele></trkpt><trkpt lat="62.661519" lon="9.566809"><ele>1102</ele></trkpt><trkpt lat="62.661736" lon="9.567747"><ele>1123</ele></trkpt><trkpt lat="62.661774" lon="9.568719"><ele>1146</ele></trkpt><trkpt lat="62.661722" lon="9.569707"><ele>1162</ele></trkpt><trkpt lat="62.661760" lon="9.570678"><ele>1172</ele></trkpt><trkpt lat="62.661797" lon="9.571650"><ele>1178</ele></trkpt><trkpt lat="62.661835" lon="9.572621"><ele>1180</ele></trkpt><trkpt lat="62.661873" lon="9.573593"><ele>1181</ele></trkpt><trkpt lat="62.661911" lon="9.574564"><ele>1180</ele></trkpt><trkpt lat="62.661948" lon="9.575536"><ele>1180</ele></trkpt><trkpt lat="62.661986" lon="9.576507"><ele>1175</ele></trkpt><trkpt lat="62.662024" lon="9.577479"><ele>1170</ele></trkpt><trkpt lat="62.661972" lon="9.578466"><ele>1165</ele></trkpt><trkpt lat="62.662010" lon="9.579438"><ele>1151</ele></trkpt><trkpt lat="62.662047" lon="9.580409"><ele>1141</ele></trkpt><trkpt lat="62.662085" lon="9.581381"><ele>1132</ele></trkpt><trkpt lat="62.662123" lon="9.582352"><ele>1123</ele></trkpt><trkpt lat="62.662160" lon="9.583324"><ele>1115</ele></trkpt><trkpt lat="62.662198" lon="9.584295"><ele>1109</ele></trkpt><trkpt lat="62.662235" lon="9.585267"><ele>1101</ele></trkpt><trkpt lat="62.662273" lon="9.586238"><ele>1097</ele></trkpt><trkpt lat="62.662311" lon="9.587210"><ele>1094</ele></trkpt><trkpt lat="62.662348" lon="9.588181"><ele>1095</ele></trkpt><trkpt lat="62.662386" lon="9.589153"><ele>1097</ele></trkpt><trkpt lat="62.662423" lon="9.590124"><ele>1099</ele></trkpt><trkpt lat="62.662461" lon="9.591096"><ele>1106</ele></trkpt><trkpt lat="62.662499" lon="9.592068"><ele>1113</ele></trkpt><trkpt lat="62.662536" lon="9.593039"><ele>1128</ele></trkpt><trkpt lat="62.662306" lon="9.594060"><ele>1133</ele></trkpt><trkpt lat="62.662075" lon="9.595080"><ele>1147</ele></trkpt><trkpt lat="62.662113" lon="9.596052"><ele>1162</ele></trkpt><trkpt lat="62.662150" lon="9.597023"><ele>1174</ele></trkpt><trkpt lat="62.662188" lon="9.597995"><ele>1195</ele></trkpt><trkpt lat="62.662225" lon="9.598966"><ele>1200</ele></trkpt><trkpt lat="62.662263" lon="9.599938"><ele>1193</ele></trkpt><trkpt lat="62.662300" lon="9.600909"><ele>1185</ele></trkpt><trkpt lat="62.662338" lon="9.601881"><ele>1182</ele></trkpt><trkpt lat="62.662375" lon="9.602852"><ele>1182</ele></trkpt><trkpt lat="62.662413" lon="9.603824"><ele>1182</ele></trkpt><trkpt lat="62.662450" lon="9.604795"><ele>1183</ele></trkpt><trkpt lat="62.662488" lon="9.605767"><ele>1186</ele></trkpt><trkpt lat="62.662525" lon="9.606738"><ele>1191</ele></trkpt><trkpt lat="62.662563" lon="9.607710"><ele>1196</ele></trkpt><trkpt lat="62.662600" lon="9.608682"><ele>1201</ele></trkpt><trkpt lat="62.662638" lon="9.609653"><ele>1212</ele></trkpt><trkpt lat="62.662675" lon="9.610625"><ele>1224</ele></trkpt><trkpt lat="62.662713" lon="9.611596"><ele>1235</ele></trkpt><trkpt lat="62.662750" lon="9.612568"><ele>1249</ele></trkpt><trkpt lat="62.662787" lon="9.613539"><ele>1262</ele></trkpt><trkpt lat="62.662825" lon="9.614511"><ele>1274</ele></trkpt><trkpt lat="62.662862" lon="9.615483"><ele>1281</ele></trkpt><trkpt lat="62.662900" lon="9.616454"><ele>1286</ele></trkpt><trkpt lat="62.662937" lon="9.617426"><ele>1289</ele></trkpt><trkpt lat="62.662974" lon="9.618397"><ele>1295</ele></trkpt><trkpt lat="62.663012" lon="9.619369"><ele>1300</ele></trkpt><trkpt lat="62.663049" lon="9.620340"><ele>1305</ele></trkpt><trkpt lat="62.663087" lon="9.621312"><ele>1311</ele></trkpt><trkpt lat="62.663124" lon="9.622284"><ele>1318</ele></trkpt><trkpt lat="62.663161" lon="9.623255"><ele>1326</ele></trkpt><trkpt lat="62.663199" lon="9.624227"><ele>1337</ele></trkpt><trkpt lat="62.663236" lon="9.625198"><ele>1351</ele></trkpt><trkpt lat="62.663273" lon="9.626170"><ele>1361</ele></trkpt><trkpt lat="62.663311" lon="9.627142"><ele>1374</ele></trkpt><trkpt lat="62.663348" lon="9.628113"><ele>1385</ele></trkpt><trkpt lat="62.663475" lon="9.629069"><ele>1394</ele></trkpt><trkpt lat="62.663691" lon="9.630008"><ele>1401</ele></trkpt><trkpt lat="62.663728" lon="9.630979"><ele>1405</ele></trkpt><trkpt lat="62.663765" lon="9.631951"><ele>1412</ele></trkpt><trkpt lat="62.663803" lon="9.632923"><ele>1418</ele></trkpt><trkpt lat="62.663840" lon="9.633894"><ele>1425</ele></trkpt><trkpt lat="62.663877" lon="9.634866"><ele>1435</ele></trkpt><trkpt lat="62.663914" lon="9.635838"><ele>1447</ele></trkpt><trkpt lat="62.663952" lon="9.636809"><ele>1451</ele></trkpt><trkpt lat="62.663989" lon="9.637781"><ele>1458</ele></trkpt><trkpt lat="62.664026" lon="9.638752"><ele>1476</ele></trkpt><trkpt lat="62.664063" lon="9.639724"><ele>1491</ele></trkpt><trkpt lat="62.664101" lon="9.640696"><ele>1494</ele></trkpt><trkpt lat="62.664138" lon="9.641667"><ele>1496</ele></trkpt><trkpt lat="62.664175" lon="9.642639"><ele>1503</ele></trkpt><trkpt lat="62.664212" lon="9.643611"><ele>1514</ele></trkpt><trkpt lat="62.664250" lon="9.644582"><ele>1527</ele></trkpt><trkpt lat="62.664265" lon="9.644971"><ele>1530</ele></trkpt></trkseg></trk></gpx>