<?xml version="1.0" encoding="UTF-8"?>
<gpx version="1.1" creator="Rando toppturs" xmlns="http://www.topografix.com/GPX/1/1"><metadata><name>136 Seljbrøstet 967 m</name><desc>This is an automatically generated list. I have not checked them all. Do not attempt these if you're a beginner. Generated 2026-09-13 17:42 from Kartverket 10 m terrain. Ascent lines are least-cost terrain paths under 35°, not verified routes. Not a snow-stability assessment.</desc></metadata><wpt lat="62.649936" lon="10.014224"><ele>641</ele><name>Car · Seljbrøstet 967 m</name></wpt><wpt lat="62.657401" lon="9.984022"><ele>967</ele><name>Seljbrøstet 967 m</name></wpt><trk><name>Up · Seljbrøstet 967 m</name><desc>least-cost ascent: +346 m over 1917 m, max 25°, 0.0% on 30–35°, ≈1.35 h at 4 km/h + 400 m/h. Terrain possibility, not a checked route.</desc><trkseg><trkpt lat="62.649936" lon="10.014224"><ele>641</ele></trkpt><trkpt lat="62.650348" lon="10.013177"><ele>646</ele></trkpt><trkpt lat="62.650760" lon="10.012130"><ele>664</ele></trkpt><trkpt lat="62.651083" lon="10.011098"><ele>674</ele></trkpt><trkpt lat="62.651317" lon="10.010081"><ele>668</ele></trkpt><trkpt lat="62.651640" lon="10.009049"><ele>692</ele></trkpt><trkpt lat="62.651784" lon="10.008047"><ele>708</ele></trkpt><trkpt lat="62.651749" lon="10.007075"><ele>717</ele></trkpt><trkpt lat="62.651804" lon="10.006088"><ele>723</ele></trkpt><trkpt lat="62.652038" lon="10.005071"><ele>732</ele></trkpt><trkpt lat="62.652182" lon="10.004069"><ele>740</ele></trkpt><trkpt lat="62.652594" lon="10.003022"><ele>745</ele></trkpt><trkpt lat="62.653007" lon="10.001975"><ele>742</ele></trkpt><trkpt lat="62.653419" lon="10.000927"><ele>758</ele></trkpt><trkpt lat="62.653831" lon="9.999880"><ele>775</ele></trkpt><trkpt lat="62.654244" lon="9.998832"><ele>790</ele></trkpt><trkpt lat="62.654656" lon="9.997785"><ele>804</ele></trkpt><trkpt lat="62.655068" lon="9.996737"><ele>817</ele></trkpt><trkpt lat="62.655481" lon="9.995690"><ele>832</ele></trkpt><trkpt lat="62.655893" lon="9.994642"><ele>846</ele></trkpt><trkpt lat="62.655947" lon="9.993655"><ele>858</ele></trkpt><trkpt lat="62.655913" lon="9.992683"><ele>867</ele></trkpt><trkpt lat="62.655878" lon="9.991712"><ele>876</ele></trkpt><trkpt lat="62.655843" lon="9.990740"><ele>882</ele></trkpt><trkpt lat="62.655808" lon="9.989768"><ele>891</ele></trkpt><trkpt lat="62.656131" lon="9.988735"><ele>905</ele></trkpt><trkpt lat="62.656543" lon="9.987688"><ele>925</ele></trkpt><trkpt lat="62.656598" lon="9.986700"><ele>939</ele></trkpt><trkpt lat="62.657010" lon="9.985653"><ele>945</ele></trkpt><trkpt lat="62.657244" lon="9.984635"><ele>961</ele></trkpt><trkpt lat="62.657401" lon="9.984022"><ele>967</ele></trkpt></trkseg></trk></gpx>