<?xml version="1.0" encoding="UTF-8"?>
<gpx version="1.1" creator="Rando toppturs" xmlns="http://www.topografix.com/GPX/1/1"><metadata><name>137 Veslfinnshøa 1347 m</name><desc>This is an automatically generated list. I have not checked them all. Do not attempt these if you're a beginner. Generated 2026-09-13 17:42 from Kartverket 10 m terrain. Ascent lines are least-cost terrain paths under 35°, not verified routes. Not a snow-stability assessment.</desc></metadata><wpt lat="62.370907" lon="9.637822"><ele>731</ele><name>Car · Veslfinnshøa 1347 m</name></wpt><wpt lat="62.373896" lon="9.685149"><ele>1347</ele><name>Veslfinnshøa 1347 m</name></wpt><trk><name>Up · Veslfinnshøa 1347 m</name><desc>least-cost ascent: +624 m over 3778 m, max 34°, 2.2% on 30–35°, ≈2.51 h at 4 km/h + 400 m/h. Terrain possibility, not a checked route.</desc><trkseg><trkpt lat="62.370907" lon="9.637822"><ele>731</ele></trkpt><trkpt lat="62.371115" lon="9.638559"><ele>752</ele></trkpt><trkpt lat="62.371413" lon="9.639281"><ele>770</ele></trkpt><trkpt lat="62.370981" lon="9.639746"><ele>788</ele></trkpt><trkpt lat="62.370534" lon="9.639826"><ele>794</ele></trkpt><trkpt lat="62.370117" lon="9.640676"><ele>812</ele></trkpt><trkpt lat="62.369670" lon="9.640756"><ele>817</ele></trkpt><trkpt lat="62.369253" lon="9.641605"><ele>843</ele></trkpt><trkpt lat="62.368821" lon="9.642070"><ele>860</ele></trkpt><trkpt lat="62.368374" lon="9.642150"><ele>867</ele></trkpt><trkpt lat="62.367935" lon="9.642422"><ele>875</ele></trkpt><trkpt lat="62.367488" lon="9.642502"><ele>878</ele></trkpt><trkpt lat="62.367071" lon="9.643352"><ele>892</ele></trkpt><trkpt lat="62.366624" lon="9.643432"><ele>896</ele></trkpt><trkpt lat="62.366177" lon="9.643512"><ele>902</ele></trkpt><trkpt lat="62.365730" lon="9.643591"><ele>910</ele></trkpt><trkpt lat="62.365284" lon="9.643671"><ele>914</ele></trkpt><trkpt lat="62.364837" lon="9.643751"><ele>916</ele></trkpt><trkpt lat="62.364390" lon="9.643831"><ele>917</ele></trkpt><trkpt lat="62.363980" lon="9.644873"><ele>936</ele></trkpt><trkpt lat="62.363570" lon="9.645915"><ele>961</ele></trkpt><trkpt lat="62.363250" lon="9.646941"><ele>983</ele></trkpt><trkpt lat="62.363287" lon="9.647903"><ele>1015</ele></trkpt><trkpt lat="62.363324" lon="9.648864"><ele>1041</ele></trkpt><trkpt lat="62.363361" lon="9.649826"><ele>1060</ele></trkpt><trkpt lat="62.363398" lon="9.650788"><ele>1080</ele></trkpt><trkpt lat="62.363435" lon="9.651750"><ele>1095</ele></trkpt><trkpt lat="62.363472" lon="9.652712"><ele>1108</ele></trkpt><trkpt lat="62.363599" lon="9.653658"><ele>1112</ele></trkpt><trkpt lat="62.363636" lon="9.654620"><ele>1120</ele></trkpt><trkpt lat="62.363673" lon="9.655582"><ele>1127</ele></trkpt><trkpt lat="62.363710" lon="9.656544"><ele>1135</ele></trkpt><trkpt lat="62.363747" lon="9.657506"><ele>1139</ele></trkpt><trkpt lat="62.363784" lon="9.658468"><ele>1143</ele></trkpt><trkpt lat="62.363821" lon="9.659430"><ele>1150</ele></trkpt><trkpt lat="62.363858" lon="9.660392"><ele>1158</ele></trkpt><trkpt lat="62.363895" lon="9.661354"><ele>1161</ele></trkpt><trkpt lat="62.363932" lon="9.662316"><ele>1164</ele></trkpt><trkpt lat="62.363969" lon="9.663278"><ele>1171</ele></trkpt><trkpt lat="62.364006" lon="9.664240"><ele>1175</ele></trkpt><trkpt lat="62.364043" lon="9.665202"><ele>1180</ele></trkpt><trkpt lat="62.364080" lon="9.666164"><ele>1184</ele></trkpt><trkpt lat="62.364117" lon="9.667126"><ele>1187</ele></trkpt><trkpt lat="62.364511" lon="9.668024"><ele>1199</ele></trkpt><trkpt lat="62.364995" lon="9.668906"><ele>1212</ele></trkpt><trkpt lat="62.365479" lon="9.669789"><ele>1223</ele></trkpt><trkpt lat="62.365963" lon="9.670671"><ele>1230</ele></trkpt><trkpt lat="62.366447" lon="9.671554"><ele>1228</ele></trkpt><trkpt lat="62.366930" lon="9.672437"><ele>1235</ele></trkpt><trkpt lat="62.367414" lon="9.673319"><ele>1244</ele></trkpt><trkpt lat="62.367898" lon="9.674202"><ele>1254</ele></trkpt><trkpt lat="62.368382" lon="9.675084"><ele>1263</ele></trkpt><trkpt lat="62.368865" lon="9.675967"><ele>1273</ele></trkpt><trkpt lat="62.369349" lon="9.676850"><ele>1283</ele></trkpt><trkpt lat="62.369833" lon="9.677733"><ele>1292</ele></trkpt><trkpt lat="62.370317" lon="9.678615"><ele>1299</ele></trkpt><trkpt lat="62.370800" lon="9.679498"><ele>1305</ele></trkpt><trkpt lat="62.371284" lon="9.680381"><ele>1313</ele></trkpt><trkpt lat="62.371768" lon="9.681264"><ele>1321</ele></trkpt><trkpt lat="62.372252" lon="9.682147"><ele>1330</ele></trkpt><trkpt lat="62.372735" lon="9.683030"><ele>1338</ele></trkpt><trkpt lat="62.373219" lon="9.683913"><ele>1343</ele></trkpt><trkpt lat="62.373703" lon="9.684796"><ele>1347</ele></trkpt><trkpt lat="62.373896" lon="9.685149"><ele>1347</ele></trkpt></trkseg></trk></gpx>