<?xml version="1.0" encoding="UTF-8"?>
<gpx version="1.1" creator="Rando toppturs" xmlns="http://www.topografix.com/GPX/1/1"><metadata><name>142 Reppdalstangan 1776 m</name><desc>This is an automatically generated list. I have not checked them all. Do not attempt these if you're a beginner. Generated 2026-09-13 17:42 from Kartverket 10 m terrain. Ascent lines are least-cost terrain paths under 35°, not verified routes. Not a snow-stability assessment.</desc></metadata><wpt lat="62.498907" lon="9.087487"><ele>751</ele><name>Car · Reppdalstangan 1776 m</name></wpt><wpt lat="62.405277" lon="9.060215"><ele>1776</ele><name>Reppdalstangan 1776 m</name></wpt><trk><name>Up · Reppdalstangan 1776 m</name><desc>least-cost ascent: +1408 m over 11885 m, max 34°, 0.4% on 30–35°, ≈6.49 h at 4 km/h + 400 m/h. Terrain possibility, not a checked route.</desc><trkseg><trkpt lat="62.498907" lon="9.087487"><ele>751</ele></trkpt><trkpt lat="62.498428" lon="9.086804"><ele>752</ele></trkpt><trkpt lat="62.497965" lon="9.086506"><ele>762</ele></trkpt><trkpt lat="62.497519" lon="9.086595"><ele>763</ele></trkpt><trkpt lat="62.497072" lon="9.086684"><ele>763</ele></trkpt><trkpt lat="62.496593" lon="9.086000"><ele>763</ele></trkpt><trkpt lat="62.496147" lon="9.086089"><ele>775</ele></trkpt><trkpt lat="62.495659" lon="9.085212"><ele>774</ele></trkpt><trkpt lat="62.495172" lon="9.084336"><ele>773</ele></trkpt><trkpt lat="62.494684" lon="9.083459"><ele>773</ele></trkpt><trkpt lat="62.494197" lon="9.082583"><ele>772</ele></trkpt><trkpt lat="62.493710" lon="9.081706"><ele>771</ele></trkpt><trkpt lat="62.493222" lon="9.080830"><ele>771</ele></trkpt><trkpt lat="62.492735" lon="9.079953"><ele>777</ele></trkpt><trkpt lat="62.492247" lon="9.079077"><ele>773</ele></trkpt><trkpt lat="62.491760" lon="9.078201"><ele>771</ele></trkpt><trkpt lat="62.491289" lon="9.077710"><ele>756</ele></trkpt><trkpt lat="62.490826" lon="9.077413"><ele>738</ele></trkpt><trkpt lat="62.490606" lon="9.076484"><ele>722</ele></trkpt><trkpt lat="62.490565" lon="9.075519"><ele>708</ele></trkpt><trkpt lat="62.490345" lon="9.074589"><ele>694</ele></trkpt><trkpt lat="62.489858" lon="9.073713"><ele>690</ele></trkpt><trkpt lat="62.489371" lon="9.072837"><ele>690</ele></trkpt><trkpt lat="62.488883" lon="9.071961"><ele>684</ele></trkpt><trkpt lat="62.488395" lon="9.071084"><ele>683</ele></trkpt><trkpt lat="62.487924" lon="9.070594"><ele>689</ele></trkpt><trkpt lat="62.487478" lon="9.070683"><ele>698</ele></trkpt><trkpt lat="62.486991" lon="9.069807"><ele>693</ele></trkpt><trkpt lat="62.486511" lon="9.069124"><ele>692</ele></trkpt><trkpt lat="62.486024" lon="9.068248"><ele>692</ele></trkpt><trkpt lat="62.485544" lon="9.067565"><ele>693</ele></trkpt><trkpt lat="62.485065" lon="9.066882"><ele>693</ele></trkpt><trkpt lat="62.484602" lon="9.066585"><ele>696</ele></trkpt><trkpt lat="62.484131" lon="9.066095"><ele>698</ele></trkpt><trkpt lat="62.483685" lon="9.066184"><ele>708</ele></trkpt><trkpt lat="62.483238" lon="9.066273"><ele>714</ele></trkpt><trkpt lat="62.482792" lon="9.066362"><ele>729</ele></trkpt><trkpt lat="62.482321" lon="9.065872"><ele>750</ele></trkpt><trkpt lat="62.481858" lon="9.065575"><ele>769</ele></trkpt><trkpt lat="62.481403" lon="9.065471"><ele>792</ele></trkpt><trkpt lat="62.480957" lon="9.065560"><ele>795</ele></trkpt><trkpt lat="62.480511" lon="9.065649"><ele>802</ele></trkpt><trkpt lat="62.480064" lon="9.065738"><ele>816</ele></trkpt><trkpt lat="62.479618" lon="9.065827"><ele>833</ele></trkpt><trkpt lat="62.479155" lon="9.065530"><ele>850</ele></trkpt><trkpt lat="62.478709" lon="9.065619"><ele>851</ele></trkpt><trkpt lat="62.478262" lon="9.065708"><ele>864</ele></trkpt><trkpt lat="62.477816" lon="9.065797"><ele>880</ele></trkpt><trkpt lat="62.477369" lon="9.065886"><ele>896</ele></trkpt><trkpt lat="62.476907" lon="9.065589"><ele>917</ele></trkpt><trkpt lat="62.476460" lon="9.065678"><ele>931</ele></trkpt><trkpt lat="62.476014" lon="9.065766"><ele>945</ele></trkpt><trkpt lat="62.475559" lon="9.065662"><ele>960</ele></trkpt><trkpt lat="62.475072" lon="9.064787"><ele>982</ele></trkpt><trkpt lat="62.474617" lon="9.064683"><ele>1004</ele></trkpt><trkpt lat="62.474171" lon="9.064772"><ele>1018</ele></trkpt><trkpt lat="62.473700" lon="9.064282"><ele>1045</ele></trkpt><trkpt lat="62.473253" lon="9.064371"><ele>1065</ele></trkpt><trkpt lat="62.472782" lon="9.063881"><ele>1091</ele></trkpt><trkpt lat="62.472303" lon="9.063199"><ele>1126</ele></trkpt><trkpt lat="62.472172" lon="9.062252"><ele>1140</ele></trkpt><trkpt lat="62.471685" lon="9.061376"><ele>1168</ele></trkpt><trkpt lat="62.471214" lon="9.060887"><ele>1190</ele></trkpt><trkpt lat="62.470767" lon="9.060976"><ele>1210</ele></trkpt><trkpt lat="62.470346" lon="9.061643"><ele>1229</ele></trkpt><trkpt lat="62.469899" lon="9.061732"><ele>1255</ele></trkpt><trkpt lat="62.469436" lon="9.061435"><ele>1285</ele></trkpt><trkpt lat="62.469023" lon="9.062296"><ele>1308</ele></trkpt><trkpt lat="62.468618" lon="9.063349"><ele>1323</ele></trkpt><trkpt lat="62.468212" lon="9.064402"><ele>1331</ele></trkpt><trkpt lat="62.467807" lon="9.065456"><ele>1338</ele></trkpt><trkpt lat="62.467402" lon="9.066509"><ele>1350</ele></trkpt><trkpt lat="62.466972" lon="9.066983"><ele>1372</ele></trkpt><trkpt lat="62.466526" lon="9.067072"><ele>1385</ele></trkpt><trkpt lat="62.466096" lon="9.067547"><ele>1397</ele></trkpt><trkpt lat="62.465641" lon="9.067443"><ele>1414</ele></trkpt><trkpt lat="62.465195" lon="9.067532"><ele>1427</ele></trkpt><trkpt lat="62.464748" lon="9.067620"><ele>1436</ele></trkpt><trkpt lat="62.464302" lon="9.067709"><ele>1439</ele></trkpt><trkpt lat="62.463855" lon="9.067798"><ele>1440</ele></trkpt><trkpt lat="62.463409" lon="9.067887"><ele>1441</ele></trkpt><trkpt lat="62.462963" lon="9.067976"><ele>1440</ele></trkpt><trkpt lat="62.462516" lon="9.068065"><ele>1440</ele></trkpt><trkpt lat="62.462070" lon="9.068153"><ele>1439</ele></trkpt><trkpt lat="62.461623" lon="9.068242"><ele>1440</ele></trkpt><trkpt lat="62.461177" lon="9.068331"><ele>1446</ele></trkpt><trkpt lat="62.460731" lon="9.068420"><ele>1448</ele></trkpt><trkpt lat="62.460284" lon="9.068509"><ele>1450</ele></trkpt><trkpt lat="62.459838" lon="9.068598"><ele>1455</ele></trkpt><trkpt lat="62.459391" lon="9.068686"><ele>1458</ele></trkpt><trkpt lat="62.458945" lon="9.068775"><ele>1458</ele></trkpt><trkpt lat="62.458499" lon="9.068864"><ele>1458</ele></trkpt><trkpt lat="62.458052" lon="9.068953"><ele>1458</ele></trkpt><trkpt lat="62.457606" lon="9.069042"><ele>1455</ele></trkpt><trkpt lat="62.457160" lon="9.069130"><ele>1455</ele></trkpt><trkpt lat="62.456713" lon="9.069219"><ele>1461</ele></trkpt><trkpt lat="62.456267" lon="9.069308"><ele>1467</ele></trkpt><trkpt lat="62.455820" lon="9.069397"><ele>1469</ele></trkpt><trkpt lat="62.455374" lon="9.069486"><ele>1474</ele></trkpt><trkpt lat="62.454928" lon="9.069574"><ele>1479</ele></trkpt><trkpt lat="62.454481" lon="9.069663"><ele>1485</ele></trkpt><trkpt lat="62.454035" lon="9.069752"><ele>1495</ele></trkpt><trkpt lat="62.453588" lon="9.069841"><ele>1503</ele></trkpt><trkpt lat="62.453142" lon="9.069929"><ele>1508</ele></trkpt><trkpt lat="62.452696" lon="9.070018"><ele>1514</ele></trkpt><trkpt lat="62.452249" lon="9.070107"><ele>1523</ele></trkpt><trkpt lat="62.451803" lon="9.070196"><ele>1531</ele></trkpt><trkpt lat="62.451356" lon="9.070284"><ele>1538</ele></trkpt><trkpt lat="62.450910" lon="9.070373"><ele>1544</ele></trkpt><trkpt lat="62.450464" lon="9.070462"><ele>1548</ele></trkpt><trkpt lat="62.450017" lon="9.070551"><ele>1554</ele></trkpt><trkpt lat="62.449571" lon="9.070639"><ele>1558</ele></trkpt><trkpt lat="62.449124" lon="9.070728"><ele>1561</ele></trkpt><trkpt lat="62.448678" lon="9.070817"><ele>1561</ele></trkpt><trkpt lat="62.448232" lon="9.070906"><ele>1563</ele></trkpt><trkpt lat="62.447785" lon="9.070994"><ele>1565</ele></trkpt><trkpt lat="62.447339" lon="9.071083"><ele>1566</ele></trkpt><trkpt lat="62.446892" lon="9.071172"><ele>1567</ele></trkpt><trkpt lat="62.446446" lon="9.071261"><ele>1568</ele></trkpt><trkpt lat="62.446000" lon="9.071349"><ele>1576</ele></trkpt><trkpt lat="62.445553" lon="9.071438"><ele>1589</ele></trkpt><trkpt lat="62.445107" lon="9.071527"><ele>1600</ele></trkpt><trkpt lat="62.444660" lon="9.071615"><ele>1617</ele></trkpt><trkpt lat="62.444214" lon="9.071704"><ele>1633</ele></trkpt><trkpt lat="62.443768" lon="9.071793"><ele>1651</ele></trkpt><trkpt lat="62.443321" lon="9.071881"><ele>1668</ele></trkpt><trkpt lat="62.442875" lon="9.071970"><ele>1683</ele></trkpt><trkpt lat="62.442428" lon="9.072059"><ele>1695</ele></trkpt><trkpt lat="62.441982" lon="9.072148"><ele>1704</ele></trkpt><trkpt lat="62.441536" lon="9.072236"><ele>1715</ele></trkpt><trkpt lat="62.441089" lon="9.072325"><ele>1728</ele></trkpt><trkpt lat="62.440643" lon="9.072414"><ele>1739</ele></trkpt><trkpt lat="62.440196" lon="9.072502"><ele>1747</ele></trkpt><trkpt lat="62.439750" lon="9.072591"><ele>1754</ele></trkpt><trkpt lat="62.439304" lon="9.072680"><ele>1761</ele></trkpt><trkpt lat="62.438857" lon="9.072768"><ele>1765</ele></trkpt><trkpt lat="62.438411" lon="9.072857"><ele>1764</ele></trkpt><trkpt lat="62.437964" lon="9.072946"><ele>1760</ele></trkpt><trkpt lat="62.437518" lon="9.073034"><ele>1757</ele></trkpt><trkpt lat="62.437072" lon="9.073123"><ele>1753</ele></trkpt><trkpt lat="62.436625" lon="9.073212"><ele>1751</ele></trkpt><trkpt lat="62.436179" lon="9.073300"><ele>1750</ele></trkpt><trkpt lat="62.435732" lon="9.073389"><ele>1751</ele></trkpt><trkpt lat="62.435286" lon="9.073478"><ele>1752</ele></trkpt><trkpt lat="62.434840" lon="9.073566"><ele>1753</ele></trkpt><trkpt lat="62.434393" lon="9.073655"><ele>1754</ele></trkpt><trkpt lat="62.433947" lon="9.073744"><ele>1755</ele></trkpt><trkpt lat="62.433500" lon="9.073832"><ele>1757</ele></trkpt><trkpt lat="62.433054" lon="9.073921"><ele>1760</ele></trkpt><trkpt lat="62.432608" lon="9.074009"><ele>1763</ele></trkpt><trkpt lat="62.432161" lon="9.074098"><ele>1770</ele></trkpt><trkpt lat="62.431715" lon="9.074187"><ele>1776</ele></trkpt><trkpt lat="62.431268" lon="9.074275"><ele>1780</ele></trkpt><trkpt lat="62.430822" lon="9.074364"><ele>1784</ele></trkpt><trkpt lat="62.430376" lon="9.074453"><ele>1786</ele></trkpt><trkpt lat="62.429929" lon="9.074541"><ele>1788</ele></trkpt><trkpt lat="62.429483" lon="9.074630"><ele>1789</ele></trkpt><trkpt lat="62.429036" lon="9.074718"><ele>1788</ele></trkpt><trkpt lat="62.428590" lon="9.074807"><ele>1787</ele></trkpt><trkpt lat="62.428144" lon="9.074896"><ele>1784</ele></trkpt><trkpt lat="62.427697" lon="9.074984"><ele>1781</ele></trkpt><trkpt lat="62.427251" lon="9.075073"><ele>1776</ele></trkpt><trkpt lat="62.426804" lon="9.075161"><ele>1771</ele></trkpt><trkpt lat="62.426358" lon="9.075250"><ele>1766</ele></trkpt><trkpt lat="62.425912" lon="9.075339"><ele>1760</ele></trkpt><trkpt lat="62.425465" lon="9.075427"><ele>1756</ele></trkpt><trkpt lat="62.425019" lon="9.075516"><ele>1751</ele></trkpt><trkpt lat="62.424572" lon="9.075604"><ele>1745</ele></trkpt><trkpt lat="62.424126" lon="9.075693"><ele>1740</ele></trkpt><trkpt lat="62.423680" lon="9.075781"><ele>1734</ele></trkpt><trkpt lat="62.423233" lon="9.075870"><ele>1727</ele></trkpt><trkpt lat="62.422787" lon="9.075959"><ele>1722</ele></trkpt><trkpt lat="62.422340" lon="9.076047"><ele>1713</ele></trkpt><trkpt lat="62.421902" lon="9.076328"><ele>1708</ele></trkpt><trkpt lat="62.421489" lon="9.077187"><ele>1709</ele></trkpt><trkpt lat="62.421059" lon="9.077661"><ele>1708</ele></trkpt><trkpt lat="62.420620" lon="9.077942"><ele>1703</ele></trkpt><trkpt lat="62.420174" lon="9.078030"><ele>1697</ele></trkpt><trkpt lat="62.419728" lon="9.078119"><ele>1697</ele></trkpt><trkpt lat="62.419281" lon="9.078207"><ele>1695</ele></trkpt><trkpt lat="62.418835" lon="9.078296"><ele>1692</ele></trkpt><trkpt lat="62.418388" lon="9.078384"><ele>1687</ele></trkpt><trkpt lat="62.417942" lon="9.078473"><ele>1679</ele></trkpt><trkpt lat="62.417496" lon="9.078561"><ele>1670</ele></trkpt><trkpt lat="62.417024" lon="9.078072"><ele>1654</ele></trkpt><trkpt lat="62.416537" lon="9.077198"><ele>1637</ele></trkpt><trkpt lat="62.416082" lon="9.077094"><ele>1624</ele></trkpt><trkpt lat="62.415636" lon="9.077183"><ele>1617</ele></trkpt><trkpt lat="62.415181" lon="9.077079"><ele>1605</ele></trkpt><trkpt lat="62.414694" lon="9.076204"><ele>1598</ele></trkpt><trkpt lat="62.414215" lon="9.075523"><ele>1583</ele></trkpt><trkpt lat="62.413727" lon="9.074649"><ele>1593</ele></trkpt><trkpt lat="62.413240" lon="9.073775"><ele>1620</ele></trkpt><trkpt lat="62.412785" lon="9.073671"><ele>1630</ele></trkpt><trkpt lat="62.412298" lon="9.072797"><ele>1645</ele></trkpt><trkpt lat="62.411810" lon="9.071923"><ele>1660</ele></trkpt><trkpt lat="62.411323" lon="9.071049"><ele>1676</ele></trkpt><trkpt lat="62.410835" lon="9.070175"><ele>1685</ele></trkpt><trkpt lat="62.410348" lon="9.069301"><ele>1690</ele></trkpt><trkpt lat="62.409860" lon="9.068427"><ele>1695</ele></trkpt><trkpt lat="62.409373" lon="9.067554"><ele>1698</ele></trkpt><trkpt lat="62.408885" lon="9.066680"><ele>1705</ele></trkpt><trkpt lat="62.408398" lon="9.065806"><ele>1718</ele></trkpt><trkpt lat="62.407910" lon="9.064932"><ele>1723</ele></trkpt><trkpt lat="62.407423" lon="9.064059"><ele>1732</ele></trkpt><trkpt lat="62.406935" lon="9.063185"><ele>1739</ele></trkpt><trkpt lat="62.406448" lon="9.062311"><ele>1755</ele></trkpt><trkpt lat="62.405960" lon="9.061438"><ele>1767</ele></trkpt><trkpt lat="62.405472" lon="9.060564"><ele>1775</ele></trkpt><trkpt lat="62.405277" lon="9.060215"><ele>1776</ele></trkpt></trkseg></trk></gpx>