<?xml version="1.0" encoding="UTF-8"?>
<gpx version="1.1" creator="Rando toppturs" xmlns="http://www.topografix.com/GPX/1/1"><metadata><name>144 Ytter Åmotshytten 1457 m</name><desc>This is an automatically generated list. I have not checked them all. Do not attempt these if you're a beginner. Generated 2026-09-13 17:42 from Kartverket 10 m terrain. Ascent lines are least-cost terrain paths under 35°, not verified routes. Not a snow-stability assessment.</desc></metadata><wpt lat="62.451926" lon="9.530006"><ele>1267</ele><name>Car · Ytter Åmotshytten 1457 m</name></wpt><wpt lat="62.415200" lon="9.325563"><ele>1457</ele><name>Ytter Åmotshytten 1457 m</name></wpt><trk><name>Up · Ytter Åmotshytten 1457 m</name><desc>least-cost ascent: +723 m over 12306 m, max 22°, 0.0% on 30–35°, ≈4.88 h at 4 km/h + 400 m/h. Terrain possibility, not a checked route.</desc><trkseg><trkpt lat="62.451926" lon="9.530006"><ele>1267</ele></trkpt><trkpt lat="62.451709" lon="9.529074"><ele>1272</ele></trkpt><trkpt lat="62.451582" lon="9.528126"><ele>1277</ele></trkpt><trkpt lat="62.451097" lon="9.527243"><ele>1282</ele></trkpt><trkpt lat="62.450613" lon="9.526361"><ele>1285</ele></trkpt><trkpt lat="62.450128" lon="9.525478"><ele>1288</ele></trkpt><trkpt lat="62.449643" lon="9.524596"><ele>1292</ele></trkpt><trkpt lat="62.449159" lon="9.523713"><ele>1297</ele></trkpt><trkpt lat="62.448674" lon="9.522831"><ele>1302</ele></trkpt><trkpt lat="62.448189" lon="9.521948"><ele>1309</ele></trkpt><trkpt lat="62.447704" lon="9.521066"><ele>1319</ele></trkpt><trkpt lat="62.447220" lon="9.520183"><ele>1323</ele></trkpt><trkpt lat="62.446735" lon="9.519301"><ele>1329</ele></trkpt><trkpt lat="62.446250" lon="9.518419"><ele>1333</ele></trkpt><trkpt lat="62.445765" lon="9.517536"><ele>1343</ele></trkpt><trkpt lat="62.445281" lon="9.516654"><ele>1351</ele></trkpt><trkpt lat="62.444796" lon="9.515772"><ele>1359</ele></trkpt><trkpt lat="62.444311" lon="9.514890"><ele>1367</ele></trkpt><trkpt lat="62.443826" lon="9.514007"><ele>1378</ele></trkpt><trkpt lat="62.443520" lon="9.513092"><ele>1384</ele></trkpt><trkpt lat="62.443482" lon="9.512128"><ele>1388</ele></trkpt><trkpt lat="62.443444" lon="9.511164"><ele>1390</ele></trkpt><trkpt lat="62.443406" lon="9.510200"><ele>1394</ele></trkpt><trkpt lat="62.443368" lon="9.509235"><ele>1398</ele></trkpt><trkpt lat="62.443330" lon="9.508271"><ele>1403</ele></trkpt><trkpt lat="62.443292" lon="9.507307"><ele>1399</ele></trkpt><trkpt lat="62.443254" lon="9.506343"><ele>1398</ele></trkpt><trkpt lat="62.443216" lon="9.505378"><ele>1396</ele></trkpt><trkpt lat="62.443178" lon="9.504414"><ele>1399</ele></trkpt><trkpt lat="62.443139" lon="9.503450"><ele>1402</ele></trkpt><trkpt lat="62.443101" lon="9.502485"><ele>1402</ele></trkpt><trkpt lat="62.443063" lon="9.501521"><ele>1403</ele></trkpt><trkpt lat="62.443025" lon="9.500557"><ele>1402</ele></trkpt><trkpt lat="62.442987" lon="9.499593"><ele>1403</ele></trkpt><trkpt lat="62.442949" lon="9.498628"><ele>1401</ele></trkpt><trkpt lat="62.442911" lon="9.497664"><ele>1402</ele></trkpt><trkpt lat="62.442872" lon="9.496700"><ele>1404</ele></trkpt><trkpt lat="62.442834" lon="9.495736"><ele>1403</ele></trkpt><trkpt lat="62.442796" lon="9.494772"><ele>1402</ele></trkpt><trkpt lat="62.442758" lon="9.493807"><ele>1403</ele></trkpt><trkpt lat="62.442720" lon="9.492843"><ele>1404</ele></trkpt><trkpt lat="62.442682" lon="9.491879"><ele>1406</ele></trkpt><trkpt lat="62.442643" lon="9.490915"><ele>1404</ele></trkpt><trkpt lat="62.442605" lon="9.489950"><ele>1400</ele></trkpt><trkpt lat="62.442567" lon="9.488986"><ele>1394</ele></trkpt><trkpt lat="62.442439" lon="9.488038"><ele>1388</ele></trkpt><trkpt lat="62.442401" lon="9.487074"><ele>1383</ele></trkpt><trkpt lat="62.442363" lon="9.486110"><ele>1375</ele></trkpt><trkpt lat="62.442325" lon="9.485146"><ele>1370</ele></trkpt><trkpt lat="62.442286" lon="9.484182"><ele>1365</ele></trkpt><trkpt lat="62.442248" lon="9.483217"><ele>1356</ele></trkpt><trkpt lat="62.442210" lon="9.482253"><ele>1349</ele></trkpt><trkpt lat="62.442172" lon="9.481289"><ele>1342</ele></trkpt><trkpt lat="62.442133" lon="9.480325"><ele>1336</ele></trkpt><trkpt lat="62.442095" lon="9.479361"><ele>1330</ele></trkpt><trkpt lat="62.442057" lon="9.478397"><ele>1328</ele></trkpt><trkpt lat="62.441840" lon="9.477465"><ele>1316</ele></trkpt><trkpt lat="62.441802" lon="9.476501"><ele>1310</ele></trkpt><trkpt lat="62.441763" lon="9.475537"><ele>1307</ele></trkpt><trkpt lat="62.441725" lon="9.474573"><ele>1308</ele></trkpt><trkpt lat="62.441687" lon="9.473609"><ele>1307</ele></trkpt><trkpt lat="62.441648" lon="9.472645"><ele>1301</ele></trkpt><trkpt lat="62.441610" lon="9.471680"><ele>1303</ele></trkpt><trkpt lat="62.441572" lon="9.470716"><ele>1307</ele></trkpt><trkpt lat="62.441533" lon="9.469752"><ele>1307</ele></trkpt><trkpt lat="62.441495" lon="9.468788"><ele>1308</ele></trkpt><trkpt lat="62.441457" lon="9.467824"><ele>1307</ele></trkpt><trkpt lat="62.441418" lon="9.466860"><ele>1308</ele></trkpt><trkpt lat="62.441380" lon="9.465896"><ele>1310</ele></trkpt><trkpt lat="62.441342" lon="9.464931"><ele>1312</ele></trkpt><trkpt lat="62.441303" lon="9.463967"><ele>1314</ele></trkpt><trkpt lat="62.441265" lon="9.463003"><ele>1314</ele></trkpt><trkpt lat="62.441226" lon="9.462039"><ele>1314</ele></trkpt><trkpt lat="62.441188" lon="9.461075"><ele>1315</ele></trkpt><trkpt lat="62.441150" lon="9.460111"><ele>1313</ele></trkpt><trkpt lat="62.441111" lon="9.459147"><ele>1308</ele></trkpt><trkpt lat="62.441073" lon="9.458183"><ele>1305</ele></trkpt><trkpt lat="62.441034" lon="9.457218"><ele>1308</ele></trkpt><trkpt lat="62.440996" lon="9.456254"><ele>1317</ele></trkpt><trkpt lat="62.440957" lon="9.455290"><ele>1322</ele></trkpt><trkpt lat="62.440919" lon="9.454326"><ele>1326</ele></trkpt><trkpt lat="62.440881" lon="9.453362"><ele>1331</ele></trkpt><trkpt lat="62.440842" lon="9.452398"><ele>1336</ele></trkpt><trkpt lat="62.440804" lon="9.451434"><ele>1341</ele></trkpt><trkpt lat="62.440765" lon="9.450470"><ele>1347</ele></trkpt><trkpt lat="62.440727" lon="9.449506"><ele>1350</ele></trkpt><trkpt lat="62.440688" lon="9.448542"><ele>1353</ele></trkpt><trkpt lat="62.440650" lon="9.447577"><ele>1355</ele></trkpt><trkpt lat="62.440611" lon="9.446613"><ele>1356</ele></trkpt><trkpt lat="62.440573" lon="9.445649"><ele>1357</ele></trkpt><trkpt lat="62.440534" lon="9.444685"><ele>1358</ele></trkpt><trkpt lat="62.440496" lon="9.443721"><ele>1360</ele></trkpt><trkpt lat="62.440457" lon="9.442757"><ele>1362</ele></trkpt><trkpt lat="62.440419" lon="9.441793"><ele>1362</ele></trkpt><trkpt lat="62.440380" lon="9.440829"><ele>1364</ele></trkpt><trkpt lat="62.440342" lon="9.439865"><ele>1365</ele></trkpt><trkpt lat="62.440214" lon="9.438917"><ele>1363</ele></trkpt><trkpt lat="62.440175" lon="9.437953"><ele>1361</ele></trkpt><trkpt lat="62.440137" lon="9.436989"><ele>1358</ele></trkpt><trkpt lat="62.440098" lon="9.436025"><ele>1354</ele></trkpt><trkpt lat="62.440059" lon="9.435061"><ele>1351</ele></trkpt><trkpt lat="62.440021" lon="9.434097"><ele>1345</ele></trkpt><trkpt lat="62.439982" lon="9.433133"><ele>1339</ele></trkpt><trkpt lat="62.439944" lon="9.432169"><ele>1336</ele></trkpt><trkpt lat="62.439905" lon="9.431205"><ele>1333</ele></trkpt><trkpt lat="62.439866" lon="9.430241"><ele>1332</ele></trkpt><trkpt lat="62.439828" lon="9.429277"><ele>1331</ele></trkpt><trkpt lat="62.439789" lon="9.428313"><ele>1332</ele></trkpt><trkpt lat="62.439750" lon="9.427349"><ele>1334</ele></trkpt><trkpt lat="62.439712" lon="9.426385"><ele>1334</ele></trkpt><trkpt lat="62.439673" lon="9.425421"><ele>1334</ele></trkpt><trkpt lat="62.439635" lon="9.424457"><ele>1332</ele></trkpt><trkpt lat="62.439507" lon="9.423510"><ele>1334</ele></trkpt><trkpt lat="62.439021" lon="9.422629"><ele>1346</ele></trkpt><trkpt lat="62.438536" lon="9.421749"><ele>1358</ele></trkpt><trkpt lat="62.438140" lon="9.420851"><ele>1371</ele></trkpt><trkpt lat="62.438101" lon="9.419887"><ele>1375</ele></trkpt><trkpt lat="62.437794" lon="9.418974"><ele>1384</ele></trkpt><trkpt lat="62.437488" lon="9.418060"><ele>1401</ele></trkpt><trkpt lat="62.437449" lon="9.417096"><ele>1412</ele></trkpt><trkpt lat="62.437410" lon="9.416132"><ele>1421</ele></trkpt><trkpt lat="62.437372" lon="9.415168"><ele>1430</ele></trkpt><trkpt lat="62.437333" lon="9.414204"><ele>1437</ele></trkpt><trkpt lat="62.437294" lon="9.413240"><ele>1447</ele></trkpt><trkpt lat="62.437255" lon="9.412276"><ele>1457</ele></trkpt><trkpt lat="62.437217" lon="9.411312"><ele>1465</ele></trkpt><trkpt lat="62.437178" lon="9.410348"><ele>1470</ele></trkpt><trkpt lat="62.437139" lon="9.409384"><ele>1467</ele></trkpt><trkpt lat="62.437100" lon="9.408420"><ele>1459</ele></trkpt><trkpt lat="62.437062" lon="9.407457"><ele>1446</ele></trkpt><trkpt lat="62.437023" lon="9.406493"><ele>1431</ele></trkpt><trkpt lat="62.436984" lon="9.405529"><ele>1416</ele></trkpt><trkpt lat="62.436945" lon="9.404565"><ele>1402</ele></trkpt><trkpt lat="62.436907" lon="9.403601"><ele>1391</ele></trkpt><trkpt lat="62.436868" lon="9.402637"><ele>1381</ele></trkpt><trkpt lat="62.436650" lon="9.401707"><ele>1373</ele></trkpt><trkpt lat="62.436254" lon="9.400810"><ele>1367</ele></trkpt><trkpt lat="62.435858" lon="9.399913"><ele>1357</ele></trkpt><trkpt lat="62.435819" lon="9.398949"><ele>1346</ele></trkpt><trkpt lat="62.435423" lon="9.398052"><ele>1344</ele></trkpt><trkpt lat="62.435205" lon="9.397122"><ele>1334</ele></trkpt><trkpt lat="62.434988" lon="9.396192"><ele>1324</ele></trkpt><trkpt lat="62.434860" lon="9.395245"><ele>1312</ele></trkpt><trkpt lat="62.434642" lon="9.394314"><ele>1306</ele></trkpt><trkpt lat="62.434603" lon="9.393351"><ele>1295</ele></trkpt><trkpt lat="62.434386" lon="9.392420"><ele>1285</ele></trkpt><trkpt lat="62.433900" lon="9.391540"><ele>1282</ele></trkpt><trkpt lat="62.433593" lon="9.390627"><ele>1272</ele></trkpt><trkpt lat="62.433376" lon="9.389697"><ele>1279</ele></trkpt><trkpt lat="62.433337" lon="9.388733"><ele>1275</ele></trkpt><trkpt lat="62.433298" lon="9.387769"><ele>1274</ele></trkpt><trkpt lat="62.433259" lon="9.386806"><ele>1275</ele></trkpt><trkpt lat="62.433220" lon="9.385842"><ele>1274</ele></trkpt><trkpt lat="62.433181" lon="9.384878"><ele>1275</ele></trkpt><trkpt lat="62.433142" lon="9.383914"><ele>1273</ele></trkpt><trkpt lat="62.433103" lon="9.382951"><ele>1276</ele></trkpt><trkpt lat="62.433065" lon="9.381987"><ele>1279</ele></trkpt><trkpt lat="62.433026" lon="9.381023"><ele>1276</ele></trkpt><trkpt lat="62.432987" lon="9.380059"><ele>1277</ele></trkpt><trkpt lat="62.432948" lon="9.379096"><ele>1278</ele></trkpt><trkpt lat="62.432462" lon="9.378216"><ele>1281</ele></trkpt><trkpt lat="62.431976" lon="9.377337"><ele>1283</ele></trkpt><trkpt lat="62.431491" lon="9.376457"><ele>1283</ele></trkpt><trkpt lat="62.431005" lon="9.375577"><ele>1285</ele></trkpt><trkpt lat="62.430520" lon="9.374698"><ele>1291</ele></trkpt><trkpt lat="62.430034" lon="9.373818"><ele>1297</ele></trkpt><trkpt lat="62.429548" lon="9.372939"><ele>1306</ele></trkpt><trkpt lat="62.429063" lon="9.372060"><ele>1313</ele></trkpt><trkpt lat="62.428577" lon="9.371180"><ele>1329</ele></trkpt><trkpt lat="62.428359" lon="9.370250"><ele>1340</ele></trkpt><trkpt lat="62.428052" lon="9.369337"><ele>1345</ele></trkpt><trkpt lat="62.427567" lon="9.368458"><ele>1355</ele></trkpt><trkpt lat="62.427349" lon="9.367528"><ele>1357</ele></trkpt><trkpt lat="62.427042" lon="9.366615"><ele>1363</ele></trkpt><trkpt lat="62.426913" lon="9.365668"><ele>1360</ele></trkpt><trkpt lat="62.426517" lon="9.364772"><ele>1366</ele></trkpt><trkpt lat="62.426389" lon="9.363826"><ele>1361</ele></trkpt><trkpt lat="62.425903" lon="9.362946"><ele>1359</ele></trkpt><trkpt lat="62.425417" lon="9.362067"><ele>1358</ele></trkpt><trkpt lat="62.424932" lon="9.361188"><ele>1369</ele></trkpt><trkpt lat="62.424446" lon="9.360309"><ele>1370</ele></trkpt><trkpt lat="62.423960" lon="9.359430"><ele>1372</ele></trkpt><trkpt lat="62.423564" lon="9.358534"><ele>1371</ele></trkpt><trkpt lat="62.423257" lon="9.357621"><ele>1369</ele></trkpt><trkpt lat="62.422771" lon="9.356742"><ele>1378</ele></trkpt><trkpt lat="62.422285" lon="9.355863"><ele>1389</ele></trkpt><trkpt lat="62.421799" lon="9.354984"><ele>1403</ele></trkpt><trkpt lat="62.421671" lon="9.354038"><ele>1403</ele></trkpt><trkpt lat="62.421453" lon="9.353108"><ele>1407</ele></trkpt><trkpt lat="62.421235" lon="9.352179"><ele>1410</ele></trkpt><trkpt lat="62.421018" lon="9.351249"><ele>1412</ele></trkpt><trkpt lat="62.420978" lon="9.350286"><ele>1408</ele></trkpt><trkpt lat="62.420850" lon="9.349340"><ele>1407</ele></trkpt><trkpt lat="62.420721" lon="9.348393"><ele>1404</ele></trkpt><trkpt lat="62.420682" lon="9.347430"><ele>1399</ele></trkpt><trkpt lat="62.420464" lon="9.346501"><ele>1397</ele></trkpt><trkpt lat="62.420247" lon="9.345571"><ele>1395</ele></trkpt><trkpt lat="62.420118" lon="9.344625"><ele>1391</ele></trkpt><trkpt lat="62.419811" lon="9.343712"><ele>1390</ele></trkpt><trkpt lat="62.419772" lon="9.342749"><ele>1379</ele></trkpt><trkpt lat="62.419732" lon="9.341786"><ele>1368</ele></trkpt><trkpt lat="62.419604" lon="9.340839"><ele>1357</ele></trkpt><trkpt lat="62.419475" lon="9.339893"><ele>1348</ele></trkpt><trkpt lat="62.419257" lon="9.338964"><ele>1341</ele></trkpt><trkpt lat="62.418950" lon="9.338051"><ele>1335</ele></trkpt><trkpt lat="62.418643" lon="9.337139"><ele>1335</ele></trkpt><trkpt lat="62.418246" lon="9.336243"><ele>1334</ele></trkpt><trkpt lat="62.417761" lon="9.335365"><ele>1331</ele></trkpt><trkpt lat="62.417453" lon="9.334453"><ele>1332</ele></trkpt><trkpt lat="62.417057" lon="9.333557"><ele>1339</ele></trkpt><trkpt lat="62.416839" lon="9.332628"><ele>1346</ele></trkpt><trkpt lat="62.416621" lon="9.331699"><ele>1359</ele></trkpt><trkpt lat="62.416582" lon="9.330736"><ele>1366</ele></trkpt><trkpt lat="62.416185" lon="9.329840"><ele>1380</ele></trkpt><trkpt lat="62.415699" lon="9.328962"><ele>1395</ele></trkpt><trkpt lat="62.415213" lon="9.328084"><ele>1414</ele></trkpt><trkpt lat="62.415174" lon="9.327121"><ele>1430</ele></trkpt><trkpt lat="62.415135" lon="9.326158"><ele>1444</ele></trkpt><trkpt lat="62.415200" lon="9.325563"><ele>1457</ele></trkpt></trkseg></trk></gpx>