<?xml version="1.0" encoding="UTF-8"?>
<gpx version="1.1" creator="Rando toppturs" xmlns="http://www.topografix.com/GPX/1/1"><metadata><name>145 Tythøkollen 1668 m</name><desc>Generated 2026-09-13 17:42 from Kartverket 10 m terrain. Ascent lines are least-cost terrain paths under 35°, not verified routes. Not a snow-stability assessment.</desc></metadata><wpt lat="62.451926" lon="9.530006"><ele>1267</ele><name>Car · Tythøkollen 1668 m</name></wpt><wpt lat="62.416379" lon="9.464121"><ele>1668</ele><name>Tythøkollen 1668 m</name></wpt><trk><name>Up · Tythøkollen 1668 m</name><desc>least-cost ascent: +479 m over 5294 m, max 24°, 0.0% on 30–35°, ≈2.52 h at 4 km/h + 400 m/h. Terrain possibility, not a checked route.</desc><trkseg><trkpt lat="62.451926" lon="9.530006"><ele>1267</ele></trkpt><trkpt lat="62.451709" lon="9.529074"><ele>1272</ele></trkpt><trkpt lat="62.451225" lon="9.528192"><ele>1278</ele></trkpt><trkpt lat="62.450740" lon="9.527309"><ele>1281</ele></trkpt><trkpt lat="62.450255" lon="9.526426"><ele>1285</ele></trkpt><trkpt lat="62.449771" lon="9.525544"><ele>1290</ele></trkpt><trkpt lat="62.449286" lon="9.524661"><ele>1294</ele></trkpt><trkpt lat="62.448801" lon="9.523779"><ele>1299</ele></trkpt><trkpt lat="62.448316" lon="9.522896"><ele>1305</ele></trkpt><trkpt lat="62.447832" lon="9.522014"><ele>1314</ele></trkpt><trkpt lat="62.447347" lon="9.521131"><ele>1320</ele></trkpt><trkpt lat="62.446862" lon="9.520249"><ele>1329</ele></trkpt><trkpt lat="62.446377" lon="9.519367"><ele>1331</ele></trkpt><trkpt lat="62.445893" lon="9.518484"><ele>1338</ele></trkpt><trkpt lat="62.445408" lon="9.517602"><ele>1347</ele></trkpt><trkpt lat="62.444923" lon="9.516720"><ele>1356</ele></trkpt><trkpt lat="62.444438" lon="9.515838"><ele>1364</ele></trkpt><trkpt lat="62.443954" lon="9.514955"><ele>1373</ele></trkpt><trkpt lat="62.443469" lon="9.514073"><ele>1383</ele></trkpt><trkpt lat="62.443163" lon="9.513158"><ele>1394</ele></trkpt><trkpt lat="62.442678" lon="9.512276"><ele>1409</ele></trkpt><trkpt lat="62.442193" lon="9.511394"><ele>1417</ele></trkpt><trkpt lat="62.441708" lon="9.510512"><ele>1424</ele></trkpt><trkpt lat="62.441224" lon="9.509630"><ele>1431</ele></trkpt><trkpt lat="62.440739" lon="9.508748"><ele>1433</ele></trkpt><trkpt lat="62.440254" lon="9.507866"><ele>1433</ele></trkpt><trkpt lat="62.439769" lon="9.506984"><ele>1433</ele></trkpt><trkpt lat="62.439284" lon="9.506102"><ele>1433</ele></trkpt><trkpt lat="62.438799" lon="9.505220"><ele>1435</ele></trkpt><trkpt lat="62.438315" lon="9.504338"><ele>1435</ele></trkpt><trkpt lat="62.437830" lon="9.503456"><ele>1434</ele></trkpt><trkpt lat="62.437345" lon="9.502574"><ele>1433</ele></trkpt><trkpt lat="62.436860" lon="9.501693"><ele>1430</ele></trkpt><trkpt lat="62.436375" lon="9.500811"><ele>1426</ele></trkpt><trkpt lat="62.435890" lon="9.499929"><ele>1420</ele></trkpt><trkpt lat="62.435406" lon="9.499047"><ele>1415</ele></trkpt><trkpt lat="62.434921" lon="9.498166"><ele>1410</ele></trkpt><trkpt lat="62.434436" lon="9.497284"><ele>1407</ele></trkpt><trkpt lat="62.433951" lon="9.496402"><ele>1400</ele></trkpt><trkpt lat="62.433466" lon="9.495521"><ele>1393</ele></trkpt><trkpt lat="62.432981" lon="9.494639"><ele>1387</ele></trkpt><trkpt lat="62.432496" lon="9.493758"><ele>1378</ele></trkpt><trkpt lat="62.432011" lon="9.492876"><ele>1370</ele></trkpt><trkpt lat="62.431526" lon="9.491995"><ele>1364</ele></trkpt><trkpt lat="62.431041" lon="9.491113"><ele>1365</ele></trkpt><trkpt lat="62.430557" lon="9.490232"><ele>1372</ele></trkpt><trkpt lat="62.430072" lon="9.489350"><ele>1372</ele></trkpt><trkpt lat="62.429587" lon="9.488469"><ele>1370</ele></trkpt><trkpt lat="62.429102" lon="9.487588"><ele>1370</ele></trkpt><trkpt lat="62.428617" lon="9.486706"><ele>1371</ele></trkpt><trkpt lat="62.428132" lon="9.485825"><ele>1377</ele></trkpt><trkpt lat="62.427647" lon="9.484944"><ele>1387</ele></trkpt><trkpt lat="62.427162" lon="9.484063"><ele>1396</ele></trkpt><trkpt lat="62.426677" lon="9.483181"><ele>1404</ele></trkpt><trkpt lat="62.426192" lon="9.482300"><ele>1411</ele></trkpt><trkpt lat="62.425707" lon="9.481419"><ele>1417</ele></trkpt><trkpt lat="62.425222" lon="9.480538"><ele>1428</ele></trkpt><trkpt lat="62.424826" lon="9.479640"><ele>1445</ele></trkpt><trkpt lat="62.424431" lon="9.478743"><ele>1458</ele></trkpt><trkpt lat="62.423946" lon="9.477862"><ele>1467</ele></trkpt><trkpt lat="62.423461" lon="9.476981"><ele>1478</ele></trkpt><trkpt lat="62.422976" lon="9.476100"><ele>1486</ele></trkpt><trkpt lat="62.422491" lon="9.475219"><ele>1489</ele></trkpt><trkpt lat="62.422006" lon="9.474338"><ele>1498</ele></trkpt><trkpt lat="62.421521" lon="9.473457"><ele>1510</ele></trkpt><trkpt lat="62.421036" lon="9.472576"><ele>1526</ele></trkpt><trkpt lat="62.420551" lon="9.471695"><ele>1542</ele></trkpt><trkpt lat="62.420066" lon="9.470814"><ele>1553</ele></trkpt><trkpt lat="62.419581" lon="9.469934"><ele>1573</ele></trkpt><trkpt lat="62.419095" lon="9.469053"><ele>1594</ele></trkpt><trkpt lat="62.418610" lon="9.468172"><ele>1613</ele></trkpt><trkpt lat="62.418125" lon="9.467292"><ele>1636</ele></trkpt><trkpt lat="62.417640" lon="9.466411"><ele>1652</ele></trkpt><trkpt lat="62.417155" lon="9.465530"><ele>1663</ele></trkpt><trkpt lat="62.416670" lon="9.464650"><ele>1668</ele></trkpt><trkpt lat="62.416379" lon="9.464121"><ele>1668</ele></trkpt></trkseg></trk></gpx>