<?xml version="1.0" encoding="UTF-8"?>
<gpx version="1.1" creator="Rando toppturs" xmlns="http://www.topografix.com/GPX/1/1"><metadata><name>147 Unnamed 1703 m</name><desc>This is an automatically generated list. I have not checked them all. Do not attempt these if you're a beginner. Generated 2026-09-13 17:42 from Kartverket 10 m terrain. Ascent lines are least-cost terrain paths under 35°, not verified routes. Not a snow-stability assessment.</desc></metadata><wpt lat="62.498907" lon="9.087487"><ele>751</ele><name>Car · Unnamed summit 1703 m</name></wpt><wpt lat="62.401657" lon="9.127498"><ele>1703</ele><name>Unnamed summit 1703 m</name></wpt><trk><name>Up · Unnamed summit 1703 m</name><desc>least-cost ascent: +1340 m over 13029 m, max 35°, 0.4% on 30–35°, ≈6.61 h at 4 km/h + 400 m/h. Terrain possibility, not a checked route.</desc><trkseg><trkpt lat="62.498907" lon="9.087487"><ele>751</ele></trkpt><trkpt lat="62.498428" lon="9.086804"><ele>752</ele></trkpt><trkpt lat="62.497965" lon="9.086506"><ele>762</ele></trkpt><trkpt lat="62.497519" lon="9.086595"><ele>763</ele></trkpt><trkpt lat="62.497072" lon="9.086684"><ele>763</ele></trkpt><trkpt lat="62.496593" lon="9.086000"><ele>763</ele></trkpt><trkpt lat="62.496147" lon="9.086089"><ele>775</ele></trkpt><trkpt lat="62.495700" lon="9.086177"><ele>776</ele></trkpt><trkpt lat="62.495254" lon="9.086266"><ele>775</ele></trkpt><trkpt lat="62.494783" lon="9.085776"><ele>776</ele></trkpt><trkpt lat="62.494295" lon="9.084899"><ele>777</ele></trkpt><trkpt lat="62.493808" lon="9.084023"><ele>775</ele></trkpt><trkpt lat="62.493321" lon="9.083146"><ele>775</ele></trkpt><trkpt lat="62.492833" lon="9.082270"><ele>780</ele></trkpt><trkpt lat="62.492346" lon="9.081393"><ele>778</ele></trkpt><trkpt lat="62.491866" lon="9.080710"><ele>777</ele></trkpt><trkpt lat="62.491412" lon="9.080606"><ele>775</ele></trkpt><trkpt lat="62.490957" lon="9.080502"><ele>773</ele></trkpt><trkpt lat="62.490470" lon="9.079625"><ele>771</ele></trkpt><trkpt lat="62.489982" lon="9.078749"><ele>767</ele></trkpt><trkpt lat="62.489495" lon="9.077873"><ele>757</ele></trkpt><trkpt lat="62.489032" lon="9.077575"><ele>757</ele></trkpt><trkpt lat="62.488586" lon="9.077664"><ele>761</ele></trkpt><trkpt lat="62.488139" lon="9.077753"><ele>768</ele></trkpt><trkpt lat="62.487693" lon="9.077842"><ele>775</ele></trkpt><trkpt lat="62.487246" lon="9.077931"><ele>783</ele></trkpt><trkpt lat="62.486784" lon="9.077633"><ele>785</ele></trkpt><trkpt lat="62.486304" lon="9.076950"><ele>786</ele></trkpt><trkpt lat="62.485833" lon="9.076460"><ele>787</ele></trkpt><trkpt lat="62.485346" lon="9.075584"><ele>784</ele></trkpt><trkpt lat="62.484875" lon="9.075094"><ele>786</ele></trkpt><trkpt lat="62.484428" lon="9.075183"><ele>794</ele></trkpt><trkpt lat="62.483966" lon="9.074885"><ele>800</ele></trkpt><trkpt lat="62.483519" lon="9.074974"><ele>813</ele></trkpt><trkpt lat="62.483065" lon="9.074870"><ele>816</ele></trkpt><trkpt lat="62.482610" lon="9.074766"><ele>830</ele></trkpt><trkpt lat="62.482147" lon="9.074469"><ele>843</ele></trkpt><trkpt lat="62.481701" lon="9.074558"><ele>851</ele></trkpt><trkpt lat="62.481254" lon="9.074646"><ele>858</ele></trkpt><trkpt lat="62.480808" lon="9.074735"><ele>869</ele></trkpt><trkpt lat="62.480361" lon="9.074824"><ele>878</ele></trkpt><trkpt lat="62.479915" lon="9.074913"><ele>888</ele></trkpt><trkpt lat="62.479469" lon="9.075002"><ele>897</ele></trkpt><trkpt lat="62.479022" lon="9.075090"><ele>908</ele></trkpt><trkpt lat="62.478576" lon="9.075179"><ele>917</ele></trkpt><trkpt lat="62.478129" lon="9.075268"><ele>923</ele></trkpt><trkpt lat="62.477667" lon="9.074971"><ele>916</ele></trkpt><trkpt lat="62.477220" lon="9.075060"><ele>916</ele></trkpt><trkpt lat="62.476774" lon="9.075148"><ele>913</ele></trkpt><trkpt lat="62.476327" lon="9.075237"><ele>913</ele></trkpt><trkpt lat="62.475881" lon="9.075326"><ele>911</ele></trkpt><trkpt lat="62.475435" lon="9.075415"><ele>912</ele></trkpt><trkpt lat="62.474988" lon="9.075504"><ele>907</ele></trkpt><trkpt lat="62.474566" lon="9.076171"><ele>912</ele></trkpt><trkpt lat="62.474161" lon="9.077224"><ele>918</ele></trkpt><trkpt lat="62.473748" lon="9.078085"><ele>914</ele></trkpt><trkpt lat="62.473309" lon="9.078366"><ele>900</ele></trkpt><trkpt lat="62.472904" lon="9.079420"><ele>905</ele></trkpt><trkpt lat="62.472499" lon="9.080473"><ele>913</ele></trkpt><trkpt lat="62.472093" lon="9.081526"><ele>926</ele></trkpt><trkpt lat="62.471688" lon="9.082579"><ele>931</ele></trkpt><trkpt lat="62.471283" lon="9.083632"><ele>939</ele></trkpt><trkpt lat="62.470877" lon="9.084685"><ele>943</ele></trkpt><trkpt lat="62.470472" lon="9.085738"><ele>943</ele></trkpt><trkpt lat="62.470066" lon="9.086791"><ele>947</ele></trkpt><trkpt lat="62.469661" lon="9.087844"><ele>952</ele></trkpt><trkpt lat="62.469256" lon="9.088897"><ele>963</ele></trkpt><trkpt lat="62.468850" lon="9.089950"><ele>970</ele></trkpt><trkpt lat="62.468445" lon="9.091003"><ele>973</ele></trkpt><trkpt lat="62.468039" lon="9.092056"><ele>979</ele></trkpt><trkpt lat="62.467634" lon="9.093109"><ele>985</ele></trkpt><trkpt lat="62.467228" lon="9.094162"><ele>999</ele></trkpt><trkpt lat="62.466823" lon="9.095214"><ele>1015</ele></trkpt><trkpt lat="62.466417" lon="9.096267"><ele>1035</ele></trkpt><trkpt lat="62.466190" lon="9.097284"><ele>1044</ele></trkpt><trkpt lat="62.465785" lon="9.098337"><ele>1064</ele></trkpt><trkpt lat="62.465363" lon="9.099004"><ele>1088</ele></trkpt><trkpt lat="62.464909" lon="9.098900"><ele>1109</ele></trkpt><trkpt lat="62.464487" lon="9.099567"><ele>1128</ele></trkpt><trkpt lat="62.464065" lon="9.100233"><ele>1160</ele></trkpt><trkpt lat="62.463659" lon="9.101286"><ele>1179</ele></trkpt><trkpt lat="62.463237" lon="9.101953"><ele>1200</ele></trkpt><trkpt lat="62.462791" lon="9.102041"><ele>1211</ele></trkpt><trkpt lat="62.462369" lon="9.102708"><ele>1217</ele></trkpt><trkpt lat="62.461931" lon="9.102989"><ele>1234</ele></trkpt><trkpt lat="62.461443" lon="9.102113"><ele>1263</ele></trkpt><trkpt lat="62.460964" lon="9.101430"><ele>1285</ele></trkpt><trkpt lat="62.460510" lon="9.101326"><ele>1301</ele></trkpt><trkpt lat="62.460039" lon="9.100836"><ele>1303</ele></trkpt><trkpt lat="62.459560" lon="9.100153"><ele>1302</ele></trkpt><trkpt lat="62.459089" lon="9.099663"><ele>1300</ele></trkpt><trkpt lat="62.458634" lon="9.099558"><ele>1302</ele></trkpt><trkpt lat="62.458188" lon="9.099647"><ele>1305</ele></trkpt><trkpt lat="62.457741" lon="9.099735"><ele>1312</ele></trkpt><trkpt lat="62.457278" lon="9.099438"><ele>1321</ele></trkpt><trkpt lat="62.456791" lon="9.098562"><ele>1317</ele></trkpt><trkpt lat="62.456304" lon="9.097686"><ele>1316</ele></trkpt><trkpt lat="62.455816" lon="9.096811"><ele>1320</ele></trkpt><trkpt lat="62.455329" lon="9.095935"><ele>1329</ele></trkpt><trkpt lat="62.454842" lon="9.095059"><ele>1335</ele></trkpt><trkpt lat="62.454354" lon="9.094184"><ele>1342</ele></trkpt><trkpt lat="62.453867" lon="9.093308"><ele>1358</ele></trkpt><trkpt lat="62.453388" lon="9.092626"><ele>1379</ele></trkpt><trkpt lat="62.452941" lon="9.092714"><ele>1385</ele></trkpt><trkpt lat="62.452479" lon="9.092417"><ele>1384</ele></trkpt><trkpt lat="62.451991" lon="9.091542"><ele>1400</ele></trkpt><trkpt lat="62.451520" lon="9.091052"><ele>1413</ele></trkpt><trkpt lat="62.451033" lon="9.090176"><ele>1433</ele></trkpt><trkpt lat="62.450570" lon="9.089879"><ele>1458</ele></trkpt><trkpt lat="62.450124" lon="9.089968"><ele>1468</ele></trkpt><trkpt lat="62.449677" lon="9.090056"><ele>1480</ele></trkpt><trkpt lat="62.449231" lon="9.090145"><ele>1487</ele></trkpt><trkpt lat="62.448784" lon="9.090233"><ele>1499</ele></trkpt><trkpt lat="62.448346" lon="9.090514"><ele>1514</ele></trkpt><trkpt lat="62.447916" lon="9.090988"><ele>1530</ele></trkpt><trkpt lat="62.447486" lon="9.091462"><ele>1548</ele></trkpt><trkpt lat="62.447040" lon="9.091551"><ele>1573</ele></trkpt><trkpt lat="62.446618" lon="9.092217"><ele>1591</ele></trkpt><trkpt lat="62.446180" lon="9.092498"><ele>1612</ele></trkpt><trkpt lat="62.445766" lon="9.093358"><ele>1623</ele></trkpt><trkpt lat="62.445328" lon="9.093639"><ele>1639</ele></trkpt><trkpt lat="62.444898" lon="9.094113"><ele>1650</ele></trkpt><trkpt lat="62.444443" lon="9.094008"><ele>1665</ele></trkpt><trkpt lat="62.443997" lon="9.094097"><ele>1679</ele></trkpt><trkpt lat="62.443550" lon="9.094185"><ele>1691</ele></trkpt><trkpt lat="62.443104" lon="9.094273"><ele>1699</ele></trkpt><trkpt lat="62.442674" lon="9.094747"><ele>1699</ele></trkpt><trkpt lat="62.442260" lon="9.095606"><ele>1697</ele></trkpt><trkpt lat="62.441814" lon="9.095695"><ele>1702</ele></trkpt><trkpt lat="62.441408" lon="9.096747"><ele>1694</ele></trkpt><trkpt lat="62.440995" lon="9.097606"><ele>1691</ele></trkpt><trkpt lat="62.440548" lon="9.097694"><ele>1699</ele></trkpt><trkpt lat="62.440126" lon="9.098360"><ele>1707</ele></trkpt><trkpt lat="62.439680" lon="9.098449"><ele>1719</ele></trkpt><trkpt lat="62.439233" lon="9.098537"><ele>1727</ele></trkpt><trkpt lat="62.438787" lon="9.098625"><ele>1735</ele></trkpt><trkpt lat="62.438341" lon="9.098713"><ele>1741</ele></trkpt><trkpt lat="62.437894" lon="9.098802"><ele>1749</ele></trkpt><trkpt lat="62.437448" lon="9.098890"><ele>1756</ele></trkpt><trkpt lat="62.437001" lon="9.098978"><ele>1761</ele></trkpt><trkpt lat="62.436555" lon="9.099067"><ele>1758</ele></trkpt><trkpt lat="62.436108" lon="9.099155"><ele>1756</ele></trkpt><trkpt lat="62.435662" lon="9.099243"><ele>1754</ele></trkpt><trkpt lat="62.435216" lon="9.099331"><ele>1750</ele></trkpt><trkpt lat="62.434769" lon="9.099420"><ele>1749</ele></trkpt><trkpt lat="62.434323" lon="9.099508"><ele>1746</ele></trkpt><trkpt lat="62.433876" lon="9.099596"><ele>1737</ele></trkpt><trkpt lat="62.433430" lon="9.099684"><ele>1737</ele></trkpt><trkpt lat="62.433000" lon="9.100158"><ele>1743</ele></trkpt><trkpt lat="62.432570" lon="9.100631"><ele>1749</ele></trkpt><trkpt lat="62.432123" lon="9.100720"><ele>1744</ele></trkpt><trkpt lat="62.431677" lon="9.100808"><ele>1742</ele></trkpt><trkpt lat="62.431231" lon="9.100896"><ele>1742</ele></trkpt><trkpt lat="62.430784" lon="9.100984"><ele>1743</ele></trkpt><trkpt lat="62.430338" lon="9.101073"><ele>1746</ele></trkpt><trkpt lat="62.429908" lon="9.101546"><ele>1752</ele></trkpt><trkpt lat="62.429461" lon="9.101634"><ele>1751</ele></trkpt><trkpt lat="62.429015" lon="9.101722"><ele>1748</ele></trkpt><trkpt lat="62.428568" lon="9.101811"><ele>1747</ele></trkpt><trkpt lat="62.428122" lon="9.101899"><ele>1747</ele></trkpt><trkpt lat="62.427676" lon="9.101987"><ele>1747</ele></trkpt><trkpt lat="62.427229" lon="9.102075"><ele>1745</ele></trkpt><trkpt lat="62.426783" lon="9.102163"><ele>1741</ele></trkpt><trkpt lat="62.426336" lon="9.102252"><ele>1737</ele></trkpt><trkpt lat="62.425890" lon="9.102340"><ele>1734</ele></trkpt><trkpt lat="62.425443" lon="9.102428"><ele>1730</ele></trkpt><trkpt lat="62.424997" lon="9.102516"><ele>1726</ele></trkpt><trkpt lat="62.424551" lon="9.102604"><ele>1722</ele></trkpt><trkpt lat="62.424112" lon="9.102885"><ele>1720</ele></trkpt><trkpt lat="62.423666" lon="9.102973"><ele>1716</ele></trkpt><trkpt lat="62.423219" lon="9.103061"><ele>1712</ele></trkpt><trkpt lat="62.422773" lon="9.103150"><ele>1709</ele></trkpt><trkpt lat="62.422327" lon="9.103238"><ele>1705</ele></trkpt><trkpt lat="62.421880" lon="9.103326"><ele>1699</ele></trkpt><trkpt lat="62.421434" lon="9.103414"><ele>1694</ele></trkpt><trkpt lat="62.420987" lon="9.103502"><ele>1692</ele></trkpt><trkpt lat="62.420541" lon="9.103590"><ele>1689</ele></trkpt><trkpt lat="62.420094" lon="9.103678"><ele>1688</ele></trkpt><trkpt lat="62.419648" lon="9.103767"><ele>1689</ele></trkpt><trkpt lat="62.419202" lon="9.103855"><ele>1688</ele></trkpt><trkpt lat="62.418755" lon="9.103943"><ele>1688</ele></trkpt><trkpt lat="62.418309" lon="9.104031"><ele>1688</ele></trkpt><trkpt lat="62.417862" lon="9.104119"><ele>1687</ele></trkpt><trkpt lat="62.417416" lon="9.104207"><ele>1687</ele></trkpt><trkpt lat="62.416969" lon="9.104295"><ele>1688</ele></trkpt><trkpt lat="62.416523" lon="9.104383"><ele>1688</ele></trkpt><trkpt lat="62.416077" lon="9.104472"><ele>1683</ele></trkpt><trkpt lat="62.415630" lon="9.104560"><ele>1678</ele></trkpt><trkpt lat="62.415184" lon="9.104648"><ele>1673</ele></trkpt><trkpt lat="62.414737" lon="9.104736"><ele>1667</ele></trkpt><trkpt lat="62.414291" lon="9.104824"><ele>1661</ele></trkpt><trkpt lat="62.413844" lon="9.104912"><ele>1655</ele></trkpt><trkpt lat="62.413398" lon="9.105000"><ele>1649</ele></trkpt><trkpt lat="62.412952" lon="9.105088"><ele>1642</ele></trkpt><trkpt lat="62.412505" lon="9.105176"><ele>1637</ele></trkpt><trkpt lat="62.412059" lon="9.105264"><ele>1633</ele></trkpt><trkpt lat="62.411612" lon="9.105353"><ele>1629</ele></trkpt><trkpt lat="62.411166" lon="9.105441"><ele>1625</ele></trkpt><trkpt lat="62.410719" lon="9.105529"><ele>1620</ele></trkpt><trkpt lat="62.410298" lon="9.106194"><ele>1613</ele></trkpt><trkpt lat="62.409892" lon="9.107245"><ele>1602</ele></trkpt><trkpt lat="62.409486" lon="9.108295"><ele>1586</ele></trkpt><trkpt lat="62.409081" lon="9.109346"><ele>1575</ele></trkpt><trkpt lat="62.408675" lon="9.110396"><ele>1562</ele></trkpt><trkpt lat="62.408270" lon="9.111447"><ele>1559</ele></trkpt><trkpt lat="62.407864" lon="9.112497"><ele>1557</ele></trkpt><trkpt lat="62.407458" lon="9.113548"><ele>1556</ele></trkpt><trkpt lat="62.407053" lon="9.114598"><ele>1569</ele></trkpt><trkpt lat="62.406606" lon="9.114686"><ele>1586</ele></trkpt><trkpt lat="62.406201" lon="9.115736"><ele>1602</ele></trkpt><trkpt lat="62.405795" lon="9.116787"><ele>1616</ele></trkpt><trkpt lat="62.405389" lon="9.117837"><ele>1627</ele></trkpt><trkpt lat="62.404984" lon="9.118887"><ele>1634</ele></trkpt><trkpt lat="62.404578" lon="9.119938"><ele>1644</ele></trkpt><trkpt lat="62.404172" lon="9.120988"><ele>1654</ele></trkpt><trkpt lat="62.403766" lon="9.122038"><ele>1660</ele></trkpt><trkpt lat="62.403361" lon="9.123088"><ele>1665</ele></trkpt><trkpt lat="62.402955" lon="9.124138"><ele>1674</ele></trkpt><trkpt lat="62.402549" lon="9.125188"><ele>1682</ele></trkpt><trkpt lat="62.402144" lon="9.126238"><ele>1691</ele></trkpt><trkpt lat="62.401738" lon="9.127288"><ele>1702</ele></trkpt><trkpt lat="62.401657" lon="9.127498"><ele>1703</ele></trkpt></trkseg></trk></gpx>