<?xml version="1.0" encoding="UTF-8"?>
<gpx version="1.1" creator="Rando toppturs" xmlns="http://www.topografix.com/GPX/1/1"><metadata><name>148 Sletthøa 1686 m</name><desc>This is an automatically generated list. I have not checked them all. Do not attempt these if you're a beginner. Generated 2026-09-13 17:42 from Kartverket 10 m terrain. Ascent lines are least-cost terrain paths under 35°, not verified routes. Not a snow-stability assessment.</desc></metadata><wpt lat="62.451926" lon="9.530006"><ele>1267</ele><name>Car · Sletthøa 1686 m</name></wpt><wpt lat="62.413099" lon="9.531292"><ele>1686</ele><name>Sletthøa 1686 m</name></wpt><trk><name>Up · Sletthøa 1686 m</name><desc>least-cost ascent: +428 m over 4477 m, max 20°, 0.0% on 30–35°, ≈2.19 h at 4 km/h + 400 m/h. Terrain possibility, not a checked route.</desc><trkseg><trkpt lat="62.451926" lon="9.530006"><ele>1267</ele></trkpt><trkpt lat="62.451479" lon="9.530088"><ele>1268</ele></trkpt><trkpt lat="62.451033" lon="9.530170"><ele>1269</ele></trkpt><trkpt lat="62.450586" lon="9.530252"><ele>1274</ele></trkpt><trkpt lat="62.450139" lon="9.530334"><ele>1278</ele></trkpt><trkpt lat="62.449692" lon="9.530416"><ele>1281</ele></trkpt><trkpt lat="62.449246" lon="9.530497"><ele>1285</ele></trkpt><trkpt lat="62.448799" lon="9.530579"><ele>1288</ele></trkpt><trkpt lat="62.448352" lon="9.530661"><ele>1290</ele></trkpt><trkpt lat="62.447905" lon="9.530743"><ele>1291</ele></trkpt><trkpt lat="62.447458" lon="9.530825"><ele>1294</ele></trkpt><trkpt lat="62.447012" lon="9.530907"><ele>1298</ele></trkpt><trkpt lat="62.446565" lon="9.530989"><ele>1302</ele></trkpt><trkpt lat="62.446118" lon="9.531071"><ele>1307</ele></trkpt><trkpt lat="62.445671" lon="9.531152"><ele>1313</ele></trkpt><trkpt lat="62.445225" lon="9.531234"><ele>1319</ele></trkpt><trkpt lat="62.444778" lon="9.531316"><ele>1326</ele></trkpt><trkpt lat="62.444331" lon="9.531398"><ele>1333</ele></trkpt><trkpt lat="62.443884" lon="9.531480"><ele>1335</ele></trkpt><trkpt lat="62.443415" lon="9.530983"><ele>1344</ele></trkpt><trkpt lat="62.442930" lon="9.530101"><ele>1357</ele></trkpt><trkpt lat="62.442446" lon="9.529218"><ele>1371</ele></trkpt><trkpt lat="62.441961" lon="9.528336"><ele>1378</ele></trkpt><trkpt lat="62.441476" lon="9.527453"><ele>1395</ele></trkpt><trkpt lat="62.441007" lon="9.526957"><ele>1407</ele></trkpt><trkpt lat="62.440560" lon="9.527039"><ele>1411</ele></trkpt><trkpt lat="62.440113" lon="9.527121"><ele>1417</ele></trkpt><trkpt lat="62.439666" lon="9.527203"><ele>1422</ele></trkpt><trkpt lat="62.439220" lon="9.527284"><ele>1428</ele></trkpt><trkpt lat="62.438773" lon="9.527366"><ele>1429</ele></trkpt><trkpt lat="62.438326" lon="9.527448"><ele>1433</ele></trkpt><trkpt lat="62.437879" lon="9.527530"><ele>1433</ele></trkpt><trkpt lat="62.437433" lon="9.527612"><ele>1431</ele></trkpt><trkpt lat="62.436986" lon="9.527694"><ele>1432</ele></trkpt><trkpt lat="62.436539" lon="9.527776"><ele>1434</ele></trkpt><trkpt lat="62.436092" lon="9.527858"><ele>1443</ele></trkpt><trkpt lat="62.435646" lon="9.527939"><ele>1448</ele></trkpt><trkpt lat="62.435199" lon="9.528021"><ele>1451</ele></trkpt><trkpt lat="62.434752" lon="9.528103"><ele>1452</ele></trkpt><trkpt lat="62.434305" lon="9.528185"><ele>1457</ele></trkpt><trkpt lat="62.433859" lon="9.528267"><ele>1465</ele></trkpt><trkpt lat="62.433412" lon="9.528349"><ele>1469</ele></trkpt><trkpt lat="62.432965" lon="9.528431"><ele>1474</ele></trkpt><trkpt lat="62.432518" lon="9.528513"><ele>1479</ele></trkpt><trkpt lat="62.432072" lon="9.528594"><ele>1484</ele></trkpt><trkpt lat="62.431625" lon="9.528676"><ele>1486</ele></trkpt><trkpt lat="62.431178" lon="9.528758"><ele>1489</ele></trkpt><trkpt lat="62.430731" lon="9.528840"><ele>1490</ele></trkpt><trkpt lat="62.430285" lon="9.528922"><ele>1491</ele></trkpt><trkpt lat="62.429838" lon="9.529004"><ele>1494</ele></trkpt><trkpt lat="62.429383" lon="9.528893"><ele>1495</ele></trkpt><trkpt lat="62.428937" lon="9.528974"><ele>1497</ele></trkpt><trkpt lat="62.428490" lon="9.529056"><ele>1498</ele></trkpt><trkpt lat="62.428043" lon="9.529138"><ele>1498</ele></trkpt><trkpt lat="62.427596" lon="9.529220"><ele>1499</ele></trkpt><trkpt lat="62.427150" lon="9.529302"><ele>1500</ele></trkpt><trkpt lat="62.426703" lon="9.529384"><ele>1502</ele></trkpt><trkpt lat="62.426256" lon="9.529465"><ele>1502</ele></trkpt><trkpt lat="62.425809" lon="9.529547"><ele>1503</ele></trkpt><trkpt lat="62.425363" lon="9.529629"><ele>1504</ele></trkpt><trkpt lat="62.424916" lon="9.529711"><ele>1505</ele></trkpt><trkpt lat="62.424469" lon="9.529793"><ele>1507</ele></trkpt><trkpt lat="62.424022" lon="9.529874"><ele>1510</ele></trkpt><trkpt lat="62.423576" lon="9.529956"><ele>1511</ele></trkpt><trkpt lat="62.423129" lon="9.530038"><ele>1515</ele></trkpt><trkpt lat="62.422682" lon="9.530120"><ele>1521</ele></trkpt><trkpt lat="62.422235" lon="9.530202"><ele>1526</ele></trkpt><trkpt lat="62.421789" lon="9.530283"><ele>1531</ele></trkpt><trkpt lat="62.421342" lon="9.530365"><ele>1538</ele></trkpt><trkpt lat="62.420895" lon="9.530447"><ele>1539</ele></trkpt><trkpt lat="62.420448" lon="9.530529"><ele>1545</ele></trkpt><trkpt lat="62.420002" lon="9.530611"><ele>1552</ele></trkpt><trkpt lat="62.419555" lon="9.530692"><ele>1566</ele></trkpt><trkpt lat="62.419108" lon="9.530774"><ele>1578</ele></trkpt><trkpt lat="62.418639" lon="9.530278"><ele>1593</ele></trkpt><trkpt lat="62.418192" lon="9.530360"><ele>1607</ele></trkpt><trkpt lat="62.417745" lon="9.530441"><ele>1618</ele></trkpt><trkpt lat="62.417298" lon="9.530523"><ele>1626</ele></trkpt><trkpt lat="62.416852" lon="9.530605"><ele>1634</ele></trkpt><trkpt lat="62.416405" lon="9.530687"><ele>1640</ele></trkpt><trkpt lat="62.415958" lon="9.530768"><ele>1645</ele></trkpt><trkpt lat="62.415511" lon="9.530850"><ele>1657</ele></trkpt><trkpt lat="62.415064" lon="9.530932"><ele>1665</ele></trkpt><trkpt lat="62.414618" lon="9.531014"><ele>1671</ele></trkpt><trkpt lat="62.414171" lon="9.531095"><ele>1676</ele></trkpt><trkpt lat="62.413724" lon="9.531177"><ele>1681</ele></trkpt><trkpt lat="62.413277" lon="9.531259"><ele>1685</ele></trkpt><trkpt lat="62.413099" lon="9.531292"><ele>1686</ele></trkpt></trkseg></trk></gpx>