<?xml version="1.0" encoding="UTF-8"?>
<gpx version="1.1" creator="Rando toppturs" xmlns="http://www.topografix.com/GPX/1/1"><metadata><name>149 Unnamed 1621 m</name><desc>Generated 2026-09-13 17:42 from Kartverket 10 m terrain. Ascent lines are least-cost terrain paths under 35°, not verified routes. Not a snow-stability assessment.</desc></metadata><wpt lat="62.451926" lon="9.530006"><ele>1267</ele><name>Car · Unnamed summit 1621 m</name></wpt><wpt lat="62.400838" lon="9.507929"><ele>1621</ele><name>Unnamed summit 1621 m</name></wpt><trk><name>Up · Unnamed summit 1621 m</name><desc>least-cost ascent: +444 m over 6288 m, max 20°, 0.0% on 30–35°, ≈2.68 h at 4 km/h + 400 m/h. Terrain possibility, not a checked route.</desc><trkseg><trkpt lat="62.451926" lon="9.530006"><ele>1267</ele></trkpt><trkpt lat="62.451449" lon="9.529316"><ele>1271</ele></trkpt><trkpt lat="62.450964" lon="9.528434"><ele>1276</ele></trkpt><trkpt lat="62.450480" lon="9.527551"><ele>1280</ele></trkpt><trkpt lat="62.449995" lon="9.526669"><ele>1287</ele></trkpt><trkpt lat="62.449510" lon="9.525786"><ele>1291</ele></trkpt><trkpt lat="62.449025" lon="9.524903"><ele>1295</ele></trkpt><trkpt lat="62.448541" lon="9.524021"><ele>1300</ele></trkpt><trkpt lat="62.448056" lon="9.523138"><ele>1307</ele></trkpt><trkpt lat="62.447571" lon="9.522256"><ele>1317</ele></trkpt><trkpt lat="62.447087" lon="9.521374"><ele>1322</ele></trkpt><trkpt lat="62.446602" lon="9.520491"><ele>1329</ele></trkpt><trkpt lat="62.446117" lon="9.519609"><ele>1333</ele></trkpt><trkpt lat="62.445632" lon="9.518726"><ele>1340</ele></trkpt><trkpt lat="62.445148" lon="9.517844"><ele>1349</ele></trkpt><trkpt lat="62.444663" lon="9.516962"><ele>1360</ele></trkpt><trkpt lat="62.444178" lon="9.516080"><ele>1366</ele></trkpt><trkpt lat="62.443693" lon="9.515197"><ele>1380</ele></trkpt><trkpt lat="62.443208" lon="9.514315"><ele>1390</ele></trkpt><trkpt lat="62.442739" lon="9.513819"><ele>1406</ele></trkpt><trkpt lat="62.442292" lon="9.513901"><ele>1417</ele></trkpt><trkpt lat="62.441845" lon="9.513983"><ele>1428</ele></trkpt><trkpt lat="62.441399" lon="9.514065"><ele>1436</ele></trkpt><trkpt lat="62.440929" lon="9.513569"><ele>1445</ele></trkpt><trkpt lat="62.440475" lon="9.513458"><ele>1457</ele></trkpt><trkpt lat="62.440028" lon="9.513540"><ele>1467</ele></trkpt><trkpt lat="62.439581" lon="9.513622"><ele>1475</ele></trkpt><trkpt lat="62.439134" lon="9.513704"><ele>1481</ele></trkpt><trkpt lat="62.438688" lon="9.513786"><ele>1483</ele></trkpt><trkpt lat="62.438241" lon="9.513868"><ele>1486</ele></trkpt><trkpt lat="62.437794" lon="9.513951"><ele>1486</ele></trkpt><trkpt lat="62.437348" lon="9.514033"><ele>1485</ele></trkpt><trkpt lat="62.436901" lon="9.514115"><ele>1483</ele></trkpt><trkpt lat="62.436454" lon="9.514197"><ele>1482</ele></trkpt><trkpt lat="62.436007" lon="9.514279"><ele>1480</ele></trkpt><trkpt lat="62.435561" lon="9.514361"><ele>1483</ele></trkpt><trkpt lat="62.435114" lon="9.514443"><ele>1485</ele></trkpt><trkpt lat="62.434667" lon="9.514525"><ele>1487</ele></trkpt><trkpt lat="62.434220" lon="9.514607"><ele>1488</ele></trkpt><trkpt lat="62.433774" lon="9.514689"><ele>1488</ele></trkpt><trkpt lat="62.433327" lon="9.514771"><ele>1486</ele></trkpt><trkpt lat="62.432880" lon="9.514853"><ele>1484</ele></trkpt><trkpt lat="62.432433" lon="9.514935"><ele>1482</ele></trkpt><trkpt lat="62.431987" lon="9.515017"><ele>1480</ele></trkpt><trkpt lat="62.431540" lon="9.515099"><ele>1480</ele></trkpt><trkpt lat="62.431093" lon="9.515182"><ele>1479</ele></trkpt><trkpt lat="62.430646" lon="9.515264"><ele>1477</ele></trkpt><trkpt lat="62.430200" lon="9.515346"><ele>1475</ele></trkpt><trkpt lat="62.429753" lon="9.515428"><ele>1473</ele></trkpt><trkpt lat="62.429306" lon="9.515510"><ele>1471</ele></trkpt><trkpt lat="62.428859" lon="9.515592"><ele>1470</ele></trkpt><trkpt lat="62.428413" lon="9.515674"><ele>1467</ele></trkpt><trkpt lat="62.427966" lon="9.515756"><ele>1466</ele></trkpt><trkpt lat="62.427519" lon="9.515838"><ele>1467</ele></trkpt><trkpt lat="62.427072" lon="9.515920"><ele>1468</ele></trkpt><trkpt lat="62.426626" lon="9.516002"><ele>1470</ele></trkpt><trkpt lat="62.426179" lon="9.516084"><ele>1471</ele></trkpt><trkpt lat="62.425732" lon="9.516166"><ele>1473</ele></trkpt><trkpt lat="62.425285" lon="9.516248"><ele>1475</ele></trkpt><trkpt lat="62.424839" lon="9.516330"><ele>1480</ele></trkpt><trkpt lat="62.424392" lon="9.516412"><ele>1486</ele></trkpt><trkpt lat="62.423945" lon="9.516494"><ele>1489</ele></trkpt><trkpt lat="62.423498" lon="9.516576"><ele>1494</ele></trkpt><trkpt lat="62.423052" lon="9.516658"><ele>1500</ele></trkpt><trkpt lat="62.422605" lon="9.516740"><ele>1504</ele></trkpt><trkpt lat="62.422158" lon="9.516822"><ele>1510</ele></trkpt><trkpt lat="62.421711" lon="9.516904"><ele>1514</ele></trkpt><trkpt lat="62.421265" lon="9.516986"><ele>1520</ele></trkpt><trkpt lat="62.420818" lon="9.517068"><ele>1526</ele></trkpt><trkpt lat="62.420371" lon="9.517150"><ele>1530</ele></trkpt><trkpt lat="62.419924" lon="9.517232"><ele>1535</ele></trkpt><trkpt lat="62.419478" lon="9.517314"><ele>1537</ele></trkpt><trkpt lat="62.419031" lon="9.517396"><ele>1542</ele></trkpt><trkpt lat="62.418584" lon="9.517478"><ele>1547</ele></trkpt><trkpt lat="62.418137" lon="9.517560"><ele>1552</ele></trkpt><trkpt lat="62.417691" lon="9.517642"><ele>1557</ele></trkpt><trkpt lat="62.417244" lon="9.517724"><ele>1562</ele></trkpt><trkpt lat="62.416797" lon="9.517806"><ele>1569</ele></trkpt><trkpt lat="62.416350" lon="9.517887"><ele>1575</ele></trkpt><trkpt lat="62.415904" lon="9.517969"><ele>1583</ele></trkpt><trkpt lat="62.415457" lon="9.518051"><ele>1590</ele></trkpt><trkpt lat="62.415010" lon="9.518133"><ele>1596</ele></trkpt><trkpt lat="62.414563" lon="9.518215"><ele>1603</ele></trkpt><trkpt lat="62.414117" lon="9.518297"><ele>1607</ele></trkpt><trkpt lat="62.413670" lon="9.518379"><ele>1609</ele></trkpt><trkpt lat="62.413223" lon="9.518461"><ele>1607</ele></trkpt><trkpt lat="62.412776" lon="9.518543"><ele>1605</ele></trkpt><trkpt lat="62.412330" lon="9.518625"><ele>1608</ele></trkpt><trkpt lat="62.411883" lon="9.518707"><ele>1606</ele></trkpt><trkpt lat="62.411436" lon="9.518789"><ele>1604</ele></trkpt><trkpt lat="62.410989" lon="9.518871"><ele>1607</ele></trkpt><trkpt lat="62.410543" lon="9.518953"><ele>1603</ele></trkpt><trkpt lat="62.410096" lon="9.519035"><ele>1602</ele></trkpt><trkpt lat="62.409649" lon="9.519116"><ele>1596</ele></trkpt><trkpt lat="62.409202" lon="9.519198"><ele>1596</ele></trkpt><trkpt lat="62.408748" lon="9.519088"><ele>1589</ele></trkpt><trkpt lat="62.408301" lon="9.519170"><ele>1582</ele></trkpt><trkpt lat="62.407855" lon="9.519251"><ele>1580</ele></trkpt><trkpt lat="62.407408" lon="9.519333"><ele>1575</ele></trkpt><trkpt lat="62.406946" lon="9.519030"><ele>1569</ele></trkpt><trkpt lat="62.406461" lon="9.518149"><ele>1568</ele></trkpt><trkpt lat="62.405976" lon="9.517268"><ele>1567</ele></trkpt><trkpt lat="62.405492" lon="9.516387"><ele>1569</ele></trkpt><trkpt lat="62.405007" lon="9.515505"><ele>1569</ele></trkpt><trkpt lat="62.404522" lon="9.514624"><ele>1567</ele></trkpt><trkpt lat="62.404037" lon="9.513743"><ele>1570</ele></trkpt><trkpt lat="62.403553" lon="9.512862"><ele>1568</ele></trkpt><trkpt lat="62.403068" lon="9.511981"><ele>1567</ele></trkpt><trkpt lat="62.402583" lon="9.511100"><ele>1576</ele></trkpt><trkpt lat="62.402098" lon="9.510219"><ele>1590</ele></trkpt><trkpt lat="62.401613" lon="9.509338"><ele>1601</ele></trkpt><trkpt lat="62.401129" lon="9.508458"><ele>1613</ele></trkpt><trkpt lat="62.400838" lon="9.507929"><ele>1621</ele></trkpt></trkseg></trk></gpx>