<?xml version="1.0" encoding="UTF-8"?>
<gpx version="1.1" creator="Rando toppturs" xmlns="http://www.topografix.com/GPX/1/1"><metadata><name>150 Tythøa 1773 m</name><desc>Generated 2026-09-13 17:42 from Kartverket 10 m terrain. Ascent lines are least-cost terrain paths under 35°, not verified routes. Not a snow-stability assessment.</desc></metadata><wpt lat="62.451926" lon="9.530006"><ele>1267</ele><name>Car · Tythøa 1773 m</name></wpt><wpt lat="62.385410" lon="9.466168"><ele>1773</ele><name>Tythøa 1773 m</name></wpt><trk><name>Up · Tythøa 1773 m</name><desc>least-cost ascent: +662 m over 8793 m, max 20°, 0.0% on 30–35°, ≈3.85 h at 4 km/h + 400 m/h. Terrain possibility, not a checked route.</desc><trkseg><trkpt lat="62.451926" lon="9.530006"><ele>1267</ele></trkpt><trkpt lat="62.451449" lon="9.529316"><ele>1271</ele></trkpt><trkpt lat="62.450964" lon="9.528434"><ele>1276</ele></trkpt><trkpt lat="62.450480" lon="9.527551"><ele>1280</ele></trkpt><trkpt lat="62.449995" lon="9.526669"><ele>1287</ele></trkpt><trkpt lat="62.449510" lon="9.525786"><ele>1291</ele></trkpt><trkpt lat="62.449025" lon="9.524903"><ele>1295</ele></trkpt><trkpt lat="62.448541" lon="9.524021"><ele>1300</ele></trkpt><trkpt lat="62.448056" lon="9.523138"><ele>1307</ele></trkpt><trkpt lat="62.447571" lon="9.522256"><ele>1317</ele></trkpt><trkpt lat="62.447087" lon="9.521374"><ele>1322</ele></trkpt><trkpt lat="62.446602" lon="9.520491"><ele>1329</ele></trkpt><trkpt lat="62.446117" lon="9.519609"><ele>1333</ele></trkpt><trkpt lat="62.445632" lon="9.518726"><ele>1340</ele></trkpt><trkpt lat="62.445148" lon="9.517844"><ele>1349</ele></trkpt><trkpt lat="62.444663" lon="9.516962"><ele>1360</ele></trkpt><trkpt lat="62.444178" lon="9.516080"><ele>1366</ele></trkpt><trkpt lat="62.443693" lon="9.515197"><ele>1380</ele></trkpt><trkpt lat="62.443208" lon="9.514315"><ele>1390</ele></trkpt><trkpt lat="62.442739" lon="9.513819"><ele>1406</ele></trkpt><trkpt lat="62.442292" lon="9.513901"><ele>1417</ele></trkpt><trkpt lat="62.441845" lon="9.513983"><ele>1428</ele></trkpt><trkpt lat="62.441399" lon="9.514065"><ele>1436</ele></trkpt><trkpt lat="62.440929" lon="9.513569"><ele>1445</ele></trkpt><trkpt lat="62.440475" lon="9.513458"><ele>1457</ele></trkpt><trkpt lat="62.440028" lon="9.513540"><ele>1467</ele></trkpt><trkpt lat="62.439581" lon="9.513622"><ele>1475</ele></trkpt><trkpt lat="62.439134" lon="9.513704"><ele>1481</ele></trkpt><trkpt lat="62.438688" lon="9.513786"><ele>1483</ele></trkpt><trkpt lat="62.438241" lon="9.513868"><ele>1486</ele></trkpt><trkpt lat="62.437794" lon="9.513951"><ele>1486</ele></trkpt><trkpt lat="62.437348" lon="9.514033"><ele>1485</ele></trkpt><trkpt lat="62.436901" lon="9.514115"><ele>1483</ele></trkpt><trkpt lat="62.436454" lon="9.514197"><ele>1482</ele></trkpt><trkpt lat="62.436007" lon="9.514279"><ele>1480</ele></trkpt><trkpt lat="62.435561" lon="9.514361"><ele>1483</ele></trkpt><trkpt lat="62.435114" lon="9.514443"><ele>1485</ele></trkpt><trkpt lat="62.434667" lon="9.514525"><ele>1487</ele></trkpt><trkpt lat="62.434220" lon="9.514607"><ele>1488</ele></trkpt><trkpt lat="62.433774" lon="9.514689"><ele>1488</ele></trkpt><trkpt lat="62.433327" lon="9.514771"><ele>1486</ele></trkpt><trkpt lat="62.432880" lon="9.514853"><ele>1484</ele></trkpt><trkpt lat="62.432433" lon="9.514935"><ele>1482</ele></trkpt><trkpt lat="62.431987" lon="9.515017"><ele>1480</ele></trkpt><trkpt lat="62.431540" lon="9.515099"><ele>1480</ele></trkpt><trkpt lat="62.431093" lon="9.515182"><ele>1479</ele></trkpt><trkpt lat="62.430646" lon="9.515264"><ele>1477</ele></trkpt><trkpt lat="62.430200" lon="9.515346"><ele>1475</ele></trkpt><trkpt lat="62.429753" lon="9.515428"><ele>1473</ele></trkpt><trkpt lat="62.429306" lon="9.515510"><ele>1471</ele></trkpt><trkpt lat="62.428859" lon="9.515592"><ele>1470</ele></trkpt><trkpt lat="62.428413" lon="9.515674"><ele>1467</ele></trkpt><trkpt lat="62.427966" lon="9.515756"><ele>1466</ele></trkpt><trkpt lat="62.427519" lon="9.515838"><ele>1467</ele></trkpt><trkpt lat="62.427072" lon="9.515920"><ele>1468</ele></trkpt><trkpt lat="62.426626" lon="9.516002"><ele>1470</ele></trkpt><trkpt lat="62.426179" lon="9.516084"><ele>1471</ele></trkpt><trkpt lat="62.425732" lon="9.516166"><ele>1473</ele></trkpt><trkpt lat="62.425285" lon="9.516248"><ele>1475</ele></trkpt><trkpt lat="62.424839" lon="9.516330"><ele>1480</ele></trkpt><trkpt lat="62.424392" lon="9.516412"><ele>1486</ele></trkpt><trkpt lat="62.423945" lon="9.516494"><ele>1489</ele></trkpt><trkpt lat="62.423498" lon="9.516576"><ele>1494</ele></trkpt><trkpt lat="62.423052" lon="9.516658"><ele>1500</ele></trkpt><trkpt lat="62.422605" lon="9.516740"><ele>1504</ele></trkpt><trkpt lat="62.422158" lon="9.516822"><ele>1510</ele></trkpt><trkpt lat="62.421711" lon="9.516904"><ele>1514</ele></trkpt><trkpt lat="62.421265" lon="9.516986"><ele>1520</ele></trkpt><trkpt lat="62.420818" lon="9.517068"><ele>1526</ele></trkpt><trkpt lat="62.420371" lon="9.517150"><ele>1530</ele></trkpt><trkpt lat="62.419924" lon="9.517232"><ele>1535</ele></trkpt><trkpt lat="62.419478" lon="9.517314"><ele>1537</ele></trkpt><trkpt lat="62.419031" lon="9.517396"><ele>1542</ele></trkpt><trkpt lat="62.418584" lon="9.517478"><ele>1547</ele></trkpt><trkpt lat="62.418137" lon="9.517560"><ele>1552</ele></trkpt><trkpt lat="62.417683" lon="9.517449"><ele>1557</ele></trkpt><trkpt lat="62.417198" lon="9.516567"><ele>1567</ele></trkpt><trkpt lat="62.416714" lon="9.515686"><ele>1574</ele></trkpt><trkpt lat="62.416229" lon="9.514805"><ele>1579</ele></trkpt><trkpt lat="62.415744" lon="9.513923"><ele>1580</ele></trkpt><trkpt lat="62.415259" lon="9.513042"><ele>1575</ele></trkpt><trkpt lat="62.414774" lon="9.512160"><ele>1568</ele></trkpt><trkpt lat="62.414290" lon="9.511279"><ele>1562</ele></trkpt><trkpt lat="62.413805" lon="9.510398"><ele>1556</ele></trkpt><trkpt lat="62.413320" lon="9.509517"><ele>1549</ele></trkpt><trkpt lat="62.412835" lon="9.508635"><ele>1538</ele></trkpt><trkpt lat="62.412350" lon="9.507754"><ele>1533</ele></trkpt><trkpt lat="62.411866" lon="9.506873"><ele>1524</ele></trkpt><trkpt lat="62.411381" lon="9.505992"><ele>1526</ele></trkpt><trkpt lat="62.410896" lon="9.505111"><ele>1519</ele></trkpt><trkpt lat="62.410411" lon="9.504230"><ele>1515</ele></trkpt><trkpt lat="62.409957" lon="9.504119"><ele>1513</ele></trkpt><trkpt lat="62.409472" lon="9.503238"><ele>1506</ele></trkpt><trkpt lat="62.408987" lon="9.502357"><ele>1503</ele></trkpt><trkpt lat="62.408502" lon="9.501476"><ele>1508</ele></trkpt><trkpt lat="62.408017" lon="9.500595"><ele>1506</ele></trkpt><trkpt lat="62.407533" lon="9.499714"><ele>1505</ele></trkpt><trkpt lat="62.407048" lon="9.498833"><ele>1499</ele></trkpt><trkpt lat="62.406563" lon="9.497953"><ele>1501</ele></trkpt><trkpt lat="62.406086" lon="9.497264"><ele>1512</ele></trkpt><trkpt lat="62.405601" lon="9.496383"><ele>1523</ele></trkpt><trkpt lat="62.405139" lon="9.496080"><ele>1538</ele></trkpt><trkpt lat="62.404692" lon="9.496163"><ele>1546</ele></trkpt><trkpt lat="62.404245" lon="9.496245"><ele>1550</ele></trkpt><trkpt lat="62.403760" lon="9.495364"><ele>1560</ele></trkpt><trkpt lat="62.403275" lon="9.494484"><ele>1555</ele></trkpt><trkpt lat="62.402791" lon="9.493603"><ele>1550</ele></trkpt><trkpt lat="62.402306" lon="9.492722"><ele>1550</ele></trkpt><trkpt lat="62.401821" lon="9.491842"><ele>1556</ele></trkpt><trkpt lat="62.401336" lon="9.490961"><ele>1570</ele></trkpt><trkpt lat="62.400851" lon="9.490080"><ele>1575</ele></trkpt><trkpt lat="62.400366" lon="9.489200"><ele>1582</ele></trkpt><trkpt lat="62.399881" lon="9.488319"><ele>1589</ele></trkpt><trkpt lat="62.399396" lon="9.487439"><ele>1592</ele></trkpt><trkpt lat="62.398911" lon="9.486558"><ele>1584</ele></trkpt><trkpt lat="62.398426" lon="9.485678"><ele>1581</ele></trkpt><trkpt lat="62.397941" lon="9.484797"><ele>1585</ele></trkpt><trkpt lat="62.397456" lon="9.483917"><ele>1590</ele></trkpt><trkpt lat="62.396971" lon="9.483037"><ele>1594</ele></trkpt><trkpt lat="62.396486" lon="9.482156"><ele>1595</ele></trkpt><trkpt lat="62.396002" lon="9.481276"><ele>1599</ele></trkpt><trkpt lat="62.395517" lon="9.480396"><ele>1602</ele></trkpt><trkpt lat="62.395032" lon="9.479516"><ele>1611</ele></trkpt><trkpt lat="62.394547" lon="9.478635"><ele>1613</ele></trkpt><trkpt lat="62.394062" lon="9.477755"><ele>1619</ele></trkpt><trkpt lat="62.393577" lon="9.476875"><ele>1625</ele></trkpt><trkpt lat="62.393092" lon="9.475995"><ele>1628</ele></trkpt><trkpt lat="62.392607" lon="9.475115"><ele>1631</ele></trkpt><trkpt lat="62.392122" lon="9.474235"><ele>1637</ele></trkpt><trkpt lat="62.391637" lon="9.473355"><ele>1641</ele></trkpt><trkpt lat="62.391152" lon="9.472475"><ele>1648</ele></trkpt><trkpt lat="62.390667" lon="9.471595"><ele>1656</ele></trkpt><trkpt lat="62.390181" lon="9.470715"><ele>1663</ele></trkpt><trkpt lat="62.389696" lon="9.469835"><ele>1671</ele></trkpt><trkpt lat="62.389211" lon="9.468955"><ele>1684</ele></trkpt><trkpt lat="62.388726" lon="9.468075"><ele>1699</ele></trkpt><trkpt lat="62.388241" lon="9.467195"><ele>1718</ele></trkpt><trkpt lat="62.387772" lon="9.466701"><ele>1736</ele></trkpt><trkpt lat="62.387325" lon="9.466783"><ele>1747</ele></trkpt><trkpt lat="62.386878" lon="9.466866"><ele>1752</ele></trkpt><trkpt lat="62.386431" lon="9.466948"><ele>1759</ele></trkpt><trkpt lat="62.385985" lon="9.467031"><ele>1767</ele></trkpt><trkpt lat="62.385507" lon="9.466344"><ele>1773</ele></trkpt><trkpt lat="62.385410" lon="9.466168"><ele>1773</ele></trkpt></trkseg></trk></gpx>