<?xml version="1.0" encoding="UTF-8"?>
<gpx version="1.1" creator="Rando toppturs" xmlns="http://www.topografix.com/GPX/1/1"><metadata><name>152 Svarthøtta 1548 m</name><desc>This is an automatically generated list. I have not checked them all. Do not attempt these if you're a beginner. Generated 2026-09-13 17:42 from Kartverket 10 m terrain. Ascent lines are least-cost terrain paths under 35°, not verified routes. Not a snow-stability assessment.</desc></metadata><wpt lat="62.780286" lon="9.561590"><ele>825</ele><name>Car · Svarthøtta 1548 m</name></wpt><wpt lat="62.816001" lon="9.421406"><ele>1548</ele><name>Svarthøtta 1548 m</name></wpt><trk><name>Up · Svarthøtta 1548 m</name><desc>least-cost ascent: +928 m over 9212 m, max 35°, 1.3% on 30–35°, ≈4.62 h at 4 km/h + 400 m/h. Terrain possibility, not a checked route.</desc><trkseg><trkpt lat="62.780286" lon="9.561590"><ele>825</ele></trkpt><trkpt lat="62.780427" lon="9.560581"><ele>816</ele></trkpt><trkpt lat="62.780836" lon="9.559523"><ele>808</ele></trkpt><trkpt lat="62.781245" lon="9.558465"><ele>804</ele></trkpt><trkpt lat="62.781654" lon="9.557407"><ele>797</ele></trkpt><trkpt lat="62.782063" lon="9.556349"><ele>795</ele></trkpt><trkpt lat="62.782471" lon="9.555291"><ele>795</ele></trkpt><trkpt lat="62.782880" lon="9.554233"><ele>794</ele></trkpt><trkpt lat="62.783289" lon="9.553175"><ele>794</ele></trkpt><trkpt lat="62.783698" lon="9.552117"><ele>794</ele></trkpt><trkpt lat="62.784107" lon="9.551059"><ele>794</ele></trkpt><trkpt lat="62.784516" lon="9.550001"><ele>794</ele></trkpt><trkpt lat="62.784925" lon="9.548942"><ele>794</ele></trkpt><trkpt lat="62.785333" lon="9.547884"><ele>793</ele></trkpt><trkpt lat="62.785742" lon="9.546826"><ele>794</ele></trkpt><trkpt lat="62.786151" lon="9.545767"><ele>794</ele></trkpt><trkpt lat="62.786560" lon="9.544709"><ele>795</ele></trkpt><trkpt lat="62.786969" lon="9.543651"><ele>796</ele></trkpt><trkpt lat="62.787377" lon="9.542592"><ele>796</ele></trkpt><trkpt lat="62.787429" lon="9.541600"><ele>796</ele></trkpt><trkpt lat="62.787391" lon="9.540624"><ele>797</ele></trkpt><trkpt lat="62.787532" lon="9.539616"><ele>797</ele></trkpt><trkpt lat="62.787940" lon="9.538557"><ele>798</ele></trkpt><trkpt lat="62.788349" lon="9.537499"><ele>803</ele></trkpt><trkpt lat="62.788758" lon="9.536440"><ele>807</ele></trkpt><trkpt lat="62.789077" lon="9.535398"><ele>821</ele></trkpt><trkpt lat="62.789218" lon="9.534389"><ele>832</ele></trkpt><trkpt lat="62.789627" lon="9.533331"><ele>843</ele></trkpt><trkpt lat="62.789589" lon="9.532355"><ele>856</ele></trkpt><trkpt lat="62.789997" lon="9.531296"><ele>861</ele></trkpt><trkpt lat="62.790406" lon="9.530238"><ele>868</ele></trkpt><trkpt lat="62.790815" lon="9.529179"><ele>877</ele></trkpt><trkpt lat="62.791223" lon="9.528120"><ele>876</ele></trkpt><trkpt lat="62.791632" lon="9.527061"><ele>870</ele></trkpt><trkpt lat="62.792041" lon="9.526003"><ele>868</ele></trkpt><trkpt lat="62.792449" lon="9.524944"><ele>869</ele></trkpt><trkpt lat="62.792858" lon="9.523885"><ele>863</ele></trkpt><trkpt lat="62.793267" lon="9.522826"><ele>875</ele></trkpt><trkpt lat="62.793675" lon="9.521767"><ele>876</ele></trkpt><trkpt lat="62.794084" lon="9.520708"><ele>882</ele></trkpt><trkpt lat="62.794492" lon="9.519649"><ele>874</ele></trkpt><trkpt lat="62.794901" lon="9.518590"><ele>875</ele></trkpt><trkpt lat="62.795310" lon="9.517531"><ele>878</ele></trkpt><trkpt lat="62.795718" lon="9.516472"><ele>889</ele></trkpt><trkpt lat="62.796127" lon="9.515413"><ele>898</ele></trkpt><trkpt lat="62.796535" lon="9.514354"><ele>898</ele></trkpt><trkpt lat="62.796944" lon="9.513294"><ele>906</ele></trkpt><trkpt lat="62.797353" lon="9.512235"><ele>900</ele></trkpt><trkpt lat="62.797761" lon="9.511176"><ele>894</ele></trkpt><trkpt lat="62.797991" lon="9.510150"><ele>877</ele></trkpt><trkpt lat="62.797953" lon="9.509174"><ele>873</ele></trkpt><trkpt lat="62.797915" lon="9.508198"><ele>874</ele></trkpt><trkpt lat="62.797876" lon="9.507223"><ele>883</ele></trkpt><trkpt lat="62.797838" lon="9.506247"><ele>886</ele></trkpt><trkpt lat="62.797800" lon="9.505271"><ele>888</ele></trkpt><trkpt lat="62.797762" lon="9.504295"><ele>894</ele></trkpt><trkpt lat="62.797723" lon="9.503319"><ele>894</ele></trkpt><trkpt lat="62.797953" lon="9.502293"><ele>897</ele></trkpt><trkpt lat="62.798362" lon="9.501234"><ele>906</ele></trkpt><trkpt lat="62.798770" lon="9.500175"><ele>914</ele></trkpt><trkpt lat="62.799179" lon="9.499115"><ele>920</ele></trkpt><trkpt lat="62.799587" lon="9.498056"><ele>926</ele></trkpt><trkpt lat="62.799996" lon="9.496996"><ele>932</ele></trkpt><trkpt lat="62.800404" lon="9.495937"><ele>939</ele></trkpt><trkpt lat="62.800812" lon="9.494877"><ele>941</ele></trkpt><trkpt lat="62.801221" lon="9.493817"><ele>931</ele></trkpt><trkpt lat="62.801629" lon="9.492758"><ele>926</ele></trkpt><trkpt lat="62.802038" lon="9.491698"><ele>942</ele></trkpt><trkpt lat="62.802446" lon="9.490638"><ele>958</ele></trkpt><trkpt lat="62.802765" lon="9.489596"><ele>977</ele></trkpt><trkpt lat="62.802905" lon="9.488586"><ele>995</ele></trkpt><trkpt lat="62.802867" lon="9.487610"><ele>1008</ele></trkpt><trkpt lat="62.802829" lon="9.486634"><ele>1016</ele></trkpt><trkpt lat="62.802790" lon="9.485658"><ele>1023</ele></trkpt><trkpt lat="62.803199" lon="9.484598"><ele>1031</ele></trkpt><trkpt lat="62.803607" lon="9.483538"><ele>1038</ele></trkpt><trkpt lat="62.804015" lon="9.482479"><ele>1044</ele></trkpt><trkpt lat="62.804424" lon="9.481419"><ele>1049</ele></trkpt><trkpt lat="62.804832" lon="9.480359"><ele>1059</ele></trkpt><trkpt lat="62.805240" lon="9.479299"><ele>1062</ele></trkpt><trkpt lat="62.805648" lon="9.478239"><ele>1062</ele></trkpt><trkpt lat="62.806057" lon="9.477179"><ele>1066</ele></trkpt><trkpt lat="62.806465" lon="9.476119"><ele>1077</ele></trkpt><trkpt lat="62.806873" lon="9.475059"><ele>1083</ele></trkpt><trkpt lat="62.807282" lon="9.473999"><ele>1087</ele></trkpt><trkpt lat="62.807690" lon="9.472939"><ele>1086</ele></trkpt><trkpt lat="62.808098" lon="9.471879"><ele>1091</ele></trkpt><trkpt lat="62.808506" lon="9.470818"><ele>1093</ele></trkpt><trkpt lat="62.808914" lon="9.469758"><ele>1101</ele></trkpt><trkpt lat="62.809323" lon="9.468698"><ele>1113</ele></trkpt><trkpt lat="62.809642" lon="9.467655"><ele>1128</ele></trkpt><trkpt lat="62.809603" lon="9.466678"><ele>1139</ele></trkpt><trkpt lat="62.809743" lon="9.465669"><ele>1151</ele></trkpt><trkpt lat="62.810151" lon="9.464608"><ele>1164</ele></trkpt><trkpt lat="62.810560" lon="9.463548"><ele>1177</ele></trkpt><trkpt lat="62.810968" lon="9.462488"><ele>1187</ele></trkpt><trkpt lat="62.811376" lon="9.461427"><ele>1199</ele></trkpt><trkpt lat="62.811516" lon="9.460417"><ele>1215</ele></trkpt><trkpt lat="62.811924" lon="9.459357"><ele>1226</ele></trkpt><trkpt lat="62.812332" lon="9.458296"><ele>1229</ele></trkpt><trkpt lat="62.812562" lon="9.457269"><ele>1246</ele></trkpt><trkpt lat="62.812523" lon="9.456293"><ele>1260</ele></trkpt><trkpt lat="62.812485" lon="9.455317"><ele>1267</ele></trkpt><trkpt lat="62.812446" lon="9.454341"><ele>1270</ele></trkpt><trkpt lat="62.812408" lon="9.453365"><ele>1279</ele></trkpt><trkpt lat="62.812369" lon="9.452388"><ele>1286</ele></trkpt><trkpt lat="62.812777" lon="9.451328"><ele>1279</ele></trkpt><trkpt lat="62.813185" lon="9.450267"><ele>1266</ele></trkpt><trkpt lat="62.813593" lon="9.449206"><ele>1254</ele></trkpt><trkpt lat="62.814001" lon="9.448146"><ele>1240</ele></trkpt><trkpt lat="62.814409" lon="9.447085"><ele>1223</ele></trkpt><trkpt lat="62.814728" lon="9.446041"><ele>1210</ele></trkpt><trkpt lat="62.815136" lon="9.444980"><ele>1207</ele></trkpt><trkpt lat="62.815544" lon="9.443920"><ele>1206</ele></trkpt><trkpt lat="62.815952" lon="9.442859"><ele>1210</ele></trkpt><trkpt lat="62.816360" lon="9.441798"><ele>1217</ele></trkpt><trkpt lat="62.816768" lon="9.440737"><ele>1231</ele></trkpt><trkpt lat="62.816908" lon="9.439727"><ele>1246</ele></trkpt><trkpt lat="62.817227" lon="9.438683"><ele>1261</ele></trkpt><trkpt lat="62.817635" lon="9.437622"><ele>1281</ele></trkpt><trkpt lat="62.817596" lon="9.436646"><ele>1295</ele></trkpt><trkpt lat="62.817825" lon="9.435618"><ele>1311</ele></trkpt><trkpt lat="62.818233" lon="9.434557"><ele>1326</ele></trkpt><trkpt lat="62.818641" lon="9.433496"><ele>1329</ele></trkpt><trkpt lat="62.819049" lon="9.432435"><ele>1342</ele></trkpt><trkpt lat="62.819457" lon="9.431374"><ele>1359</ele></trkpt><trkpt lat="62.819597" lon="9.430364"><ele>1385</ele></trkpt><trkpt lat="62.819826" lon="9.429337"><ele>1419</ele></trkpt><trkpt lat="62.819966" lon="9.428326"><ele>1455</ele></trkpt><trkpt lat="62.820017" lon="9.427333"><ele>1478</ele></trkpt><trkpt lat="62.819620" lon="9.426424"><ele>1479</ele></trkpt><trkpt lat="62.819135" lon="9.425533"><ele>1488</ele></trkpt><trkpt lat="62.818650" lon="9.424641"><ele>1498</ele></trkpt><trkpt lat="62.818172" lon="9.423945"><ele>1504</ele></trkpt><trkpt lat="62.817694" lon="9.423248"><ele>1518</ele></trkpt><trkpt lat="62.817217" lon="9.422552"><ele>1530</ele></trkpt><trkpt lat="62.816754" lon="9.422246"><ele>1540</ele></trkpt><trkpt lat="62.816292" lon="9.421941"><ele>1545</ele></trkpt><trkpt lat="62.816001" lon="9.421406"><ele>1548</ele></trkpt></trkseg></trk></gpx>