<?xml version="1.0" encoding="UTF-8"?>
<gpx version="1.1" creator="Rando toppturs" xmlns="http://www.topografix.com/GPX/1/1"><metadata><name>153 Unnamed 1330 m</name><desc>This is an automatically generated list. I have not checked them all. Do not attempt these if you're a beginner. Generated 2026-09-13 17:42 from Kartverket 10 m terrain. Ascent lines are least-cost terrain paths under 35°, not verified routes. Not a snow-stability assessment.</desc></metadata><wpt lat="62.700470" lon="9.363883"><ele>673</ele><name>Car · Unnamed summit 1330 m</name></wpt><wpt lat="62.782048" lon="9.286745"><ele>1330</ele><name>Unnamed summit 1330 m</name></wpt><trk><name>Up · Unnamed summit 1330 m</name><desc>least-cost ascent: +1019 m over 11081 m, max 31°, 0.1% on 30–35°, ≈5.32 h at 4 km/h + 400 m/h. Terrain possibility, not a checked route.</desc><trkseg><trkpt lat="62.700470" lon="9.363883"><ele>673</ele></trkpt><trkpt lat="62.700917" lon="9.363798"><ele>681</ele></trkpt><trkpt lat="62.701364" lon="9.363712"><ele>689</ele></trkpt><trkpt lat="62.701810" lon="9.363627"><ele>696</ele></trkpt><trkpt lat="62.702257" lon="9.363542"><ele>706</ele></trkpt><trkpt lat="62.702704" lon="9.363456"><ele>716</ele></trkpt><trkpt lat="62.703150" lon="9.363371"><ele>730</ele></trkpt><trkpt lat="62.703565" lon="9.362508"><ele>743</ele></trkpt><trkpt lat="62.703973" lon="9.361450"><ele>759</ele></trkpt><trkpt lat="62.704380" lon="9.360392"><ele>778</ele></trkpt><trkpt lat="62.704788" lon="9.359334"><ele>790</ele></trkpt><trkpt lat="62.705195" lon="9.358276"><ele>805</ele></trkpt><trkpt lat="62.705626" lon="9.357802"><ele>820</ele></trkpt><trkpt lat="62.706065" lon="9.357522"><ele>836</ele></trkpt><trkpt lat="62.706472" lon="9.356464"><ele>848</ele></trkpt><trkpt lat="62.706880" lon="9.355406"><ele>862</ele></trkpt><trkpt lat="62.707287" lon="9.354348"><ele>876</ele></trkpt><trkpt lat="62.707694" lon="9.353290"><ele>885</ele></trkpt><trkpt lat="62.708102" lon="9.352232"><ele>895</ele></trkpt><trkpt lat="62.708509" lon="9.351174"><ele>906</ele></trkpt><trkpt lat="62.708916" lon="9.350116"><ele>916</ele></trkpt><trkpt lat="62.709355" lon="9.349836"><ele>928</ele></trkpt><trkpt lat="62.709802" lon="9.349750"><ele>937</ele></trkpt><trkpt lat="62.710248" lon="9.349665"><ele>948</ele></trkpt><trkpt lat="62.710695" lon="9.349579"><ele>956</ele></trkpt><trkpt lat="62.711142" lon="9.349494"><ele>960</ele></trkpt><trkpt lat="62.711588" lon="9.349408"><ele>963</ele></trkpt><trkpt lat="62.712035" lon="9.349322"><ele>964</ele></trkpt><trkpt lat="62.712481" lon="9.349237"><ele>966</ele></trkpt><trkpt lat="62.712928" lon="9.349151"><ele>970</ele></trkpt><trkpt lat="62.713375" lon="9.349066"><ele>973</ele></trkpt><trkpt lat="62.713821" lon="9.348980"><ele>974</ele></trkpt><trkpt lat="62.714268" lon="9.348895"><ele>976</ele></trkpt><trkpt lat="62.714714" lon="9.348809"><ele>976</ele></trkpt><trkpt lat="62.715161" lon="9.348724"><ele>977</ele></trkpt><trkpt lat="62.715608" lon="9.348638"><ele>979</ele></trkpt><trkpt lat="62.716054" lon="9.348553"><ele>979</ele></trkpt><trkpt lat="62.716493" lon="9.348272"><ele>979</ele></trkpt><trkpt lat="62.716932" lon="9.347992"><ele>984</ele></trkpt><trkpt lat="62.717378" lon="9.347907"><ele>984</ele></trkpt><trkpt lat="62.717825" lon="9.347821"><ele>984</ele></trkpt><trkpt lat="62.718271" lon="9.347735"><ele>986</ele></trkpt><trkpt lat="62.718718" lon="9.347650"><ele>989</ele></trkpt><trkpt lat="62.719133" lon="9.346786"><ele>992</ele></trkpt><trkpt lat="62.719572" lon="9.346506"><ele>987</ele></trkpt><trkpt lat="62.720003" lon="9.346031"><ele>991</ele></trkpt><trkpt lat="62.720442" lon="9.345751"><ele>993</ele></trkpt><trkpt lat="62.720888" lon="9.345665"><ele>1000</ele></trkpt><trkpt lat="62.721335" lon="9.345579"><ele>1001</ele></trkpt><trkpt lat="62.721781" lon="9.345494"><ele>1001</ele></trkpt><trkpt lat="62.722228" lon="9.345408"><ele>1007</ele></trkpt><trkpt lat="62.722675" lon="9.345323"><ele>1010</ele></trkpt><trkpt lat="62.723090" lon="9.344458"><ele>1022</ele></trkpt><trkpt lat="62.723497" lon="9.343400"><ele>1026</ele></trkpt><trkpt lat="62.723904" lon="9.342341"><ele>1032</ele></trkpt><trkpt lat="62.724312" lon="9.341282"><ele>1035</ele></trkpt><trkpt lat="62.724719" lon="9.340223"><ele>1040</ele></trkpt><trkpt lat="62.725126" lon="9.339164"><ele>1047</ele></trkpt><trkpt lat="62.725533" lon="9.338105"><ele>1052</ele></trkpt><trkpt lat="62.725940" lon="9.337046"><ele>1057</ele></trkpt><trkpt lat="62.726348" lon="9.335987"><ele>1061</ele></trkpt><trkpt lat="62.726755" lon="9.334928"><ele>1065</ele></trkpt><trkpt lat="62.727162" lon="9.333869"><ele>1069</ele></trkpt><trkpt lat="62.727569" lon="9.332810"><ele>1076</ele></trkpt><trkpt lat="62.727977" lon="9.331751"><ele>1082</ele></trkpt><trkpt lat="62.728384" lon="9.330692"><ele>1085</ele></trkpt><trkpt lat="62.728791" lon="9.329633"><ele>1088</ele></trkpt><trkpt lat="62.729198" lon="9.328574"><ele>1089</ele></trkpt><trkpt lat="62.729605" lon="9.327515"><ele>1089</ele></trkpt><trkpt lat="62.730012" lon="9.326455"><ele>1094</ele></trkpt><trkpt lat="62.730420" lon="9.325396"><ele>1093</ele></trkpt><trkpt lat="62.730827" lon="9.324337"><ele>1094</ele></trkpt><trkpt lat="62.731234" lon="9.323277"><ele>1096</ele></trkpt><trkpt lat="62.731641" lon="9.322218"><ele>1096</ele></trkpt><trkpt lat="62.732048" lon="9.321159"><ele>1092</ele></trkpt><trkpt lat="62.732455" lon="9.320099"><ele>1088</ele></trkpt><trkpt lat="62.732862" lon="9.319040"><ele>1083</ele></trkpt><trkpt lat="62.733269" lon="9.317980"><ele>1079</ele></trkpt><trkpt lat="62.733676" lon="9.316921"><ele>1075</ele></trkpt><trkpt lat="62.734083" lon="9.315861"><ele>1073</ele></trkpt><trkpt lat="62.734490" lon="9.314802"><ele>1073</ele></trkpt><trkpt lat="62.734898" lon="9.313742"><ele>1073</ele></trkpt><trkpt lat="62.735305" lon="9.312683"><ele>1073</ele></trkpt><trkpt lat="62.735712" lon="9.311623"><ele>1073</ele></trkpt><trkpt lat="62.736119" lon="9.310563"><ele>1075</ele></trkpt><trkpt lat="62.736526" lon="9.309504"><ele>1077</ele></trkpt><trkpt lat="62.736933" lon="9.308444"><ele>1081</ele></trkpt><trkpt lat="62.737340" lon="9.307384"><ele>1087</ele></trkpt><trkpt lat="62.737747" lon="9.306324"><ele>1091</ele></trkpt><trkpt lat="62.738154" lon="9.305265"><ele>1096</ele></trkpt><trkpt lat="62.738561" lon="9.304205"><ele>1103</ele></trkpt><trkpt lat="62.738968" lon="9.303145"><ele>1110</ele></trkpt><trkpt lat="62.739196" lon="9.302119"><ele>1120</ele></trkpt><trkpt lat="62.739424" lon="9.301094"><ele>1133</ele></trkpt><trkpt lat="62.739831" lon="9.300034"><ele>1145</ele></trkpt><trkpt lat="62.740278" lon="9.299948"><ele>1146</ele></trkpt><trkpt lat="62.740724" lon="9.299861"><ele>1146</ele></trkpt><trkpt lat="62.741171" lon="9.299775"><ele>1146</ele></trkpt><trkpt lat="62.741617" lon="9.299689"><ele>1146</ele></trkpt><trkpt lat="62.742064" lon="9.299602"><ele>1146</ele></trkpt><trkpt lat="62.742511" lon="9.299516"><ele>1146</ele></trkpt><trkpt lat="62.742957" lon="9.299429"><ele>1146</ele></trkpt><trkpt lat="62.743380" lon="9.298759"><ele>1147</ele></trkpt><trkpt lat="62.743787" lon="9.297699"><ele>1157</ele></trkpt><trkpt lat="62.744210" lon="9.297028"><ele>1179</ele></trkpt><trkpt lat="62.744632" lon="9.296357"><ele>1195</ele></trkpt><trkpt lat="62.745079" lon="9.296271"><ele>1208</ele></trkpt><trkpt lat="62.745525" lon="9.296184"><ele>1216</ele></trkpt><trkpt lat="62.745972" lon="9.296098"><ele>1220</ele></trkpt><trkpt lat="62.746419" lon="9.296011"><ele>1223</ele></trkpt><trkpt lat="62.746905" lon="9.296899"><ele>1243</ele></trkpt><trkpt lat="62.747391" lon="9.297786"><ele>1269</ele></trkpt><trkpt lat="62.747861" lon="9.298284"><ele>1288</ele></trkpt><trkpt lat="62.748308" lon="9.298198"><ele>1294</ele></trkpt><trkpt lat="62.748754" lon="9.298111"><ele>1312</ele></trkpt><trkpt lat="62.749201" lon="9.298025"><ele>1323</ele></trkpt><trkpt lat="62.749648" lon="9.297938"><ele>1335</ele></trkpt><trkpt lat="62.750094" lon="9.297852"><ele>1349</ele></trkpt><trkpt lat="62.750541" lon="9.297765"><ele>1355</ele></trkpt><trkpt lat="62.750987" lon="9.297679"><ele>1360</ele></trkpt><trkpt lat="62.751442" lon="9.297787"><ele>1372</ele></trkpt><trkpt lat="62.751888" lon="9.297701"><ele>1370</ele></trkpt><trkpt lat="62.752343" lon="9.297809"><ele>1370</ele></trkpt><trkpt lat="62.752797" lon="9.297917"><ele>1364</ele></trkpt><trkpt lat="62.753260" lon="9.298221"><ele>1379</ele></trkpt><trkpt lat="62.753706" lon="9.298134"><ele>1387</ele></trkpt><trkpt lat="62.754153" lon="9.298048"><ele>1395</ele></trkpt><trkpt lat="62.754599" lon="9.297961"><ele>1402</ele></trkpt><trkpt lat="62.755046" lon="9.297875"><ele>1400</ele></trkpt><trkpt lat="62.755493" lon="9.297788"><ele>1395</ele></trkpt><trkpt lat="62.755939" lon="9.297702"><ele>1409</ele></trkpt><trkpt lat="62.756386" lon="9.297615"><ele>1424</ele></trkpt><trkpt lat="62.756832" lon="9.297529"><ele>1437</ele></trkpt><trkpt lat="62.757279" lon="9.297442"><ele>1447</ele></trkpt><trkpt lat="62.757725" lon="9.297356"><ele>1456</ele></trkpt><trkpt lat="62.758172" lon="9.297269"><ele>1461</ele></trkpt><trkpt lat="62.758618" lon="9.297183"><ele>1468</ele></trkpt><trkpt lat="62.759065" lon="9.297096"><ele>1472</ele></trkpt><trkpt lat="62.759512" lon="9.297010"><ele>1471</ele></trkpt><trkpt lat="62.759958" lon="9.296923"><ele>1474</ele></trkpt><trkpt lat="62.760405" lon="9.296837"><ele>1477</ele></trkpt><trkpt lat="62.760851" lon="9.296750"><ele>1474</ele></trkpt><trkpt lat="62.761298" lon="9.296664"><ele>1468</ele></trkpt><trkpt lat="62.761744" lon="9.296577"><ele>1467</ele></trkpt><trkpt lat="62.762191" lon="9.296491"><ele>1469</ele></trkpt><trkpt lat="62.762637" lon="9.296404"><ele>1474</ele></trkpt><trkpt lat="62.763084" lon="9.296318"><ele>1477</ele></trkpt><trkpt lat="62.763531" lon="9.296231"><ele>1479</ele></trkpt><trkpt lat="62.763977" lon="9.296145"><ele>1483</ele></trkpt><trkpt lat="62.764424" lon="9.296058"><ele>1485</ele></trkpt><trkpt lat="62.764870" lon="9.295972"><ele>1486</ele></trkpt><trkpt lat="62.765317" lon="9.295885"><ele>1492</ele></trkpt><trkpt lat="62.765763" lon="9.295798"><ele>1489</ele></trkpt><trkpt lat="62.766210" lon="9.295712"><ele>1484</ele></trkpt><trkpt lat="62.766680" lon="9.296210"><ele>1478</ele></trkpt><trkpt lat="62.767135" lon="9.296318"><ele>1458</ele></trkpt><trkpt lat="62.767573" lon="9.296037"><ele>1431</ele></trkpt><trkpt lat="62.768004" lon="9.295561"><ele>1409</ele></trkpt><trkpt lat="62.768443" lon="9.295279"><ele>1381</ele></trkpt><trkpt lat="62.768889" lon="9.295193"><ele>1360</ele></trkpt><trkpt lat="62.769328" lon="9.294911"><ele>1347</ele></trkpt><trkpt lat="62.769766" lon="9.294630"><ele>1334</ele></trkpt><trkpt lat="62.770205" lon="9.294348"><ele>1327</ele></trkpt><trkpt lat="62.770652" lon="9.294262"><ele>1319</ele></trkpt><trkpt lat="62.771090" lon="9.293980"><ele>1317</ele></trkpt><trkpt lat="62.771537" lon="9.293893"><ele>1317</ele></trkpt><trkpt lat="62.771983" lon="9.293807"><ele>1314</ele></trkpt><trkpt lat="62.772446" lon="9.294110"><ele>1296</ele></trkpt><trkpt lat="62.772892" lon="9.294024"><ele>1278</ele></trkpt><trkpt lat="62.773315" lon="9.293352"><ele>1258</ele></trkpt><trkpt lat="62.773762" lon="9.293266"><ele>1243</ele></trkpt><trkpt lat="62.774208" lon="9.293179"><ele>1227</ele></trkpt><trkpt lat="62.774655" lon="9.293092"><ele>1220</ele></trkpt><trkpt lat="62.775101" lon="9.293006"><ele>1217</ele></trkpt><trkpt lat="62.775548" lon="9.292919"><ele>1214</ele></trkpt><trkpt lat="62.775994" lon="9.292832"><ele>1212</ele></trkpt><trkpt lat="62.776441" lon="9.292746"><ele>1211</ele></trkpt><trkpt lat="62.776888" lon="9.292659"><ele>1210</ele></trkpt><trkpt lat="62.777294" lon="9.291598"><ele>1212</ele></trkpt><trkpt lat="62.777701" lon="9.290536"><ele>1220</ele></trkpt><trkpt lat="62.778108" lon="9.289475"><ele>1232</ele></trkpt><trkpt lat="62.778515" lon="9.288413"><ele>1244</ele></trkpt><trkpt lat="62.778954" lon="9.288132"><ele>1259</ele></trkpt><trkpt lat="62.779400" lon="9.288045"><ele>1268</ele></trkpt><trkpt lat="62.779839" lon="9.287763"><ele>1275</ele></trkpt><trkpt lat="62.780285" lon="9.287676"><ele>1289</ele></trkpt><trkpt lat="62.780732" lon="9.287590"><ele>1301</ele></trkpt><trkpt lat="62.781178" lon="9.287503"><ele>1315</ele></trkpt><trkpt lat="62.781625" lon="9.287416"><ele>1322</ele></trkpt><trkpt lat="62.782048" lon="9.286745"><ele>1330</ele></trkpt><trkpt lat="62.782048" lon="9.286745"><ele>1330</ele></trkpt></trkseg></trk></gpx>