<?xml version="1.0" encoding="UTF-8"?>
<gpx version="1.1" creator="Rando toppturs" xmlns="http://www.topografix.com/GPX/1/1"><metadata><name>154 Unnamed 1482 m</name><desc>This is an automatically generated list. I have not checked them all. Do not attempt these if you're a beginner. Generated 2026-09-13 17:42 from Kartverket 10 m terrain. Ascent lines are least-cost terrain paths under 35°, not verified routes. Not a snow-stability assessment.</desc></metadata><wpt lat="62.703106" lon="9.391406"><ele>678</ele><name>Car · Unnamed summit 1482 m</name></wpt><wpt lat="62.780879" lon="9.357915"><ele>1482</ele><name>Unnamed summit 1482 m</name></wpt><trk><name>Up · Unnamed summit 1482 m</name><desc>least-cost ascent: +1013 m over 9420 m, max 24°, 0.0% on 30–35°, ≈4.89 h at 4 km/h + 400 m/h. Terrain possibility, not a checked route.</desc><trkseg><trkpt lat="62.703106" lon="9.391406"><ele>678</ele></trkpt><trkpt lat="62.703553" lon="9.391321"><ele>676</ele></trkpt><trkpt lat="62.704000" lon="9.391236"><ele>677</ele></trkpt><trkpt lat="62.704446" lon="9.391151"><ele>682</ele></trkpt><trkpt lat="62.704893" lon="9.391066"><ele>685</ele></trkpt><trkpt lat="62.705340" lon="9.390982"><ele>687</ele></trkpt><trkpt lat="62.705786" lon="9.390897"><ele>687</ele></trkpt><trkpt lat="62.706233" lon="9.390812"><ele>687</ele></trkpt><trkpt lat="62.706680" lon="9.390727"><ele>694</ele></trkpt><trkpt lat="62.707126" lon="9.390642"><ele>700</ele></trkpt><trkpt lat="62.707573" lon="9.390557"><ele>703</ele></trkpt><trkpt lat="62.708019" lon="9.390472"><ele>706</ele></trkpt><trkpt lat="62.708466" lon="9.390387"><ele>711</ele></trkpt><trkpt lat="62.708913" lon="9.390302"><ele>714</ele></trkpt><trkpt lat="62.709359" lon="9.390217"><ele>716</ele></trkpt><trkpt lat="62.709806" lon="9.390133"><ele>718</ele></trkpt><trkpt lat="62.710253" lon="9.390048"><ele>721</ele></trkpt><trkpt lat="62.710699" lon="9.389963"><ele>725</ele></trkpt><trkpt lat="62.711146" lon="9.389878"><ele>729</ele></trkpt><trkpt lat="62.711592" lon="9.389793"><ele>734</ele></trkpt><trkpt lat="62.712039" lon="9.389708"><ele>739</ele></trkpt><trkpt lat="62.712486" lon="9.389623"><ele>744</ele></trkpt><trkpt lat="62.712932" lon="9.389538"><ele>747</ele></trkpt><trkpt lat="62.713379" lon="9.389453"><ele>750</ele></trkpt><trkpt lat="62.713826" lon="9.389368"><ele>753</ele></trkpt><trkpt lat="62.714272" lon="9.389283"><ele>755</ele></trkpt><trkpt lat="62.714719" lon="9.389198"><ele>755</ele></trkpt><trkpt lat="62.715166" lon="9.389113"><ele>754</ele></trkpt><trkpt lat="62.715612" lon="9.389028"><ele>753</ele></trkpt><trkpt lat="62.716059" lon="9.388944"><ele>753</ele></trkpt><trkpt lat="62.716505" lon="9.388859"><ele>757</ele></trkpt><trkpt lat="62.716952" lon="9.388774"><ele>761</ele></trkpt><trkpt lat="62.717399" lon="9.388689"><ele>763</ele></trkpt><trkpt lat="62.717845" lon="9.388604"><ele>764</ele></trkpt><trkpt lat="62.718292" lon="9.388519"><ele>767</ele></trkpt><trkpt lat="62.718739" lon="9.388434"><ele>768</ele></trkpt><trkpt lat="62.719185" lon="9.388349"><ele>772</ele></trkpt><trkpt lat="62.719632" lon="9.388264"><ele>775</ele></trkpt><trkpt lat="62.720078" lon="9.388179"><ele>777</ele></trkpt><trkpt lat="62.720525" lon="9.388094"><ele>782</ele></trkpt><trkpt lat="62.720972" lon="9.388009"><ele>788</ele></trkpt><trkpt lat="62.721418" lon="9.387924"><ele>796</ele></trkpt><trkpt lat="62.721865" lon="9.387839"><ele>805</ele></trkpt><trkpt lat="62.722312" lon="9.387754"><ele>813</ele></trkpt><trkpt lat="62.722758" lon="9.387669"><ele>822</ele></trkpt><trkpt lat="62.723205" lon="9.387584"><ele>829</ele></trkpt><trkpt lat="62.723652" lon="9.387499"><ele>836</ele></trkpt><trkpt lat="62.724098" lon="9.387414"><ele>843</ele></trkpt><trkpt lat="62.724545" lon="9.387329"><ele>850</ele></trkpt><trkpt lat="62.724991" lon="9.387244"><ele>856</ele></trkpt><trkpt lat="62.725438" lon="9.387159"><ele>861</ele></trkpt><trkpt lat="62.725885" lon="9.387074"><ele>867</ele></trkpt><trkpt lat="62.726331" lon="9.386989"><ele>872</ele></trkpt><trkpt lat="62.726778" lon="9.386904"><ele>878</ele></trkpt><trkpt lat="62.727225" lon="9.386819"><ele>885</ele></trkpt><trkpt lat="62.727671" lon="9.386734"><ele>891</ele></trkpt><trkpt lat="62.728118" lon="9.386649"><ele>899</ele></trkpt><trkpt lat="62.728557" lon="9.386369"><ele>913</ele></trkpt><trkpt lat="62.729003" lon="9.386284"><ele>924</ele></trkpt><trkpt lat="62.729434" lon="9.385810"><ele>940</ele></trkpt><trkpt lat="62.729873" lon="9.385530"><ele>953</ele></trkpt><trkpt lat="62.730320" lon="9.385445"><ele>962</ele></trkpt><trkpt lat="62.730751" lon="9.384970"><ele>977</ele></trkpt><trkpt lat="62.731197" lon="9.384885"><ele>982</ele></trkpt><trkpt lat="62.731644" lon="9.384800"><ele>988</ele></trkpt><trkpt lat="62.732091" lon="9.384715"><ele>995</ele></trkpt><trkpt lat="62.732537" lon="9.384630"><ele>1001</ele></trkpt><trkpt lat="62.732984" lon="9.384545"><ele>1010</ele></trkpt><trkpt lat="62.733431" lon="9.384460"><ele>1017</ele></trkpt><trkpt lat="62.733877" lon="9.384375"><ele>1025</ele></trkpt><trkpt lat="62.734324" lon="9.384290"><ele>1034</ele></trkpt><trkpt lat="62.734770" lon="9.384205"><ele>1040</ele></trkpt><trkpt lat="62.735217" lon="9.384120"><ele>1047</ele></trkpt><trkpt lat="62.735664" lon="9.384034"><ele>1056</ele></trkpt><trkpt lat="62.736110" lon="9.383949"><ele>1064</ele></trkpt><trkpt lat="62.736557" lon="9.383864"><ele>1072</ele></trkpt><trkpt lat="62.737004" lon="9.383779"><ele>1080</ele></trkpt><trkpt lat="62.737450" lon="9.383694"><ele>1086</ele></trkpt><trkpt lat="62.737897" lon="9.383609"><ele>1092</ele></trkpt><trkpt lat="62.738343" lon="9.383524"><ele>1098</ele></trkpt><trkpt lat="62.738790" lon="9.383439"><ele>1103</ele></trkpt><trkpt lat="62.739237" lon="9.383354"><ele>1109</ele></trkpt><trkpt lat="62.739683" lon="9.383268"><ele>1117</ele></trkpt><trkpt lat="62.740130" lon="9.383183"><ele>1123</ele></trkpt><trkpt lat="62.740577" lon="9.383098"><ele>1128</ele></trkpt><trkpt lat="62.741023" lon="9.383013"><ele>1133</ele></trkpt><trkpt lat="62.741470" lon="9.382928"><ele>1138</ele></trkpt><trkpt lat="62.741916" lon="9.382843"><ele>1144</ele></trkpt><trkpt lat="62.742363" lon="9.382758"><ele>1149</ele></trkpt><trkpt lat="62.742810" lon="9.382672"><ele>1153</ele></trkpt><trkpt lat="62.743256" lon="9.382587"><ele>1155</ele></trkpt><trkpt lat="62.743703" lon="9.382502"><ele>1161</ele></trkpt><trkpt lat="62.744150" lon="9.382417"><ele>1166</ele></trkpt><trkpt lat="62.744596" lon="9.382332"><ele>1170</ele></trkpt><trkpt lat="62.745043" lon="9.382247"><ele>1175</ele></trkpt><trkpt lat="62.745489" lon="9.382162"><ele>1184</ele></trkpt><trkpt lat="62.745936" lon="9.382076"><ele>1191</ele></trkpt><trkpt lat="62.746383" lon="9.381991"><ele>1197</ele></trkpt><trkpt lat="62.746829" lon="9.381906"><ele>1204</ele></trkpt><trkpt lat="62.747276" lon="9.381821"><ele>1214</ele></trkpt><trkpt lat="62.747723" lon="9.381736"><ele>1227</ele></trkpt><trkpt lat="62.748169" lon="9.381651"><ele>1236</ele></trkpt><trkpt lat="62.748616" lon="9.381565"><ele>1249</ele></trkpt><trkpt lat="62.749062" lon="9.381480"><ele>1260</ele></trkpt><trkpt lat="62.749493" lon="9.381005"><ele>1277</ele></trkpt><trkpt lat="62.749901" lon="9.379946"><ele>1297</ele></trkpt><trkpt lat="62.750316" lon="9.379082"><ele>1313</ele></trkpt><trkpt lat="62.750724" lon="9.378022"><ele>1326</ele></trkpt><trkpt lat="62.751131" lon="9.376963"><ele>1334</ele></trkpt><trkpt lat="62.751539" lon="9.375904"><ele>1334</ele></trkpt><trkpt lat="62.751946" lon="9.374844"><ele>1332</ele></trkpt><trkpt lat="62.752354" lon="9.373785"><ele>1326</ele></trkpt><trkpt lat="62.752761" lon="9.372725"><ele>1319</ele></trkpt><trkpt lat="62.753169" lon="9.371666"><ele>1311</ele></trkpt><trkpt lat="62.753592" lon="9.370996"><ele>1295</ele></trkpt><trkpt lat="62.754023" lon="9.370521"><ele>1284</ele></trkpt><trkpt lat="62.754470" lon="9.370436"><ele>1277</ele></trkpt><trkpt lat="62.754916" lon="9.370350"><ele>1267</ele></trkpt><trkpt lat="62.755363" lon="9.370265"><ele>1254</ele></trkpt><trkpt lat="62.755809" lon="9.370180"><ele>1250</ele></trkpt><trkpt lat="62.756256" lon="9.370094"><ele>1251</ele></trkpt><trkpt lat="62.756703" lon="9.370009"><ele>1260</ele></trkpt><trkpt lat="62.757149" lon="9.369923"><ele>1271</ele></trkpt><trkpt lat="62.757596" lon="9.369838"><ele>1277</ele></trkpt><trkpt lat="62.758043" lon="9.369753"><ele>1283</ele></trkpt><trkpt lat="62.758489" lon="9.369667"><ele>1289</ele></trkpt><trkpt lat="62.758936" lon="9.369582"><ele>1301</ele></trkpt><trkpt lat="62.759382" lon="9.369496"><ele>1309</ele></trkpt><trkpt lat="62.759829" lon="9.369411"><ele>1319</ele></trkpt><trkpt lat="62.760276" lon="9.369326"><ele>1332</ele></trkpt><trkpt lat="62.760722" lon="9.369240"><ele>1344</ele></trkpt><trkpt lat="62.761169" lon="9.369155"><ele>1355</ele></trkpt><trkpt lat="62.761615" lon="9.369069"><ele>1366</ele></trkpt><trkpt lat="62.762062" lon="9.368984"><ele>1377</ele></trkpt><trkpt lat="62.762509" lon="9.368898"><ele>1380</ele></trkpt><trkpt lat="62.762955" lon="9.368813"><ele>1388</ele></trkpt><trkpt lat="62.763402" lon="9.368728"><ele>1387</ele></trkpt><trkpt lat="62.763849" lon="9.368642"><ele>1382</ele></trkpt><trkpt lat="62.764295" lon="9.368557"><ele>1386</ele></trkpt><trkpt lat="62.764742" lon="9.368471"><ele>1386</ele></trkpt><trkpt lat="62.765188" lon="9.368386"><ele>1381</ele></trkpt><trkpt lat="62.765619" lon="9.367911"><ele>1375</ele></trkpt><trkpt lat="62.766027" lon="9.366851"><ele>1370</ele></trkpt><trkpt lat="62.766434" lon="9.365791"><ele>1375</ele></trkpt><trkpt lat="62.766842" lon="9.364730"><ele>1380</ele></trkpt><trkpt lat="62.767265" lon="9.364060"><ele>1374</ele></trkpt><trkpt lat="62.767680" lon="9.363195"><ele>1363</ele></trkpt><trkpt lat="62.768111" lon="9.362720"><ele>1360</ele></trkpt><trkpt lat="62.768542" lon="9.362244"><ele>1349</ele></trkpt><trkpt lat="62.768988" lon="9.362159"><ele>1354</ele></trkpt><trkpt lat="62.769435" lon="9.362073"><ele>1353</ele></trkpt><trkpt lat="62.769874" lon="9.361793"><ele>1364</ele></trkpt><trkpt lat="62.770297" lon="9.361122"><ele>1372</ele></trkpt><trkpt lat="62.770743" lon="9.361037"><ele>1383</ele></trkpt><trkpt lat="62.771190" lon="9.360951"><ele>1382</ele></trkpt><trkpt lat="62.771637" lon="9.360866"><ele>1384</ele></trkpt><trkpt lat="62.772052" lon="9.360000"><ele>1378</ele></trkpt><trkpt lat="62.772499" lon="9.359915"><ele>1375</ele></trkpt><trkpt lat="62.772945" lon="9.359829"><ele>1376</ele></trkpt><trkpt lat="62.773392" lon="9.359743"><ele>1373</ele></trkpt><trkpt lat="62.773831" lon="9.359463"><ele>1375</ele></trkpt><trkpt lat="62.774238" lon="9.358402"><ele>1357</ele></trkpt><trkpt lat="62.774669" lon="9.357927"><ele>1356</ele></trkpt><trkpt lat="62.775108" lon="9.357646"><ele>1367</ele></trkpt><trkpt lat="62.775554" lon="9.357561"><ele>1371</ele></trkpt><trkpt lat="62.775985" lon="9.357085"><ele>1378</ele></trkpt><trkpt lat="62.776432" lon="9.356999"><ele>1383</ele></trkpt><trkpt lat="62.776855" lon="9.356329"><ele>1385</ele></trkpt><trkpt lat="62.777278" lon="9.355658"><ele>1398</ele></trkpt><trkpt lat="62.777724" lon="9.355572"><ele>1411</ele></trkpt><trkpt lat="62.778171" lon="9.355487"><ele>1412</ele></trkpt><trkpt lat="62.778618" lon="9.355401"><ele>1429</ele></trkpt><trkpt lat="62.779080" lon="9.355705"><ele>1438</ele></trkpt><trkpt lat="62.779527" lon="9.355620"><ele>1436</ele></trkpt><trkpt lat="62.780005" lon="9.356314"><ele>1444</ele></trkpt><trkpt lat="62.780490" lon="9.357203"><ele>1468</ele></trkpt><trkpt lat="62.780879" lon="9.357915"><ele>1482</ele></trkpt></trkseg></trk></gpx>