<?xml version="1.0" encoding="UTF-8"?>
<gpx version="1.1" creator="Rando toppturs" xmlns="http://www.topografix.com/GPX/1/1"><metadata><name>156 Unnamed 1460 m</name><desc>This is an automatically generated list. I have not checked them all. Do not attempt these if you're a beginner. Generated 2026-09-13 17:42 from Kartverket 10 m terrain. Ascent lines are least-cost terrain paths under 35°, not verified routes. Not a snow-stability assessment.</desc></metadata><wpt lat="62.700470" lon="9.363883"><ele>673</ele><name>Car · Unnamed summit 1460 m</name></wpt><wpt lat="62.733891" lon="9.297847"><ele>1460</ele><name>Unnamed summit 1460 m</name></wpt><trk><name>Up · Unnamed summit 1460 m</name><desc>least-cost ascent: +855 m over 7632 m, max 34°, 2.0% on 30–35°, ≈4.05 h at 4 km/h + 400 m/h. Terrain possibility, not a checked route.</desc><trkseg><trkpt lat="62.700470" lon="9.363883"><ele>673</ele></trkpt><trkpt lat="62.700917" lon="9.363798"><ele>681</ele></trkpt><trkpt lat="62.701364" lon="9.363712"><ele>689</ele></trkpt><trkpt lat="62.701810" lon="9.363627"><ele>696</ele></trkpt><trkpt lat="62.702257" lon="9.363542"><ele>706</ele></trkpt><trkpt lat="62.702704" lon="9.363456"><ele>716</ele></trkpt><trkpt lat="62.703150" lon="9.363371"><ele>730</ele></trkpt><trkpt lat="62.703565" lon="9.362508"><ele>743</ele></trkpt><trkpt lat="62.703973" lon="9.361450"><ele>759</ele></trkpt><trkpt lat="62.704380" lon="9.360392"><ele>778</ele></trkpt><trkpt lat="62.704788" lon="9.359334"><ele>790</ele></trkpt><trkpt lat="62.705195" lon="9.358276"><ele>805</ele></trkpt><trkpt lat="62.705626" lon="9.357802"><ele>820</ele></trkpt><trkpt lat="62.706065" lon="9.357522"><ele>836</ele></trkpt><trkpt lat="62.706472" lon="9.356464"><ele>848</ele></trkpt><trkpt lat="62.706880" lon="9.355406"><ele>862</ele></trkpt><trkpt lat="62.707287" lon="9.354348"><ele>876</ele></trkpt><trkpt lat="62.707694" lon="9.353290"><ele>885</ele></trkpt><trkpt lat="62.708102" lon="9.352232"><ele>895</ele></trkpt><trkpt lat="62.708509" lon="9.351174"><ele>906</ele></trkpt><trkpt lat="62.708916" lon="9.350116"><ele>916</ele></trkpt><trkpt lat="62.709355" lon="9.349836"><ele>928</ele></trkpt><trkpt lat="62.709802" lon="9.349750"><ele>937</ele></trkpt><trkpt lat="62.710248" lon="9.349665"><ele>948</ele></trkpt><trkpt lat="62.710695" lon="9.349579"><ele>956</ele></trkpt><trkpt lat="62.711142" lon="9.349494"><ele>960</ele></trkpt><trkpt lat="62.711588" lon="9.349408"><ele>963</ele></trkpt><trkpt lat="62.712035" lon="9.349322"><ele>964</ele></trkpt><trkpt lat="62.712481" lon="9.349237"><ele>966</ele></trkpt><trkpt lat="62.712928" lon="9.349151"><ele>970</ele></trkpt><trkpt lat="62.713375" lon="9.349066"><ele>973</ele></trkpt><trkpt lat="62.713821" lon="9.348980"><ele>974</ele></trkpt><trkpt lat="62.714268" lon="9.348895"><ele>976</ele></trkpt><trkpt lat="62.714714" lon="9.348809"><ele>976</ele></trkpt><trkpt lat="62.715161" lon="9.348724"><ele>977</ele></trkpt><trkpt lat="62.715608" lon="9.348638"><ele>979</ele></trkpt><trkpt lat="62.716054" lon="9.348553"><ele>979</ele></trkpt><trkpt lat="62.716493" lon="9.348272"><ele>979</ele></trkpt><trkpt lat="62.716932" lon="9.347992"><ele>984</ele></trkpt><trkpt lat="62.717378" lon="9.347907"><ele>984</ele></trkpt><trkpt lat="62.717825" lon="9.347821"><ele>984</ele></trkpt><trkpt lat="62.718271" lon="9.347735"><ele>986</ele></trkpt><trkpt lat="62.718718" lon="9.347650"><ele>989</ele></trkpt><trkpt lat="62.719133" lon="9.346786"><ele>992</ele></trkpt><trkpt lat="62.719572" lon="9.346506"><ele>987</ele></trkpt><trkpt lat="62.720003" lon="9.346031"><ele>991</ele></trkpt><trkpt lat="62.720442" lon="9.345751"><ele>993</ele></trkpt><trkpt lat="62.720888" lon="9.345665"><ele>1000</ele></trkpt><trkpt lat="62.721335" lon="9.345579"><ele>1001</ele></trkpt><trkpt lat="62.721781" lon="9.345494"><ele>1001</ele></trkpt><trkpt lat="62.722228" lon="9.345408"><ele>1007</ele></trkpt><trkpt lat="62.722675" lon="9.345323"><ele>1010</ele></trkpt><trkpt lat="62.723090" lon="9.344458"><ele>1022</ele></trkpt><trkpt lat="62.723497" lon="9.343400"><ele>1026</ele></trkpt><trkpt lat="62.723904" lon="9.342341"><ele>1032</ele></trkpt><trkpt lat="62.724312" lon="9.341282"><ele>1035</ele></trkpt><trkpt lat="62.724719" lon="9.340223"><ele>1040</ele></trkpt><trkpt lat="62.725126" lon="9.339164"><ele>1047</ele></trkpt><trkpt lat="62.725533" lon="9.338105"><ele>1052</ele></trkpt><trkpt lat="62.725940" lon="9.337046"><ele>1057</ele></trkpt><trkpt lat="62.726348" lon="9.335987"><ele>1061</ele></trkpt><trkpt lat="62.726755" lon="9.334928"><ele>1065</ele></trkpt><trkpt lat="62.727162" lon="9.333869"><ele>1069</ele></trkpt><trkpt lat="62.727569" lon="9.332810"><ele>1076</ele></trkpt><trkpt lat="62.727977" lon="9.331751"><ele>1082</ele></trkpt><trkpt lat="62.728384" lon="9.330692"><ele>1085</ele></trkpt><trkpt lat="62.728791" lon="9.329633"><ele>1088</ele></trkpt><trkpt lat="62.729198" lon="9.328574"><ele>1089</ele></trkpt><trkpt lat="62.729605" lon="9.327515"><ele>1089</ele></trkpt><trkpt lat="62.730012" lon="9.326455"><ele>1094</ele></trkpt><trkpt lat="62.730420" lon="9.325396"><ele>1093</ele></trkpt><trkpt lat="62.730827" lon="9.324337"><ele>1094</ele></trkpt><trkpt lat="62.731234" lon="9.323277"><ele>1096</ele></trkpt><trkpt lat="62.731641" lon="9.322218"><ele>1096</ele></trkpt><trkpt lat="62.732048" lon="9.321159"><ele>1092</ele></trkpt><trkpt lat="62.732455" lon="9.320099"><ele>1088</ele></trkpt><trkpt lat="62.732862" lon="9.319040"><ele>1083</ele></trkpt><trkpt lat="62.733269" lon="9.317980"><ele>1079</ele></trkpt><trkpt lat="62.733676" lon="9.316921"><ele>1075</ele></trkpt><trkpt lat="62.734083" lon="9.315861"><ele>1073</ele></trkpt><trkpt lat="62.734490" lon="9.314802"><ele>1073</ele></trkpt><trkpt lat="62.734898" lon="9.313742"><ele>1073</ele></trkpt><trkpt lat="62.735305" lon="9.312683"><ele>1073</ele></trkpt><trkpt lat="62.735712" lon="9.311623"><ele>1073</ele></trkpt><trkpt lat="62.736119" lon="9.310563"><ele>1075</ele></trkpt><trkpt lat="62.736526" lon="9.309504"><ele>1077</ele></trkpt><trkpt lat="62.736933" lon="9.308444"><ele>1081</ele></trkpt><trkpt lat="62.737340" lon="9.307384"><ele>1087</ele></trkpt><trkpt lat="62.737747" lon="9.306324"><ele>1091</ele></trkpt><trkpt lat="62.738154" lon="9.305265"><ele>1096</ele></trkpt><trkpt lat="62.738561" lon="9.304205"><ele>1103</ele></trkpt><trkpt lat="62.738968" lon="9.303145"><ele>1110</ele></trkpt><trkpt lat="62.739196" lon="9.302119"><ele>1120</ele></trkpt><trkpt lat="62.739424" lon="9.301094"><ele>1133</ele></trkpt><trkpt lat="62.739742" lon="9.300051"><ele>1144</ele></trkpt><trkpt lat="62.739792" lon="9.299061"><ele>1149</ele></trkpt><trkpt lat="62.739752" lon="9.298087"><ele>1152</ele></trkpt><trkpt lat="62.739802" lon="9.297096"><ele>1152</ele></trkpt><trkpt lat="62.740030" lon="9.296071"><ele>1152</ele></trkpt><trkpt lat="62.740437" lon="9.295011"><ele>1151</ele></trkpt><trkpt lat="62.740754" lon="9.293968"><ele>1148</ele></trkpt><trkpt lat="62.741072" lon="9.292925"><ele>1159</ele></trkpt><trkpt lat="62.741211" lon="9.291917"><ele>1170</ele></trkpt><trkpt lat="62.741171" lon="9.290943"><ele>1182</ele></trkpt><trkpt lat="62.741132" lon="9.289970"><ele>1198</ele></trkpt><trkpt lat="62.740645" lon="9.289083"><ele>1232</ele></trkpt><trkpt lat="62.740248" lon="9.288178"><ele>1263</ele></trkpt><trkpt lat="62.739802" lon="9.288265"><ele>1293</ele></trkpt><trkpt lat="62.739371" lon="9.288741"><ele>1320</ele></trkpt><trkpt lat="62.738917" lon="9.288633"><ele>1350</ele></trkpt><trkpt lat="62.738478" lon="9.288914"><ele>1373</ele></trkpt><trkpt lat="62.738031" lon="9.289000"><ele>1386</ele></trkpt><trkpt lat="62.737601" lon="9.289476"><ele>1391</ele></trkpt><trkpt lat="62.737186" lon="9.290342"><ele>1396</ele></trkpt><trkpt lat="62.736779" lon="9.291402"><ele>1401</ele></trkpt><trkpt lat="62.736372" lon="9.292462"><ele>1410</ele></trkpt><trkpt lat="62.735965" lon="9.293522"><ele>1420</ele></trkpt><trkpt lat="62.735558" lon="9.294581"><ele>1429</ele></trkpt><trkpt lat="62.735152" lon="9.295641"><ele>1440</ele></trkpt><trkpt lat="62.734745" lon="9.296701"><ele>1449</ele></trkpt><trkpt lat="62.734322" lon="9.297372"><ele>1438</ele></trkpt><trkpt lat="62.733891" lon="9.297847"><ele>1460</ele></trkpt><trkpt lat="62.733891" lon="9.297847"><ele>1460</ele></trkpt></trkseg></trk></gpx>