<?xml version="1.0" encoding="UTF-8"?>
<gpx version="1.1" creator="Rando toppturs" xmlns="http://www.topografix.com/GPX/1/1"><metadata><name>158 Okla 1574 m</name><desc>Generated 2026-09-13 17:42 from Kartverket 10 m terrain. Ascent lines are least-cost terrain paths under 35°, not verified routes. Not a snow-stability assessment.</desc></metadata><wpt lat="62.666020" lon="9.216781"><ele>591</ele><name>Car · Okla 1574 m</name></wpt><wpt lat="62.689572" lon="9.242145"><ele>1574</ele><name>Okla 1574 m</name></wpt><trk><name>Up · Okla 1574 m</name><desc>least-cost ascent: +983 m over 3381 m, max 34°, 3.5% on 30–35°, ≈3.3 h at 4 km/h + 400 m/h. Terrain possibility, not a checked route.</desc><trkseg><trkpt lat="62.666020" lon="9.216781"><ele>591</ele></trkpt><trkpt lat="62.666239" lon="9.217717"><ele>600</ele></trkpt><trkpt lat="62.666457" lon="9.218653"><ele>609</ele></trkpt><trkpt lat="62.666944" lon="9.219536"><ele>627</ele></trkpt><trkpt lat="62.667431" lon="9.220420"><ele>651</ele></trkpt><trkpt lat="62.667917" lon="9.221304"><ele>673</ele></trkpt><trkpt lat="62.668404" lon="9.222188"><ele>687</ele></trkpt><trkpt lat="62.668891" lon="9.223072"><ele>704</ele></trkpt><trkpt lat="62.669377" lon="9.223955"><ele>724</ele></trkpt><trkpt lat="62.669848" lon="9.224451"><ele>743</ele></trkpt><trkpt lat="62.670294" lon="9.224364"><ele>770</ele></trkpt><trkpt lat="62.670733" lon="9.224082"><ele>797</ele></trkpt><trkpt lat="62.671187" lon="9.224189"><ele>826</ele></trkpt><trkpt lat="62.671626" lon="9.223908"><ele>852</ele></trkpt><trkpt lat="62.672072" lon="9.223820"><ele>877</ele></trkpt><trkpt lat="62.672519" lon="9.223733"><ele>897</ele></trkpt><trkpt lat="62.672965" lon="9.223646"><ele>921</ele></trkpt><trkpt lat="62.673404" lon="9.223364"><ele>942</ele></trkpt><trkpt lat="62.673850" lon="9.223277"><ele>969</ele></trkpt><trkpt lat="62.674297" lon="9.223190"><ele>987</ele></trkpt><trkpt lat="62.674743" lon="9.223102"><ele>1007</ele></trkpt><trkpt lat="62.675190" lon="9.223015"><ele>1027</ele></trkpt><trkpt lat="62.675636" lon="9.222928"><ele>1045</ele></trkpt><trkpt lat="62.676091" lon="9.223035"><ele>1072</ele></trkpt><trkpt lat="62.676570" lon="9.223724"><ele>1102</ele></trkpt><trkpt lat="62.677032" lon="9.224026"><ele>1122</ele></trkpt><trkpt lat="62.677519" lon="9.224910"><ele>1142</ele></trkpt><trkpt lat="62.677997" lon="9.225600"><ele>1166</ele></trkpt><trkpt lat="62.678484" lon="9.226484"><ele>1193</ele></trkpt><trkpt lat="62.678955" lon="9.226979"><ele>1220</ele></trkpt><trkpt lat="62.679417" lon="9.227281"><ele>1249</ele></trkpt><trkpt lat="62.679864" lon="9.227193"><ele>1279</ele></trkpt><trkpt lat="62.680334" lon="9.227689"><ele>1313</ele></trkpt><trkpt lat="62.680821" lon="9.228573"><ele>1350</ele></trkpt><trkpt lat="62.681275" lon="9.228680"><ele>1374</ele></trkpt><trkpt lat="62.681730" lon="9.228787"><ele>1391</ele></trkpt><trkpt lat="62.682184" lon="9.228895"><ele>1407</ele></trkpt><trkpt lat="62.682663" lon="9.229585"><ele>1423</ele></trkpt><trkpt lat="62.683150" lon="9.230469"><ele>1434</ele></trkpt><trkpt lat="62.683636" lon="9.231353"><ele>1448</ele></trkpt><trkpt lat="62.684123" lon="9.232238"><ele>1459</ele></trkpt><trkpt lat="62.684609" lon="9.233122"><ele>1471</ele></trkpt><trkpt lat="62.685096" lon="9.234007"><ele>1481</ele></trkpt><trkpt lat="62.685582" lon="9.234891"><ele>1493</ele></trkpt><trkpt lat="62.686069" lon="9.235776"><ele>1504</ele></trkpt><trkpt lat="62.686556" lon="9.236660"><ele>1517</ele></trkpt><trkpt lat="62.687042" lon="9.237545"><ele>1529</ele></trkpt><trkpt lat="62.687529" lon="9.238430"><ele>1540</ele></trkpt><trkpt lat="62.688015" lon="9.239314"><ele>1549</ele></trkpt><trkpt lat="62.688502" lon="9.240199"><ele>1558</ele></trkpt><trkpt lat="62.688988" lon="9.241084"><ele>1567</ele></trkpt><trkpt lat="62.689475" lon="9.241968"><ele>1574</ele></trkpt><trkpt lat="62.689572" lon="9.242145"><ele>1574</ele></trkpt></trkseg></trk></gpx>