<?xml version="1.0" encoding="UTF-8"?>
<gpx version="1.1" creator="Rando toppturs" xmlns="http://www.topografix.com/GPX/1/1"><metadata><name>160 Bårdsfjellet 1145 m</name><desc>This is an automatically generated list. I have not checked them all. Do not attempt these if you're a beginner. Generated 2026-09-13 17:42 from Kartverket 10 m terrain. Ascent lines are least-cost terrain paths under 35°, not verified routes. Not a snow-stability assessment.</desc></metadata><wpt lat="62.696344" lon="9.536697"><ele>872</ele><name>Car · Bårdsfjellet 1145 m</name></wpt><wpt lat="62.694806" lon="9.506616"><ele>1145</ele><name>Bårdsfjellet 1145 m</name></wpt><trk><name>Up · Bårdsfjellet 1145 m</name><desc>least-cost ascent: +282 m over 1614 m, max 30°, 0.0% on 30–35°, ≈1.11 h at 4 km/h + 400 m/h. Terrain possibility, not a checked route.</desc><trkseg><trkpt lat="62.696344" lon="9.536697"><ele>872</ele></trkpt><trkpt lat="62.696306" lon="9.535725"><ele>897</ele></trkpt><trkpt lat="62.696268" lon="9.534752"><ele>915</ele></trkpt><trkpt lat="62.696230" lon="9.533780"><ele>928</ele></trkpt><trkpt lat="62.696192" lon="9.532807"><ele>931</ele></trkpt><trkpt lat="62.696154" lon="9.531835"><ele>936</ele></trkpt><trkpt lat="62.696116" lon="9.530862"><ele>952</ele></trkpt><trkpt lat="62.696078" lon="9.529890"><ele>960</ele></trkpt><trkpt lat="62.696040" lon="9.528917"><ele>968</ele></trkpt><trkpt lat="62.696002" lon="9.527945"><ele>973</ele></trkpt><trkpt lat="62.695964" lon="9.526972"><ele>977</ele></trkpt><trkpt lat="62.695926" lon="9.526000"><ele>984</ele></trkpt><trkpt lat="62.695977" lon="9.525010"><ele>995</ele></trkpt><trkpt lat="62.695939" lon="9.524038"><ele>1006</ele></trkpt><trkpt lat="62.695901" lon="9.523065"><ele>1020</ele></trkpt><trkpt lat="62.695863" lon="9.522093"><ele>1030</ele></trkpt><trkpt lat="62.695825" lon="9.521120"><ele>1045</ele></trkpt><trkpt lat="62.695787" lon="9.520148"><ele>1056</ele></trkpt><trkpt lat="62.695749" lon="9.519175"><ele>1065</ele></trkpt><trkpt lat="62.695711" lon="9.518203"><ele>1069</ele></trkpt><trkpt lat="62.695672" lon="9.517230"><ele>1078</ele></trkpt><trkpt lat="62.695634" lon="9.516258"><ele>1075</ele></trkpt><trkpt lat="62.695596" lon="9.515285"><ele>1075</ele></trkpt><trkpt lat="62.695558" lon="9.514313"><ele>1080</ele></trkpt><trkpt lat="62.695520" lon="9.513340"><ele>1083</ele></trkpt><trkpt lat="62.695482" lon="9.512368"><ele>1085</ele></trkpt><trkpt lat="62.695444" lon="9.511396"><ele>1090</ele></trkpt><trkpt lat="62.695406" lon="9.510423"><ele>1089</ele></trkpt><trkpt lat="62.695367" lon="9.509451"><ele>1100</ele></trkpt><trkpt lat="62.695240" lon="9.508495"><ele>1119</ele></trkpt><trkpt lat="62.695202" lon="9.507522"><ele>1139</ele></trkpt><trkpt lat="62.694806" lon="9.506616"><ele>1145</ele></trkpt><trkpt lat="62.694806" lon="9.506616"><ele>1145</ele></trkpt></trkseg></trk></gpx>