<?xml version="1.0" encoding="UTF-8"?>
<gpx version="1.1" creator="Rando toppturs" xmlns="http://www.topografix.com/GPX/1/1"><metadata><name>162 Raudhovden 971 m</name><desc>This is an automatically generated list. I have not checked them all. Do not attempt these if you're a beginner. Generated 2026-09-13 17:42 from Kartverket 10 m terrain. Ascent lines are least-cost terrain paths under 35°, not verified routes. Not a snow-stability assessment.</desc></metadata><wpt lat="62.645878" lon="9.502793"><ele>802</ele><name>Car · Raudhovden 971 m</name></wpt><wpt lat="62.647813" lon="9.517690"><ele>971</ele><name>Raudhovden 971 m</name></wpt><trk><name>Up · Raudhovden 971 m</name><desc>least-cost ascent: +169 m over 865 m, max 28°, 0.0% on 30–35°, ≈0.64 h at 4 km/h + 400 m/h. Terrain possibility, not a checked route.</desc><trkseg><trkpt lat="62.645878" lon="9.502793"><ele>802</ele></trkpt><trkpt lat="62.646094" lon="9.503730"><ele>821</ele></trkpt><trkpt lat="62.646133" lon="9.504701"><ele>830</ele></trkpt><trkpt lat="62.646171" lon="9.505672"><ele>835</ele></trkpt><trkpt lat="62.646209" lon="9.506643"><ele>839</ele></trkpt><trkpt lat="62.646247" lon="9.507614"><ele>841</ele></trkpt><trkpt lat="62.646285" lon="9.508585"><ele>846</ele></trkpt><trkpt lat="62.646323" lon="9.509555"><ele>852</ele></trkpt><trkpt lat="62.646362" lon="9.510526"><ele>867</ele></trkpt><trkpt lat="62.646757" lon="9.511431"><ele>885</ele></trkpt><trkpt lat="62.646795" lon="9.512402"><ele>904</ele></trkpt><trkpt lat="62.646833" lon="9.513373"><ele>910</ele></trkpt><trkpt lat="62.646961" lon="9.514327"><ele>924</ele></trkpt><trkpt lat="62.646999" lon="9.515298"><ele>938</ele></trkpt><trkpt lat="62.647305" lon="9.516219"><ele>954</ele></trkpt><trkpt lat="62.647522" lon="9.517157"><ele>966</ele></trkpt><trkpt lat="62.647813" lon="9.517690"><ele>971</ele></trkpt></trkseg></trk></gpx>