<?xml version="1.0" encoding="UTF-8"?>
<gpx version="1.1" creator="Rando toppturs" xmlns="http://www.topografix.com/GPX/1/1"><metadata><name>163 Svartdalskollen 1611 m</name><desc>Generated 2026-09-13 17:42 from Kartverket 10 m terrain. Ascent lines are least-cost terrain paths under 35°, not verified routes. Not a snow-stability assessment.</desc></metadata><wpt lat="62.677405" lon="9.159320"><ele>607</ele><name>Car · Svartdalskollen 1611 m</name></wpt><wpt lat="62.625143" lon="9.081257"><ele>1611</ele><name>Svartdalskollen 1611 m</name></wpt><trk><name>Up · Svartdalskollen 1611 m</name><desc>least-cost ascent: +1107 m over 7879 m, max 34°, 0.9% on 30–35°, ≈4.74 h at 4 km/h + 400 m/h. Terrain possibility, not a checked route.</desc><trkseg><trkpt lat="62.677405" lon="9.159320"><ele>607</ele></trkpt><trkpt lat="62.676934" lon="9.158826"><ele>594</ele></trkpt><trkpt lat="62.676447" lon="9.157943"><ele>585</ele></trkpt><trkpt lat="62.675960" lon="9.157060"><ele>582</ele></trkpt><trkpt lat="62.675473" lon="9.156177"><ele>582</ele></trkpt><trkpt lat="62.674986" lon="9.155294"><ele>582</ele></trkpt><trkpt lat="62.674499" lon="9.154411"><ele>582</ele></trkpt><trkpt lat="62.674012" lon="9.153528"><ele>582</ele></trkpt><trkpt lat="62.673525" lon="9.152646"><ele>582</ele></trkpt><trkpt lat="62.673038" lon="9.151763"><ele>582</ele></trkpt><trkpt lat="62.672551" lon="9.150880"><ele>582</ele></trkpt><trkpt lat="62.672064" lon="9.149997"><ele>582</ele></trkpt><trkpt lat="62.671577" lon="9.149115"><ele>582</ele></trkpt><trkpt lat="62.671089" lon="9.148232"><ele>582</ele></trkpt><trkpt lat="62.670602" lon="9.147349"><ele>582</ele></trkpt><trkpt lat="62.670115" lon="9.146467"><ele>583</ele></trkpt><trkpt lat="62.669628" lon="9.145584"><ele>587</ele></trkpt><trkpt lat="62.669141" lon="9.144702"><ele>591</ele></trkpt><trkpt lat="62.668654" lon="9.143819"><ele>598</ele></trkpt><trkpt lat="62.668167" lon="9.142937"><ele>605</ele></trkpt><trkpt lat="62.667680" lon="9.142054"><ele>616</ele></trkpt><trkpt lat="62.667193" lon="9.141172"><ele>628</ele></trkpt><trkpt lat="62.666705" lon="9.140289"><ele>644</ele></trkpt><trkpt lat="62.666218" lon="9.139407"><ele>664</ele></trkpt><trkpt lat="62.665731" lon="9.138525"><ele>685</ele></trkpt><trkpt lat="62.665244" lon="9.137642"><ele>709</ele></trkpt><trkpt lat="62.664846" lon="9.136742"><ele>733</ele></trkpt><trkpt lat="62.664367" lon="9.136054"><ele>758</ele></trkpt><trkpt lat="62.663888" lon="9.135366"><ele>784</ele></trkpt><trkpt lat="62.663417" lon="9.134872"><ele>805</ele></trkpt><trkpt lat="62.662930" lon="9.133990"><ele>833</ele></trkpt><trkpt lat="62.662443" lon="9.133108"><ele>860</ele></trkpt><trkpt lat="62.661964" lon="9.132420"><ele>890</ele></trkpt><trkpt lat="62.661485" lon="9.131732"><ele>924</ele></trkpt><trkpt lat="62.661022" lon="9.131432"><ele>953</ele></trkpt><trkpt lat="62.660576" lon="9.131521"><ele>976</ele></trkpt><trkpt lat="62.660113" lon="9.131221"><ele>997</ele></trkpt><trkpt lat="62.659650" lon="9.130922"><ele>1011</ele></trkpt><trkpt lat="62.659171" lon="9.130234"><ele>1019</ele></trkpt><trkpt lat="62.658725" lon="9.130322"><ele>1034</ele></trkpt><trkpt lat="62.658246" lon="9.129635"><ele>1047</ele></trkpt><trkpt lat="62.657848" lon="9.128735"><ele>1072</ele></trkpt><trkpt lat="62.657360" lon="9.127853"><ele>1090</ele></trkpt><trkpt lat="62.656873" lon="9.126971"><ele>1098</ele></trkpt><trkpt lat="62.656386" lon="9.126089"><ele>1100</ele></trkpt><trkpt lat="62.655899" lon="9.125207"><ele>1105</ele></trkpt><trkpt lat="62.655412" lon="9.124326"><ele>1123</ele></trkpt><trkpt lat="62.654924" lon="9.123444"><ele>1127</ele></trkpt><trkpt lat="62.654437" lon="9.122562"><ele>1137</ele></trkpt><trkpt lat="62.653950" lon="9.121680"><ele>1152</ele></trkpt><trkpt lat="62.653463" lon="9.120799"><ele>1159</ele></trkpt><trkpt lat="62.652975" lon="9.119917"><ele>1161</ele></trkpt><trkpt lat="62.652488" lon="9.119035"><ele>1157</ele></trkpt><trkpt lat="62.652001" lon="9.118154"><ele>1144</ele></trkpt><trkpt lat="62.651513" lon="9.117272"><ele>1143</ele></trkpt><trkpt lat="62.651026" lon="9.116391"><ele>1141</ele></trkpt><trkpt lat="62.650539" lon="9.115509"><ele>1142</ele></trkpt><trkpt lat="62.650052" lon="9.114628"><ele>1147</ele></trkpt><trkpt lat="62.649564" lon="9.113746"><ele>1151</ele></trkpt><trkpt lat="62.649077" lon="9.112865"><ele>1153</ele></trkpt><trkpt lat="62.648590" lon="9.111983"><ele>1153</ele></trkpt><trkpt lat="62.648111" lon="9.111296"><ele>1143</ele></trkpt><trkpt lat="62.647623" lon="9.110415"><ele>1139</ele></trkpt><trkpt lat="62.647136" lon="9.109533"><ele>1135</ele></trkpt><trkpt lat="62.646649" lon="9.108652"><ele>1130</ele></trkpt><trkpt lat="62.646161" lon="9.107771"><ele>1127</ele></trkpt><trkpt lat="62.645674" lon="9.106890"><ele>1124</ele></trkpt><trkpt lat="62.645187" lon="9.106008"><ele>1121</ele></trkpt><trkpt lat="62.644699" lon="9.105127"><ele>1124</ele></trkpt><trkpt lat="62.644212" lon="9.104246"><ele>1141</ele></trkpt><trkpt lat="62.643725" lon="9.103365"><ele>1162</ele></trkpt><trkpt lat="62.643416" lon="9.102448"><ele>1178</ele></trkpt><trkpt lat="62.642928" lon="9.101567"><ele>1199</ele></trkpt><trkpt lat="62.642441" lon="9.100686"><ele>1210</ele></trkpt><trkpt lat="62.641954" lon="9.099805"><ele>1224</ele></trkpt><trkpt lat="62.641466" lon="9.098924"><ele>1241</ele></trkpt><trkpt lat="62.640979" lon="9.098043"><ele>1241</ele></trkpt><trkpt lat="62.640491" lon="9.097162"><ele>1248</ele></trkpt><trkpt lat="62.640004" lon="9.096281"><ele>1250</ele></trkpt><trkpt lat="62.639517" lon="9.095401"><ele>1256</ele></trkpt><trkpt lat="62.639029" lon="9.094520"><ele>1261</ele></trkpt><trkpt lat="62.638542" lon="9.093639"><ele>1266</ele></trkpt><trkpt lat="62.638054" lon="9.092758"><ele>1266</ele></trkpt><trkpt lat="62.637567" lon="9.091877"><ele>1271</ele></trkpt><trkpt lat="62.637080" lon="9.090997"><ele>1284</ele></trkpt><trkpt lat="62.636617" lon="9.090698"><ele>1302</ele></trkpt><trkpt lat="62.636137" lon="9.090011"><ele>1325</ele></trkpt><trkpt lat="62.635650" lon="9.089131"><ele>1353</ele></trkpt><trkpt lat="62.635252" lon="9.088232"><ele>1367</ele></trkpt><trkpt lat="62.634854" lon="9.087334"><ele>1380</ele></trkpt><trkpt lat="62.634723" lon="9.086382"><ele>1377</ele></trkpt><trkpt lat="62.634504" lon="9.085448"><ele>1381</ele></trkpt><trkpt lat="62.634195" lon="9.084531"><ele>1397</ele></trkpt><trkpt lat="62.634064" lon="9.083580"><ele>1401</ele></trkpt><trkpt lat="62.633845" lon="9.082646"><ele>1405</ele></trkpt><trkpt lat="62.633536" lon="9.081729"><ele>1418</ele></trkpt><trkpt lat="62.633316" lon="9.080795"><ele>1430</ele></trkpt><trkpt lat="62.633275" lon="9.079826"><ele>1432</ele></trkpt><trkpt lat="62.633145" lon="9.078874"><ele>1441</ele></trkpt><trkpt lat="62.633014" lon="9.077922"><ele>1453</ele></trkpt><trkpt lat="62.632795" lon="9.076988"><ele>1473</ele></trkpt><trkpt lat="62.632324" lon="9.076496"><ele>1505</ele></trkpt><trkpt lat="62.631877" lon="9.076585"><ele>1528</ele></trkpt><trkpt lat="62.631431" lon="9.076674"><ele>1544</ele></trkpt><trkpt lat="62.630993" lon="9.076957"><ele>1551</ele></trkpt><trkpt lat="62.630554" lon="9.077241"><ele>1567</ele></trkpt><trkpt lat="62.630108" lon="9.077330"><ele>1574</ele></trkpt><trkpt lat="62.629662" lon="9.077419"><ele>1579</ele></trkpt><trkpt lat="62.629215" lon="9.077509"><ele>1584</ele></trkpt><trkpt lat="62.628769" lon="9.077598"><ele>1588</ele></trkpt><trkpt lat="62.628322" lon="9.077687"><ele>1594</ele></trkpt><trkpt lat="62.627876" lon="9.077777"><ele>1596</ele></trkpt><trkpt lat="62.627430" lon="9.077866"><ele>1596</ele></trkpt><trkpt lat="62.626983" lon="9.077955"><ele>1597</ele></trkpt><trkpt lat="62.626537" lon="9.078045"><ele>1596</ele></trkpt><trkpt lat="62.626115" lon="9.078716"><ele>1599</ele></trkpt><trkpt lat="62.625710" lon="9.079774"><ele>1604</ele></trkpt><trkpt lat="62.625305" lon="9.080833"><ele>1610</ele></trkpt><trkpt lat="62.625143" lon="9.081257"><ele>1611</ele></trkpt></trkseg></trk></gpx>