<?xml version="1.0" encoding="UTF-8"?>
<gpx version="1.1" creator="Rando toppturs" xmlns="http://www.topografix.com/GPX/1/1"><metadata><name>165 Nørdre Gråhøa 1058 m</name><desc>This is an automatically generated list. I have not checked them all. Do not attempt these if you're a beginner. Generated 2026-09-13 17:42 from Kartverket 10 m terrain. Ascent lines are least-cost terrain paths under 35°, not verified routes. Not a snow-stability assessment.</desc></metadata><wpt lat="62.638413" lon="9.864881"><ele>547</ele><name>Car · Nørdre Gråhøa 1058 m</name></wpt><wpt lat="62.619509" lon="9.903904"><ele>1058</ele><name>Nørdre Gråhøa 1058 m</name></wpt><trk><name>Up · Nørdre Gråhøa 1058 m</name><desc>least-cost ascent: +514 m over 3120 m, max 30°, 0.0% on 30–35°, ≈2.06 h at 4 km/h + 400 m/h. Terrain possibility, not a checked route.</desc><trkseg><trkpt lat="62.638413" lon="9.864881"><ele>547</ele></trkpt><trkpt lat="62.637988" lon="9.865541"><ele>553</ele></trkpt><trkpt lat="62.637555" lon="9.866007"><ele>566</ele></trkpt><trkpt lat="62.637108" lon="9.866084"><ele>571</ele></trkpt><trkpt lat="62.636661" lon="9.866162"><ele>576</ele></trkpt><trkpt lat="62.636214" lon="9.866239"><ele>586</ele></trkpt><trkpt lat="62.635788" lon="9.866900"><ele>594</ele></trkpt><trkpt lat="62.635377" lon="9.867948"><ele>603</ele></trkpt><trkpt lat="62.634966" lon="9.868997"><ele>609</ele></trkpt><trkpt lat="62.634554" lon="9.870045"><ele>620</ele></trkpt><trkpt lat="62.634143" lon="9.871094"><ele>627</ele></trkpt><trkpt lat="62.633724" lon="9.871948"><ele>627</ele></trkpt><trkpt lat="62.633313" lon="9.872996"><ele>631</ele></trkpt><trkpt lat="62.632902" lon="9.874045"><ele>636</ele></trkpt><trkpt lat="62.632490" lon="9.875093"><ele>641</ele></trkpt><trkpt lat="62.632079" lon="9.876141"><ele>647</ele></trkpt><trkpt lat="62.631668" lon="9.877189"><ele>657</ele></trkpt><trkpt lat="62.631256" lon="9.878238"><ele>664</ele></trkpt><trkpt lat="62.630809" lon="9.878315"><ele>673</ele></trkpt><trkpt lat="62.630391" lon="9.879169"><ele>678</ele></trkpt><trkpt lat="62.629979" lon="9.880217"><ele>695</ele></trkpt><trkpt lat="62.629539" lon="9.880489"><ele>708</ele></trkpt><trkpt lat="62.629128" lon="9.881537"><ele>722</ele></trkpt><trkpt lat="62.628716" lon="9.882585"><ele>737</ele></trkpt><trkpt lat="62.628291" lon="9.883245"><ele>750</ele></trkpt><trkpt lat="62.627865" lon="9.883904"><ele>770</ele></trkpt><trkpt lat="62.627439" lon="9.884564"><ele>790</ele></trkpt><trkpt lat="62.626999" lon="9.884835"><ele>798</ele></trkpt><trkpt lat="62.626574" lon="9.885495"><ele>802</ele></trkpt><trkpt lat="62.626162" lon="9.886543"><ele>822</ele></trkpt><trkpt lat="62.625744" lon="9.887397"><ele>844</ele></trkpt><trkpt lat="62.625332" lon="9.888445"><ele>863</ele></trkpt><trkpt lat="62.624921" lon="9.889492"><ele>878</ele></trkpt><trkpt lat="62.624509" lon="9.890540"><ele>886</ele></trkpt><trkpt lat="62.624098" lon="9.891588"><ele>896</ele></trkpt><trkpt lat="62.623686" lon="9.892636"><ele>902</ele></trkpt><trkpt lat="62.623275" lon="9.893684"><ele>912</ele></trkpt><trkpt lat="62.622863" lon="9.894731"><ele>925</ele></trkpt><trkpt lat="62.622452" lon="9.895779"><ele>940</ele></trkpt><trkpt lat="62.622040" lon="9.896827"><ele>947</ele></trkpt><trkpt lat="62.621628" lon="9.897874"><ele>961</ele></trkpt><trkpt lat="62.621217" lon="9.898922"><ele>975</ele></trkpt><trkpt lat="62.621074" lon="9.899923"><ele>993</ele></trkpt><trkpt lat="62.621020" lon="9.900909"><ele>1003</ele></trkpt><trkpt lat="62.620608" lon="9.901957"><ele>1012</ele></trkpt><trkpt lat="62.620189" lon="9.902810"><ele>1034</ele></trkpt><trkpt lat="62.619763" lon="9.903470"><ele>1050</ele></trkpt><trkpt lat="62.619509" lon="9.903904"><ele>1058</ele></trkpt></trkseg></trk></gpx>