<?xml version="1.0" encoding="UTF-8"?>
<gpx version="1.1" creator="Rando toppturs" xmlns="http://www.topografix.com/GPX/1/1"><metadata><name>166 Syndre Gråhøa 1160 m</name><desc>This is an automatically generated list. I have not checked them all. Do not attempt these if you're a beginner. Generated 2026-09-13 17:42 from Kartverket 10 m terrain. Ascent lines are least-cost terrain paths under 35°, not verified routes. Not a snow-stability assessment.</desc></metadata><wpt lat="62.608019" lon="9.845736"><ele>873</ele><name>Car · Syndre Gråhøa 1160 m</name></wpt><wpt lat="62.598935" lon="9.889870"><ele>1160</ele><name>Syndre Gråhøa 1160 m</name></wpt><trk><name>Up · Syndre Gråhøa 1160 m</name><desc>least-cost ascent: +291 m over 2741 m, max 29°, 0.0% on 30–35°, ≈1.41 h at 4 km/h + 400 m/h. Terrain possibility, not a checked route.</desc><trkseg><trkpt lat="62.608019" lon="9.845736"><ele>873</ele></trkpt><trkpt lat="62.607876" lon="9.846738"><ele>877</ele></trkpt><trkpt lat="62.607822" lon="9.847723"><ele>882</ele></trkpt><trkpt lat="62.607769" lon="9.848709"><ele>888</ele></trkpt><trkpt lat="62.607358" lon="9.849757"><ele>891</ele></trkpt><trkpt lat="62.606946" lon="9.850805"><ele>898</ele></trkpt><trkpt lat="62.606535" lon="9.851852"><ele>904</ele></trkpt><trkpt lat="62.606124" lon="9.852900"><ele>907</ele></trkpt><trkpt lat="62.605713" lon="9.853948"><ele>911</ele></trkpt><trkpt lat="62.605302" lon="9.854995"><ele>918</ele></trkpt><trkpt lat="62.604980" lon="9.856027"><ele>921</ele></trkpt><trkpt lat="62.604568" lon="9.857075"><ele>925</ele></trkpt><trkpt lat="62.604157" lon="9.858122"><ele>929</ele></trkpt><trkpt lat="62.603746" lon="9.859170"><ele>937</ele></trkpt><trkpt lat="62.603335" lon="9.860217"><ele>950</ele></trkpt><trkpt lat="62.602923" lon="9.861265"><ele>950</ele></trkpt><trkpt lat="62.602512" lon="9.862312"><ele>947</ele></trkpt><trkpt lat="62.602101" lon="9.863360"><ele>947</ele></trkpt><trkpt lat="62.601689" lon="9.864407"><ele>949</ele></trkpt><trkpt lat="62.601367" lon="9.865439"><ele>950</ele></trkpt><trkpt lat="62.601403" lon="9.866409"><ele>951</ele></trkpt><trkpt lat="62.601439" lon="9.867379"><ele>957</ele></trkpt><trkpt lat="62.601474" lon="9.868349"><ele>962</ele></trkpt><trkpt lat="62.601510" lon="9.869319"><ele>964</ele></trkpt><trkpt lat="62.601546" lon="9.870289"><ele>966</ele></trkpt><trkpt lat="62.601581" lon="9.871259"><ele>969</ele></trkpt><trkpt lat="62.601617" lon="9.872229"><ele>971</ele></trkpt><trkpt lat="62.601653" lon="9.873199"><ele>975</ele></trkpt><trkpt lat="62.601688" lon="9.874169"><ele>977</ele></trkpt><trkpt lat="62.601724" lon="9.875139"><ele>980</ele></trkpt><trkpt lat="62.601759" lon="9.876109"><ele>987</ele></trkpt><trkpt lat="62.601795" lon="9.877079"><ele>991</ele></trkpt><trkpt lat="62.601830" lon="9.878049"><ele>999</ele></trkpt><trkpt lat="62.601866" lon="9.879019"><ele>1004</ele></trkpt><trkpt lat="62.601902" lon="9.879989"><ele>1007</ele></trkpt><trkpt lat="62.601848" lon="9.880974"><ele>1013</ele></trkpt><trkpt lat="62.601615" lon="9.881990"><ele>1020</ele></trkpt><trkpt lat="62.601651" lon="9.882960"><ele>1024</ele></trkpt><trkpt lat="62.601686" lon="9.883930"><ele>1030</ele></trkpt><trkpt lat="62.601364" lon="9.884962"><ele>1058</ele></trkpt><trkpt lat="62.600946" lon="9.885815"><ele>1089</ele></trkpt><trkpt lat="62.600534" lon="9.886862"><ele>1104</ele></trkpt><trkpt lat="62.600123" lon="9.887909"><ele>1118</ele></trkpt><trkpt lat="62.599711" lon="9.888956"><ele>1139</ele></trkpt><trkpt lat="62.599278" lon="9.889421"><ele>1153</ele></trkpt><trkpt lat="62.598935" lon="9.889870"><ele>1160</ele></trkpt></trkseg></trk></gpx>