<?xml version="1.0" encoding="UTF-8"?>
<gpx version="1.1" creator="Rando toppturs" xmlns="http://www.topografix.com/GPX/1/1"><metadata><name>168 Sletthøkollen 1558 m</name><desc>Generated 2026-09-13 17:42 from Kartverket 10 m terrain. Ascent lines are least-cost terrain paths under 35°, not verified routes. Not a snow-stability assessment.</desc></metadata><wpt lat="62.409551" lon="9.636518"><ele>695</ele><name>Car · Sletthøkollen 1558 m</name></wpt><wpt lat="62.414785" lon="9.578916"><ele>1558</ele><name>Sletthøkollen 1558 m</name></wpt><trk><name>Up · Sletthøkollen 1558 m</name><desc>least-cost ascent: +869 m over 3438 m, max 35°, 7.5% on 30–35°, ≈3.03 h at 4 km/h + 400 m/h. Terrain possibility, not a checked route.</desc><trkseg><trkpt lat="62.409551" lon="9.636518"><ele>695</ele></trkpt><trkpt lat="62.409513" lon="9.635555"><ele>691</ele></trkpt><trkpt lat="62.409476" lon="9.634591"><ele>698</ele></trkpt><trkpt lat="62.409439" lon="9.633628"><ele>708</ele></trkpt><trkpt lat="62.409402" lon="9.632665"><ele>721</ele></trkpt><trkpt lat="62.409543" lon="9.631669"><ele>741</ele></trkpt><trkpt lat="62.409506" lon="9.630706"><ele>756</ele></trkpt><trkpt lat="62.409558" lon="9.629726"><ele>775</ele></trkpt><trkpt lat="62.409521" lon="9.628763"><ele>790</ele></trkpt><trkpt lat="62.409573" lon="9.627784"><ele>808</ele></trkpt><trkpt lat="62.409536" lon="9.626820"><ele>825</ele></trkpt><trkpt lat="62.409588" lon="9.625841"><ele>840</ele></trkpt><trkpt lat="62.409729" lon="9.624845"><ele>856</ele></trkpt><trkpt lat="62.409692" lon="9.623882"><ele>886</ele></trkpt><trkpt lat="62.410012" lon="9.622854"><ele>915</ele></trkpt><trkpt lat="62.410064" lon="9.621875"><ele>940</ele></trkpt><trkpt lat="62.410117" lon="9.620895"><ele>968</ele></trkpt><trkpt lat="62.410169" lon="9.619916"><ele>1001</ele></trkpt><trkpt lat="62.410131" lon="9.618952"><ele>1033</ele></trkpt><trkpt lat="62.410094" lon="9.617989"><ele>1067</ele></trkpt><trkpt lat="62.410146" lon="9.617010"><ele>1098</ele></trkpt><trkpt lat="62.410019" lon="9.616062"><ele>1124</ele></trkpt><trkpt lat="62.409982" lon="9.615099"><ele>1141</ele></trkpt><trkpt lat="62.409855" lon="9.614152"><ele>1162</ele></trkpt><trkpt lat="62.409818" lon="9.613188"><ele>1175</ele></trkpt><trkpt lat="62.410138" lon="9.612161"><ele>1186</ele></trkpt><trkpt lat="62.410279" lon="9.611165"><ele>1203</ele></trkpt><trkpt lat="62.410242" lon="9.610202"><ele>1216</ele></trkpt><trkpt lat="62.410205" lon="9.609238"><ele>1231</ele></trkpt><trkpt lat="62.410167" lon="9.608275"><ele>1245</ele></trkpt><trkpt lat="62.410130" lon="9.607311"><ele>1260</ele></trkpt><trkpt lat="62.410450" lon="9.606284"><ele>1277</ele></trkpt><trkpt lat="62.410591" lon="9.605288"><ele>1290</ele></trkpt><trkpt lat="62.410554" lon="9.604325"><ele>1299</ele></trkpt><trkpt lat="62.410517" lon="9.603361"><ele>1311</ele></trkpt><trkpt lat="62.410479" lon="9.602398"><ele>1323</ele></trkpt><trkpt lat="62.410442" lon="9.601435"><ele>1338</ele></trkpt><trkpt lat="62.410404" lon="9.600471"><ele>1354</ele></trkpt><trkpt lat="62.410367" lon="9.599508"><ele>1365</ele></trkpt><trkpt lat="62.410329" lon="9.598544"><ele>1374</ele></trkpt><trkpt lat="62.410292" lon="9.597581"><ele>1382</ele></trkpt><trkpt lat="62.410255" lon="9.596618"><ele>1392</ele></trkpt><trkpt lat="62.410217" lon="9.595654"><ele>1401</ele></trkpt><trkpt lat="62.410269" lon="9.594675"><ele>1411</ele></trkpt><trkpt lat="62.410321" lon="9.593695"><ele>1427</ele></trkpt><trkpt lat="62.410283" lon="9.592732"><ele>1433</ele></trkpt><trkpt lat="62.410246" lon="9.591769"><ele>1445</ele></trkpt><trkpt lat="62.410208" lon="9.590805"><ele>1455</ele></trkpt><trkpt lat="62.410528" lon="9.589777"><ele>1467</ele></trkpt><trkpt lat="62.410938" lon="9.588733"><ele>1481</ele></trkpt><trkpt lat="62.411347" lon="9.587689"><ele>1497</ele></trkpt><trkpt lat="62.411756" lon="9.586645"><ele>1507</ele></trkpt><trkpt lat="62.412165" lon="9.585600"><ele>1514</ele></trkpt><trkpt lat="62.412575" lon="9.584556"><ele>1521</ele></trkpt><trkpt lat="62.412984" lon="9.583512"><ele>1535</ele></trkpt><trkpt lat="62.413393" lon="9.582467"><ele>1543</ele></trkpt><trkpt lat="62.413802" lon="9.581423"><ele>1547</ele></trkpt><trkpt lat="62.414212" lon="9.580378"><ele>1553</ele></trkpt><trkpt lat="62.414621" lon="9.579334"><ele>1558</ele></trkpt><trkpt lat="62.414785" lon="9.578916"><ele>1558</ele></trkpt></trkseg></trk></gpx>