<?xml version="1.0" encoding="UTF-8"?>
<gpx version="1.1" creator="Rando toppturs" xmlns="http://www.topografix.com/GPX/1/1"><metadata><name>005 Kinnpiken 1496 m</name><desc>Generated 2026-09-13 17:42 from Kartverket 10 m terrain. Ascent lines are least-cost terrain paths under 35°, not verified routes. Not a snow-stability assessment.</desc></metadata><wpt lat="62.625222" lon="9.737621"><ele>862</ele><name>Car · Kinnpiken 1496 m</name></wpt><wpt lat="62.648291" lon="9.731369"><ele>1496</ele><name>Kinnpiken 1496 m</name></wpt><trk><name>Up · Kinnpiken 1496 m</name><desc>least-cost ascent: +704 m over 2938 m, max 30°, 0.0% on 30–35°, ≈2.49 h at 4 km/h + 400 m/h. Terrain possibility, not a checked route.</desc><trkseg><trkpt lat="62.625222" lon="9.737621"><ele>862</ele></trkpt><trkpt lat="62.625669" lon="9.737542"><ele>875</ele></trkpt><trkpt lat="62.626116" lon="9.737462"><ele>891</ele></trkpt><trkpt lat="62.626563" lon="9.737383"><ele>905</ele></trkpt><trkpt lat="62.627010" lon="9.737304"><ele>916</ele></trkpt><trkpt lat="62.627442" lon="9.736836"><ele>933</ele></trkpt><trkpt lat="62.627889" lon="9.736757"><ele>945</ele></trkpt><trkpt lat="62.628314" lon="9.736095"><ele>963</ele></trkpt><trkpt lat="62.628731" lon="9.735239"><ele>985</ele></trkpt><trkpt lat="62.629149" lon="9.734383"><ele>1007</ele></trkpt><trkpt lat="62.629567" lon="9.733527"><ele>1033</ele></trkpt><trkpt lat="62.629977" lon="9.732477"><ele>1065</ele></trkpt><trkpt lat="62.630298" lon="9.731442"><ele>1082</ele></trkpt><trkpt lat="62.630715" lon="9.730586"><ele>1105</ele></trkpt><trkpt lat="62.631162" lon="9.730507"><ele>1127</ele></trkpt><trkpt lat="62.631609" lon="9.730427"><ele>1150</ele></trkpt><trkpt lat="62.632056" lon="9.730348"><ele>1170</ele></trkpt><trkpt lat="62.632503" lon="9.730268"><ele>1185</ele></trkpt><trkpt lat="62.632957" lon="9.730383"><ele>1202</ele></trkpt><trkpt lat="62.633411" lon="9.730498"><ele>1220</ele></trkpt><trkpt lat="62.633858" lon="9.730418"><ele>1243</ele></trkpt><trkpt lat="62.634298" lon="9.730144"><ele>1264</ele></trkpt><trkpt lat="62.634745" lon="9.730065"><ele>1278</ele></trkpt><trkpt lat="62.635192" lon="9.729985"><ele>1274</ele></trkpt><trkpt lat="62.635639" lon="9.729906"><ele>1266</ele></trkpt><trkpt lat="62.636085" lon="9.729826"><ele>1256</ele></trkpt><trkpt lat="62.636532" lon="9.729747"><ele>1252</ele></trkpt><trkpt lat="62.636979" lon="9.729667"><ele>1242</ele></trkpt><trkpt lat="62.637426" lon="9.729588"><ele>1238</ele></trkpt><trkpt lat="62.637873" lon="9.729508"><ele>1233</ele></trkpt><trkpt lat="62.638320" lon="9.729429"><ele>1224</ele></trkpt><trkpt lat="62.638767" lon="9.729349"><ele>1231</ele></trkpt><trkpt lat="62.639214" lon="9.729269"><ele>1239</ele></trkpt><trkpt lat="62.639661" lon="9.729190"><ele>1246</ele></trkpt><trkpt lat="62.640108" lon="9.729110"><ele>1255</ele></trkpt><trkpt lat="62.640562" lon="9.729225"><ele>1271</ele></trkpt><trkpt lat="62.641031" lon="9.729728"><ele>1290</ele></trkpt><trkpt lat="62.641477" lon="9.729649"><ele>1308</ele></trkpt><trkpt lat="62.641932" lon="9.729763"><ele>1320</ele></trkpt><trkpt lat="62.642386" lon="9.729878"><ele>1337</ele></trkpt><trkpt lat="62.642840" lon="9.729992"><ele>1354</ele></trkpt><trkpt lat="62.643309" lon="9.730496"><ele>1374</ele></trkpt><trkpt lat="62.643756" lon="9.730416"><ele>1395</ele></trkpt><trkpt lat="62.644203" lon="9.730337"><ele>1412</ele></trkpt><trkpt lat="62.644664" lon="9.730645"><ele>1436</ele></trkpt><trkpt lat="62.645126" lon="9.730954"><ele>1454</ele></trkpt><trkpt lat="62.645573" lon="9.730875"><ele>1470</ele></trkpt><trkpt lat="62.646020" lon="9.730795"><ele>1473</ele></trkpt><trkpt lat="62.646466" lon="9.730716"><ele>1467</ele></trkpt><trkpt lat="62.646913" lon="9.730636"><ele>1464</ele></trkpt><trkpt lat="62.647360" lon="9.730557"><ele>1467</ele></trkpt><trkpt lat="62.647807" lon="9.730477"><ele>1481</ele></trkpt><trkpt lat="62.648291" lon="9.731369"><ele>1496</ele></trkpt><trkpt lat="62.648291" lon="9.731369"><ele>1496</ele></trkpt></trkseg></trk><wpt lat="62.646132" lon="9.760107"><ele>852</ele><name>Run end · Kinnpiken 1496 m</name></wpt><trk><name>Down · Kinnpiken 1496 m</name><desc>fall-line run: 1208 m of 20–30°, 573 m drop, aspect 89°, max 30°, 1.4% ≥30°; ends 2.6 km from the car.</desc><trkseg><trkpt lat="62.648291" lon="9.731369"><ele>1496</ele></trkpt><trkpt lat="62.645028" lon="9.733123"><ele>1424</ele></trkpt><trkpt lat="62.644871" lon="9.733737"><ele>1409</ele></trkpt><trkpt lat="62.644893" lon="9.734320"><ele>1397</ele></trkpt><trkpt lat="62.644915" lon="9.734903"><ele>1386</ele></trkpt><trkpt lat="62.644937" lon="9.735485"><ele>1376</ele></trkpt><trkpt lat="62.644959" lon="9.736068"><ele>1367</ele></trkpt><trkpt lat="62.644980" lon="9.736651"><ele>1357</ele></trkpt><trkpt lat="62.645002" lon="9.737233"><ele>1347</ele></trkpt><trkpt lat="62.645024" lon="9.737816"><ele>1335</ele></trkpt><trkpt lat="62.645136" lon="9.738383"><ele>1322</ele></trkpt><trkpt lat="62.645158" lon="9.738966"><ele>1308</ele></trkpt><trkpt lat="62.645180" lon="9.739548"><ele>1294</ele></trkpt><trkpt lat="62.645201" lon="9.740131"><ele>1282</ele></trkpt><trkpt lat="62.645492" lon="9.740666"><ele>1264</ele></trkpt><trkpt lat="62.645603" lon="9.741233"><ele>1249</ele></trkpt><trkpt lat="62.645714" lon="9.741800"><ele>1233</ele></trkpt><trkpt lat="62.645736" lon="9.742383"><ele>1218</ele></trkpt><trkpt lat="62.645758" lon="9.742965"><ele>1205</ele></trkpt><trkpt lat="62.645780" lon="9.743548"><ele>1193</ele></trkpt><trkpt lat="62.645802" lon="9.744131"><ele>1182</ele></trkpt><trkpt lat="62.645824" lon="9.744714"><ele>1169</ele></trkpt><trkpt lat="62.645935" lon="9.745280"><ele>1155</ele></trkpt><trkpt lat="62.646046" lon="9.745847"><ele>1144</ele></trkpt><trkpt lat="62.646068" lon="9.746430"><ele>1134</ele></trkpt><trkpt lat="62.646090" lon="9.747013"><ele>1121</ele></trkpt><trkpt lat="62.646112" lon="9.747595"><ele>1108</ele></trkpt><trkpt lat="62.646134" lon="9.748178"><ele>1097</ele></trkpt><trkpt lat="62.646156" lon="9.748761"><ele>1087</ele></trkpt><trkpt lat="62.646178" lon="9.749344"><ele>1075</ele></trkpt><trkpt lat="62.646199" lon="9.749926"><ele>1064</ele></trkpt><trkpt lat="62.646221" lon="9.750509"><ele>1053</ele></trkpt><trkpt lat="62.646243" lon="9.751092"><ele>1044</ele></trkpt><trkpt lat="62.646265" lon="9.751675"><ele>1031</ele></trkpt><trkpt lat="62.646287" lon="9.752257"><ele>1018</ele></trkpt><trkpt lat="62.646309" lon="9.752840"><ele>1007</ele></trkpt><trkpt lat="62.646331" lon="9.753423"><ele>996</ele></trkpt><trkpt lat="62.646263" lon="9.754022"><ele>983</ele></trkpt><trkpt lat="62.646285" lon="9.754604"><ele>971</ele></trkpt><trkpt lat="62.646307" lon="9.755187"><ele>955</ele></trkpt><trkpt lat="62.646239" lon="9.755786"><ele>939</ele></trkpt><trkpt lat="62.646172" lon="9.756384"><ele>923</ele></trkpt><trkpt lat="62.646194" lon="9.756967"><ele>911</ele></trkpt><trkpt lat="62.646216" lon="9.757550"><ele>900</ele></trkpt><trkpt lat="62.646237" lon="9.758132"><ele>888</ele></trkpt><trkpt lat="62.646170" lon="9.758731"><ele>876</ele></trkpt><trkpt lat="62.646102" lon="9.759330"><ele>866</ele></trkpt><trkpt lat="62.646124" lon="9.759912"><ele>855</ele></trkpt><trkpt lat="62.646132" lon="9.760107"><ele>852</ele></trkpt></trkseg></trk></gpx>