<?xml version="1.0" encoding="UTF-8"?>
<gpx version="1.1" creator="Rando toppturs" xmlns="http://www.topografix.com/GPX/1/1"><metadata><name>006 Sissihøa 1622 m</name><desc>Generated 2026-09-13 17:42 from Kartverket 10 m terrain. Ascent lines are least-cost terrain paths under 35°, not verified routes. Not a snow-stability assessment.</desc></metadata><wpt lat="62.517259" lon="9.678645"><ele>1041</ele><name>Car · Sissihøa 1622 m</name></wpt><wpt lat="62.532710" lon="9.715815"><ele>1622</ele><name>Sissihøa 1622 m</name></wpt><trk><name>Up · Sissihøa 1622 m</name><desc>least-cost ascent: +581 m over 2764 m, max 25°, 0.0% on 30–35°, ≈2.14 h at 4 km/h + 400 m/h. Terrain possibility, not a checked route.</desc><trkseg><trkpt lat="62.517259" lon="9.678645"><ele>1041</ele></trkpt><trkpt lat="62.517475" lon="9.679580"><ele>1056</ele></trkpt><trkpt lat="62.517959" lon="9.680467"><ele>1071</ele></trkpt><trkpt lat="62.518442" lon="9.681354"><ele>1082</ele></trkpt><trkpt lat="62.518926" lon="9.682241"><ele>1094</ele></trkpt><trkpt lat="62.519410" lon="9.683128"><ele>1105</ele></trkpt><trkpt lat="62.519894" lon="9.684015"><ele>1118</ele></trkpt><trkpt lat="62.520377" lon="9.684902"><ele>1128</ele></trkpt><trkpt lat="62.520861" lon="9.685790"><ele>1141</ele></trkpt><trkpt lat="62.521345" lon="9.686677"><ele>1152</ele></trkpt><trkpt lat="62.521829" lon="9.687564"><ele>1163</ele></trkpt><trkpt lat="62.522312" lon="9.688452"><ele>1173</ele></trkpt><trkpt lat="62.522796" lon="9.689339"><ele>1186</ele></trkpt><trkpt lat="62.523280" lon="9.690226"><ele>1198</ele></trkpt><trkpt lat="62.523764" lon="9.691114"><ele>1213</ele></trkpt><trkpt lat="62.524247" lon="9.692001"><ele>1224</ele></trkpt><trkpt lat="62.524731" lon="9.692889"><ele>1235</ele></trkpt><trkpt lat="62.525215" lon="9.693776"><ele>1248</ele></trkpt><trkpt lat="62.525698" lon="9.694664"><ele>1263</ele></trkpt><trkpt lat="62.525824" lon="9.695615"><ele>1273</ele></trkpt><trkpt lat="62.525861" lon="9.696582"><ele>1281</ele></trkpt><trkpt lat="62.526166" lon="9.697502"><ele>1294</ele></trkpt><trkpt lat="62.526650" lon="9.698389"><ele>1314</ele></trkpt><trkpt lat="62.527134" lon="9.699277"><ele>1331</ele></trkpt><trkpt lat="62.527617" lon="9.700165"><ele>1345</ele></trkpt><trkpt lat="62.528101" lon="9.701052"><ele>1361</ele></trkpt><trkpt lat="62.528585" lon="9.701940"><ele>1373</ele></trkpt><trkpt lat="62.529068" lon="9.702828"><ele>1383</ele></trkpt><trkpt lat="62.529552" lon="9.703716"><ele>1402</ele></trkpt><trkpt lat="62.530035" lon="9.704603"><ele>1423</ele></trkpt><trkpt lat="62.530072" lon="9.705571"><ele>1437</ele></trkpt><trkpt lat="62.530109" lon="9.706538"><ele>1449</ele></trkpt><trkpt lat="62.530414" lon="9.707458"><ele>1465</ele></trkpt><trkpt lat="62.530897" lon="9.708346"><ele>1483</ele></trkpt><trkpt lat="62.531381" lon="9.709234"><ele>1502</ele></trkpt><trkpt lat="62.531596" lon="9.710169"><ele>1523</ele></trkpt><trkpt lat="62.531633" lon="9.711137"><ele>1539</ele></trkpt><trkpt lat="62.531759" lon="9.712088"><ele>1558</ele></trkpt><trkpt lat="62.531796" lon="9.713056"><ele>1579</ele></trkpt><trkpt lat="62.531833" lon="9.714023"><ele>1594</ele></trkpt><trkpt lat="62.532227" lon="9.714927"><ele>1611</ele></trkpt><trkpt lat="62.532710" lon="9.715815"><ele>1622</ele></trkpt><trkpt lat="62.532710" lon="9.715815"><ele>1622</ele></trkpt></trkseg></trk><wpt lat="62.507330" lon="9.654337"><ele>736</ele><name>Run end · Sissihøa 1622 m</name></wpt><trk><name>Down · Sissihøa 1622 m</name><desc>fall-line run: 1202 m of 20–30°, 825 m drop, aspect 233°, max 25°, 0.0% ≥30°; ends 1.67 km from the car.</desc><trkseg><trkpt lat="62.532710" lon="9.715815"><ele>1622</ele></trkpt><trkpt lat="62.529940" lon="9.716307"><ele>1561</ele></trkpt><trkpt lat="62.529650" lon="9.715775"><ele>1543</ele></trkpt><trkpt lat="62.529359" lon="9.715242"><ele>1526</ele></trkpt><trkpt lat="62.529084" lon="9.715096"><ele>1513</ele></trkpt><trkpt lat="62.528794" lon="9.714563"><ele>1496</ele></trkpt><trkpt lat="62.528504" lon="9.714030"><ele>1482</ele></trkpt><trkpt lat="62.528221" lon="9.713691"><ele>1472</ele></trkpt><trkpt lat="62.527931" lon="9.713158"><ele>1462</ele></trkpt><trkpt lat="62.527641" lon="9.712626"><ele>1453</ele></trkpt><trkpt lat="62.527350" lon="9.712093"><ele>1448</ele></trkpt><trkpt lat="62.527150" lon="9.711544"><ele>1442</ele></trkpt><trkpt lat="62.526859" lon="9.711012"><ele>1437</ele></trkpt><trkpt lat="62.526569" lon="9.710479"><ele>1433</ele></trkpt><trkpt lat="62.526279" lon="9.709946"><ele>1428</ele></trkpt><trkpt lat="62.525996" lon="9.709607"><ele>1423</ele></trkpt><trkpt lat="62.525728" lon="9.709655"><ele>1420</ele></trkpt><trkpt lat="62.525460" lon="9.709702"><ele>1417</ele></trkpt><trkpt lat="62.525185" lon="9.709557"><ele>1413</ele></trkpt><trkpt lat="62.524909" lon="9.709411"><ele>1408</ele></trkpt><trkpt lat="62.524626" lon="9.709072"><ele>1400</ele></trkpt><trkpt lat="62.524351" lon="9.708926"><ele>1392</ele></trkpt><trkpt lat="62.524068" lon="9.708587"><ele>1384</ele></trkpt><trkpt lat="62.523793" lon="9.708441"><ele>1377</ele></trkpt><trkpt lat="62.523517" lon="9.708295"><ele>1371</ele></trkpt><trkpt lat="62.523249" lon="9.708343"><ele>1364</ele></trkpt><trkpt lat="62.522966" lon="9.708004"><ele>1356</ele></trkpt><trkpt lat="62.522698" lon="9.708051"><ele>1350</ele></trkpt><trkpt lat="62.522415" lon="9.707712"><ele>1343</ele></trkpt><trkpt lat="62.522125" lon="9.707180"><ele>1333</ele></trkpt><trkpt lat="62.521835" lon="9.706647"><ele>1325</ele></trkpt><trkpt lat="62.521545" lon="9.706114"><ele>1317</ele></trkpt><trkpt lat="62.521255" lon="9.705582"><ele>1309</ele></trkpt><trkpt lat="62.520979" lon="9.705436"><ele>1303</ele></trkpt><trkpt lat="62.520696" lon="9.705097"><ele>1295</ele></trkpt><trkpt lat="62.520413" lon="9.704758"><ele>1285</ele></trkpt><trkpt lat="62.520145" lon="9.704806"><ele>1277</ele></trkpt><trkpt lat="62.519862" lon="9.704466"><ele>1269</ele></trkpt><trkpt lat="62.519572" lon="9.703934"><ele>1262</ele></trkpt><trkpt lat="62.519289" lon="9.703595"><ele>1255</ele></trkpt><trkpt lat="62.518999" lon="9.703062"><ele>1249</ele></trkpt><trkpt lat="62.518724" lon="9.702917"><ele>1244</ele></trkpt><trkpt lat="62.518523" lon="9.702368"><ele>1240</ele></trkpt><trkpt lat="62.518590" lon="9.701772"><ele>1235</ele></trkpt><trkpt lat="62.518479" lon="9.701208"><ele>1229</ele></trkpt><trkpt lat="62.518278" lon="9.700660"><ele>1223</ele></trkpt><trkpt lat="62.517995" lon="9.700320"><ele>1217</ele></trkpt><trkpt lat="62.517720" lon="9.700175"><ele>1213</ele></trkpt><trkpt lat="62.517444" lon="9.700029"><ele>1208</ele></trkpt><trkpt lat="62.517169" lon="9.699884"><ele>1202</ele></trkpt><trkpt lat="62.516886" lon="9.699545"><ele>1197</ele></trkpt><trkpt lat="62.516603" lon="9.699205"><ele>1190</ele></trkpt><trkpt lat="62.516328" lon="9.699060"><ele>1184</ele></trkpt><trkpt lat="62.516060" lon="9.699108"><ele>1177</ele></trkpt><trkpt lat="62.515791" lon="9.699155"><ele>1169</ele></trkpt><trkpt lat="62.515501" lon="9.698623"><ele>1158</ele></trkpt><trkpt lat="62.515300" lon="9.698075"><ele>1150</ele></trkpt><trkpt lat="62.515010" lon="9.697542"><ele>1145</ele></trkpt><trkpt lat="62.514735" lon="9.697397"><ele>1141</ele></trkpt><trkpt lat="62.514452" lon="9.697058"><ele>1134</ele></trkpt><trkpt lat="62.514340" lon="9.696494"><ele>1129</ele></trkpt><trkpt lat="62.514318" lon="9.695913"><ele>1125</ele></trkpt><trkpt lat="62.514207" lon="9.695349"><ele>1120</ele></trkpt><trkpt lat="62.514095" lon="9.694785"><ele>1116</ele></trkpt><trkpt lat="62.514073" lon="9.694205"><ele>1111</ele></trkpt><trkpt lat="62.513962" lon="9.693641"><ele>1107</ele></trkpt><trkpt lat="62.513940" lon="9.693061"><ele>1103</ele></trkpt><trkpt lat="62.513918" lon="9.692481"><ele>1098</ele></trkpt><trkpt lat="62.513896" lon="9.691900"><ele>1095</ele></trkpt><trkpt lat="62.513873" lon="9.691320"><ele>1090</ele></trkpt><trkpt lat="62.513851" lon="9.690740"><ele>1086</ele></trkpt><trkpt lat="62.513919" lon="9.690144"><ele>1081</ele></trkpt><trkpt lat="62.513896" lon="9.689564"><ele>1077</ele></trkpt><trkpt lat="62.513785" lon="9.689000"><ele>1073</ele></trkpt><trkpt lat="62.513584" lon="9.688452"><ele>1068</ele></trkpt><trkpt lat="62.513383" lon="9.687904"><ele>1063</ele></trkpt><trkpt lat="62.513361" lon="9.687323"><ele>1058</ele></trkpt><trkpt lat="62.513339" lon="9.686743"><ele>1054</ele></trkpt><trkpt lat="62.513406" lon="9.686147"><ele>1050</ele></trkpt><trkpt lat="62.513384" lon="9.685567"><ele>1047</ele></trkpt><trkpt lat="62.513273" lon="9.685003"><ele>1041</ele></trkpt><trkpt lat="62.513251" lon="9.684423"><ele>1037</ele></trkpt><trkpt lat="62.513228" lon="9.683843"><ele>1033</ele></trkpt><trkpt lat="62.513206" lon="9.683263"><ele>1029</ele></trkpt><trkpt lat="62.513452" lon="9.682635"><ele>1022</ele></trkpt><trkpt lat="62.513609" lon="9.682023"><ele>1016</ele></trkpt><trkpt lat="62.513587" lon="9.681443"><ele>1010</ele></trkpt><trkpt lat="62.513475" lon="9.680879"><ele>1006</ele></trkpt><trkpt lat="62.513542" lon="9.680283"><ele>1000</ele></trkpt><trkpt lat="62.513699" lon="9.679671"><ele>994</ele></trkpt><trkpt lat="62.513766" lon="9.679074"><ele>991</ele></trkpt><trkpt lat="62.513923" lon="9.678462"><ele>986</ele></trkpt><trkpt lat="62.513901" lon="9.677882"><ele>980</ele></trkpt><trkpt lat="62.513968" lon="9.677286"><ele>974</ele></trkpt><trkpt lat="62.514214" lon="9.676658"><ele>967</ele></trkpt><trkpt lat="62.514370" lon="9.676046"><ele>959</ele></trkpt><trkpt lat="62.514527" lon="9.675434"><ele>953</ele></trkpt><trkpt lat="62.514326" lon="9.674886"><ele>948</ele></trkpt><trkpt lat="62.514215" lon="9.674322"><ele>943</ele></trkpt><trkpt lat="62.514192" lon="9.673742"><ele>940</ele></trkpt><trkpt lat="62.514170" lon="9.673162"><ele>932</ele></trkpt><trkpt lat="62.514059" lon="9.672598"><ele>922</ele></trkpt><trkpt lat="62.513947" lon="9.672033"><ele>918</ele></trkpt><trkpt lat="62.513836" lon="9.671469"><ele>914</ele></trkpt><trkpt lat="62.513813" lon="9.670889"><ele>910</ele></trkpt><trkpt lat="62.513702" lon="9.670325"><ele>905</ele></trkpt><trkpt lat="62.513680" lon="9.669745"><ele>901</ele></trkpt><trkpt lat="62.513479" lon="9.669197"><ele>897</ele></trkpt><trkpt lat="62.513188" lon="9.668665"><ele>890</ele></trkpt><trkpt lat="62.513077" lon="9.668101"><ele>886</ele></trkpt><trkpt lat="62.512876" lon="9.667553"><ele>880</ele></trkpt><trkpt lat="62.512586" lon="9.667021"><ele>874</ele></trkpt><trkpt lat="62.512303" lon="9.666682"><ele>869</ele></trkpt><trkpt lat="62.512027" lon="9.666537"><ele>865</ele></trkpt><trkpt lat="62.511752" lon="9.666392"><ele>860</ele></trkpt><trkpt lat="62.511461" lon="9.665860"><ele>854</ele></trkpt><trkpt lat="62.511260" lon="9.665312"><ele>848</ele></trkpt><trkpt lat="62.510970" lon="9.664780"><ele>842</ele></trkpt><trkpt lat="62.510695" lon="9.664634"><ele>839</ele></trkpt><trkpt lat="62.510419" lon="9.664489"><ele>835</ele></trkpt><trkpt lat="62.510143" lon="9.664344"><ele>829</ele></trkpt><trkpt lat="62.509861" lon="9.664005"><ele>824</ele></trkpt><trkpt lat="62.509578" lon="9.663667"><ele>819</ele></trkpt><trkpt lat="62.509295" lon="9.663328"><ele>812</ele></trkpt><trkpt lat="62.509012" lon="9.662989"><ele>808</ele></trkpt><trkpt lat="62.508729" lon="9.662651"><ele>803</ele></trkpt><trkpt lat="62.508453" lon="9.662505"><ele>800</ele></trkpt><trkpt lat="62.508178" lon="9.662360"><ele>796</ele></trkpt><trkpt lat="62.507895" lon="9.662022"><ele>791</ele></trkpt><trkpt lat="62.507873" lon="9.661442"><ele>786</ele></trkpt><trkpt lat="62.507850" lon="9.660862"><ele>778</ele></trkpt><trkpt lat="62.507739" lon="9.660298"><ele>774</ele></trkpt><trkpt lat="62.507627" lon="9.659734"><ele>770</ele></trkpt><trkpt lat="62.507426" lon="9.659186"><ele>766</ele></trkpt><trkpt lat="62.507315" lon="9.658622"><ele>761</ele></trkpt><trkpt lat="62.507203" lon="9.658058"><ele>756</ele></trkpt><trkpt lat="62.507091" lon="9.657494"><ele>750</ele></trkpt><trkpt lat="62.507159" lon="9.656898"><ele>748</ele></trkpt><trkpt lat="62.507226" lon="9.656302"><ele>745</ele></trkpt><trkpt lat="62.507293" lon="9.655706"><ele>744</ele></trkpt><trkpt lat="62.507271" lon="9.655126"><ele>739</ele></trkpt><trkpt lat="62.507338" lon="9.654530"><ele>735</ele></trkpt><trkpt lat="62.507330" lon="9.654337"><ele>736</ele></trkpt></trkseg></trk></gpx>