<?xml version="1.0" encoding="UTF-8"?>
<gpx version="1.1" creator="Rando toppturs" xmlns="http://www.topografix.com/GPX/1/1"><metadata><name>007 Allmannberget 1340 m</name><desc>Generated 2026-09-13 17:42 from Kartverket 10 m terrain. Ascent lines are least-cost terrain paths under 35°, not verified routes. Not a snow-stability assessment.</desc></metadata><wpt lat="62.570316" lon="9.761006"><ele>884</ele><name>Car · Allmannberget 1340 m</name></wpt><wpt lat="62.567881" lon="9.708388"><ele>1340</ele><name>Allmannberget 1340 m</name></wpt><trk><name>Up · Allmannberget 1340 m</name><desc>least-cost ascent: +472 m over 2829 m, max 25°, 0.0% on 30–35°, ≈1.89 h at 4 km/h + 400 m/h. Terrain possibility, not a checked route.</desc><trkseg><trkpt lat="62.570316" lon="9.761006"><ele>884</ele></trkpt><trkpt lat="62.570280" lon="9.760037"><ele>875</ele></trkpt><trkpt lat="62.570243" lon="9.759069"><ele>877</ele></trkpt><trkpt lat="62.570207" lon="9.758100"><ele>888</ele></trkpt><trkpt lat="62.570171" lon="9.757131"><ele>905</ele></trkpt><trkpt lat="62.570134" lon="9.756162"><ele>916</ele></trkpt><trkpt lat="62.570098" lon="9.755194"><ele>931</ele></trkpt><trkpt lat="62.570061" lon="9.754225"><ele>941</ele></trkpt><trkpt lat="62.570025" lon="9.753256"><ele>951</ele></trkpt><trkpt lat="62.569988" lon="9.752287"><ele>959</ele></trkpt><trkpt lat="62.569952" lon="9.751319"><ele>967</ele></trkpt><trkpt lat="62.569916" lon="9.750350"><ele>977</ele></trkpt><trkpt lat="62.569879" lon="9.749381"><ele>984</ele></trkpt><trkpt lat="62.569843" lon="9.748412"><ele>991</ele></trkpt><trkpt lat="62.569806" lon="9.747444"><ele>996</ele></trkpt><trkpt lat="62.569770" lon="9.746475"><ele>1002</ele></trkpt><trkpt lat="62.569733" lon="9.745506"><ele>1006</ele></trkpt><trkpt lat="62.569697" lon="9.744537"><ele>1009</ele></trkpt><trkpt lat="62.569660" lon="9.743569"><ele>1014</ele></trkpt><trkpt lat="62.569624" lon="9.742600"><ele>1019</ele></trkpt><trkpt lat="62.569587" lon="9.741631"><ele>1023</ele></trkpt><trkpt lat="62.569551" lon="9.740662"><ele>1027</ele></trkpt><trkpt lat="62.569514" lon="9.739694"><ele>1030</ele></trkpt><trkpt lat="62.569478" lon="9.738725"><ele>1033</ele></trkpt><trkpt lat="62.569441" lon="9.737756"><ele>1037</ele></trkpt><trkpt lat="62.569405" lon="9.736788"><ele>1040</ele></trkpt><trkpt lat="62.569368" lon="9.735819"><ele>1043</ele></trkpt><trkpt lat="62.569332" lon="9.734850"><ele>1048</ele></trkpt><trkpt lat="62.569295" lon="9.733881"><ele>1056</ele></trkpt><trkpt lat="62.569259" lon="9.732913"><ele>1066</ele></trkpt><trkpt lat="62.569222" lon="9.731944"><ele>1077</ele></trkpt><trkpt lat="62.569185" lon="9.730975"><ele>1092</ele></trkpt><trkpt lat="62.569149" lon="9.730007"><ele>1110</ele></trkpt><trkpt lat="62.569112" lon="9.729038"><ele>1125</ele></trkpt><trkpt lat="62.569076" lon="9.728069"><ele>1142</ele></trkpt><trkpt lat="62.569128" lon="9.727085"><ele>1160</ele></trkpt><trkpt lat="62.569092" lon="9.726116"><ele>1174</ele></trkpt><trkpt lat="62.569055" lon="9.725147"><ele>1183</ele></trkpt><trkpt lat="62.569019" lon="9.724179"><ele>1190</ele></trkpt><trkpt lat="62.568982" lon="9.723210"><ele>1199</ele></trkpt><trkpt lat="62.568945" lon="9.722241"><ele>1208</ele></trkpt><trkpt lat="62.568998" lon="9.721257"><ele>1224</ele></trkpt><trkpt lat="62.569051" lon="9.720272"><ele>1241</ele></trkpt><trkpt lat="62.569103" lon="9.719288"><ele>1258</ele></trkpt><trkpt lat="62.569067" lon="9.718319"><ele>1272</ele></trkpt><trkpt lat="62.569030" lon="9.717350"><ele>1283</ele></trkpt><trkpt lat="62.568993" lon="9.716382"><ele>1293</ele></trkpt><trkpt lat="62.568957" lon="9.715413"><ele>1304</ele></trkpt><trkpt lat="62.568920" lon="9.714444"><ele>1314</ele></trkpt><trkpt lat="62.568883" lon="9.713476"><ele>1322</ele></trkpt><trkpt lat="62.568847" lon="9.712507"><ele>1332</ele></trkpt><trkpt lat="62.568721" lon="9.711554"><ele>1338</ele></trkpt><trkpt lat="62.568684" lon="9.710586"><ele>1338</ele></trkpt><trkpt lat="62.568379" lon="9.709665"><ele>1339</ele></trkpt><trkpt lat="62.568074" lon="9.708744"><ele>1340</ele></trkpt><trkpt lat="62.567881" lon="9.708388"><ele>1340</ele></trkpt></trkseg></trk><wpt lat="62.569720" lon="9.669246"><ele>617</ele><name>Run end · Allmannberget 1340 m</name></wpt><trk><name>Down · Allmannberget 1340 m</name><desc>fall-line run: 1101 m of 20–30°, 659 m drop, aspect 275°, max 26°, 0.0% ≥30°; ends 4.72 km from the car.</desc><trkseg><trkpt lat="62.567881" lon="9.708388"><ele>1340</ele></trkpt><trkpt lat="62.564464" lon="9.706072"><ele>1276</ele></trkpt><trkpt lat="62.564217" lon="9.706701"><ele>1259</ele></trkpt><trkpt lat="62.563971" lon="9.707330"><ele>1242</ele></trkpt><trkpt lat="62.563725" lon="9.707958"><ele>1224</ele></trkpt><trkpt lat="62.563465" lon="9.708200"><ele>1215</ele></trkpt><trkpt lat="62.563218" lon="9.708829"><ele>1200</ele></trkpt><trkpt lat="62.562972" lon="9.709458"><ele>1189</ele></trkpt><trkpt lat="62.562726" lon="9.710086"><ele>1180</ele></trkpt><trkpt lat="62.562480" lon="9.710715"><ele>1170</ele></trkpt><trkpt lat="62.562219" lon="9.710957"><ele>1165</ele></trkpt><trkpt lat="62.561966" lon="9.711392"><ele>1162</ele></trkpt><trkpt lat="62.561705" lon="9.711633"><ele>1157</ele></trkpt><trkpt lat="62.561452" lon="9.712068"><ele>1153</ele></trkpt><trkpt lat="62.561184" lon="9.712116"><ele>1149</ele></trkpt><trkpt lat="62.560915" lon="9.712164"><ele>1146</ele></trkpt><trkpt lat="62.560647" lon="9.712211"><ele>1142</ele></trkpt><trkpt lat="62.560379" lon="9.712259"><ele>1139</ele></trkpt><trkpt lat="62.560111" lon="9.712307"><ele>1136</ele></trkpt><trkpt lat="62.559828" lon="9.711967"><ele>1133</ele></trkpt><trkpt lat="62.559553" lon="9.711821"><ele>1129</ele></trkpt><trkpt lat="62.559270" lon="9.711482"><ele>1125</ele></trkpt><trkpt lat="62.558980" lon="9.710948"><ele>1117</ele></trkpt><trkpt lat="62.558779" lon="9.710399"><ele>1112</ele></trkpt><trkpt lat="62.558936" lon="9.709786"><ele>1109</ele></trkpt><trkpt lat="62.559003" lon="9.709190"><ele>1106</ele></trkpt><trkpt lat="62.559070" lon="9.708593"><ele>1104</ele></trkpt><trkpt lat="62.559138" lon="9.707996"><ele>1101</ele></trkpt><trkpt lat="62.559116" lon="9.707415"><ele>1099</ele></trkpt><trkpt lat="62.559272" lon="9.706802"><ele>1096</ele></trkpt><trkpt lat="62.559429" lon="9.706189"><ele>1094</ele></trkpt><trkpt lat="62.559496" lon="9.705592"><ele>1092</ele></trkpt><trkpt lat="62.559653" lon="9.704979"><ele>1089</ele></trkpt><trkpt lat="62.559720" lon="9.704382"><ele>1087</ele></trkpt><trkpt lat="62.559698" lon="9.703801"><ele>1084</ele></trkpt><trkpt lat="62.559944" lon="9.703172"><ele>1080</ele></trkpt><trkpt lat="62.560101" lon="9.702560"><ele>1076</ele></trkpt><trkpt lat="62.560168" lon="9.701963"><ele>1072</ele></trkpt><trkpt lat="62.560325" lon="9.701350"><ele>1069</ele></trkpt><trkpt lat="62.560392" lon="9.700753"><ele>1066</ele></trkpt><trkpt lat="62.560460" lon="9.700156"><ele>1063</ele></trkpt><trkpt lat="62.560616" lon="9.699543"><ele>1059</ele></trkpt><trkpt lat="62.560773" lon="9.698930"><ele>1056</ele></trkpt><trkpt lat="62.560930" lon="9.698317"><ele>1052</ele></trkpt><trkpt lat="62.561086" lon="9.697704"><ele>1047</ele></trkpt><trkpt lat="62.561243" lon="9.697091"><ele>1042</ele></trkpt><trkpt lat="62.561400" lon="9.696478"><ele>1037</ele></trkpt><trkpt lat="62.561556" lon="9.695865"><ele>1033</ele></trkpt><trkpt lat="62.561624" lon="9.695268"><ele>1028</ele></trkpt><trkpt lat="62.561870" lon="9.694639"><ele>1022</ele></trkpt><trkpt lat="62.562026" lon="9.694026"><ele>1015</ele></trkpt><trkpt lat="62.562272" lon="9.693397"><ele>1009</ele></trkpt><trkpt lat="62.562429" lon="9.692784"><ele>1002</ele></trkpt><trkpt lat="62.562675" lon="9.692156"><ele>994</ele></trkpt><trkpt lat="62.562921" lon="9.691527"><ele>987</ele></trkpt><trkpt lat="62.563078" lon="9.690914"><ele>980</ele></trkpt><trkpt lat="62.563234" lon="9.690301"><ele>974</ele></trkpt><trkpt lat="62.563302" lon="9.689703"><ele>967</ele></trkpt><trkpt lat="62.563458" lon="9.689090"><ele>960</ele></trkpt><trkpt lat="62.563615" lon="9.688477"><ele>951</ele></trkpt><trkpt lat="62.563861" lon="9.687848"><ele>943</ele></trkpt><trkpt lat="62.564017" lon="9.687235"><ele>932</ele></trkpt><trkpt lat="62.564085" lon="9.686638"><ele>925</ele></trkpt><trkpt lat="62.564063" lon="9.686057"><ele>919</ele></trkpt><trkpt lat="62.564309" lon="9.685428"><ele>909</ele></trkpt><trkpt lat="62.564376" lon="9.684831"><ele>902</ele></trkpt><trkpt lat="62.564443" lon="9.684234"><ele>893</ele></trkpt><trkpt lat="62.564600" lon="9.683621"><ele>883</ele></trkpt><trkpt lat="62.564667" lon="9.683024"><ele>872</ele></trkpt><trkpt lat="62.564823" lon="9.682411"><ele>861</ele></trkpt><trkpt lat="62.564980" lon="9.681798"><ele>850</ele></trkpt><trkpt lat="62.565137" lon="9.681185"><ele>841</ele></trkpt><trkpt lat="62.565204" lon="9.680587"><ele>831</ele></trkpt><trkpt lat="62.565271" lon="9.679990"><ele>823</ele></trkpt><trkpt lat="62.565428" lon="9.679377"><ele>810</ele></trkpt><trkpt lat="62.565681" lon="9.678942"><ele>793</ele></trkpt><trkpt lat="62.565927" lon="9.678313"><ele>780</ele></trkpt><trkpt lat="62.566173" lon="9.677684"><ele>768</ele></trkpt><trkpt lat="62.566419" lon="9.677054"><ele>757</ele></trkpt><trkpt lat="62.566672" lon="9.676619"><ele>743</ele></trkpt><trkpt lat="62.566925" lon="9.676183"><ele>731</ele></trkpt><trkpt lat="62.567186" lon="9.675942"><ele>721</ele></trkpt><trkpt lat="62.567343" lon="9.675328"><ele>711</ele></trkpt><trkpt lat="62.567589" lon="9.674699"><ele>701</ele></trkpt><trkpt lat="62.567745" lon="9.674086"><ele>691</ele></trkpt><trkpt lat="62.567902" lon="9.673473"><ele>683</ele></trkpt><trkpt lat="62.568058" lon="9.672860"><ele>676</ele></trkpt><trkpt lat="62.568304" lon="9.672230"><ele>667</ele></trkpt><trkpt lat="62.568461" lon="9.671617"><ele>659</ele></trkpt><trkpt lat="62.568707" lon="9.670988"><ele>652</ele></trkpt><trkpt lat="62.568967" lon="9.670746"><ele>646</ele></trkpt><trkpt lat="62.569228" lon="9.670504"><ele>640</ele></trkpt><trkpt lat="62.569481" lon="9.670069"><ele>630</ele></trkpt><trkpt lat="62.569638" lon="9.669455"><ele>621</ele></trkpt><trkpt lat="62.569720" lon="9.669246"><ele>617</ele></trkpt></trkseg></trk></gpx>