<?xml version="1.0" encoding="UTF-8"?>
<gpx version="1.1" creator="Rando toppturs" xmlns="http://www.topografix.com/GPX/1/1"><metadata><name>012 Bollen 1247 m</name><desc>Generated 2026-09-13 17:42 from Kartverket 10 m terrain. Ascent lines are least-cost terrain paths under 35°, not verified routes. Not a snow-stability assessment.</desc></metadata><wpt lat="62.693514" lon="9.101260"><ele>651</ele><name>Car · Bollen 1247 m</name></wpt><wpt lat="62.798125" lon="9.113903"><ele>1247</ele><name>Bollen 1247 m</name></wpt><trk><name>Up · Bollen 1247 m</name><desc>least-cost ascent: +1227 m over 12637 m, max 30°, 0.0% on 30–35°, ≈6.23 h at 4 km/h + 400 m/h. Terrain possibility, not a checked route.</desc><trkseg><trkpt lat="62.693514" lon="9.101260"><ele>651</ele></trkpt><trkpt lat="62.693961" lon="9.101171"><ele>648</ele></trkpt><trkpt lat="62.694407" lon="9.101082"><ele>657</ele></trkpt><trkpt lat="62.694854" lon="9.100993"><ele>666</ele></trkpt><trkpt lat="62.695300" lon="9.100903"><ele>691</ele></trkpt><trkpt lat="62.695746" lon="9.100814"><ele>706</ele></trkpt><trkpt lat="62.696193" lon="9.100725"><ele>718</ele></trkpt><trkpt lat="62.696639" lon="9.100636"><ele>732</ele></trkpt><trkpt lat="62.697110" lon="9.101129"><ele>750</ele></trkpt><trkpt lat="62.697589" lon="9.101818"><ele>768</ele></trkpt><trkpt lat="62.698036" lon="9.101729"><ele>781</ele></trkpt><trkpt lat="62.698490" lon="9.101834"><ele>799</ele></trkpt><trkpt lat="62.698937" lon="9.101744"><ele>811</ele></trkpt><trkpt lat="62.699383" lon="9.101655"><ele>831</ele></trkpt><trkpt lat="62.699830" lon="9.101566"><ele>852</ele></trkpt><trkpt lat="62.700276" lon="9.101477"><ele>865</ele></trkpt><trkpt lat="62.700722" lon="9.101388"><ele>878</ele></trkpt><trkpt lat="62.701169" lon="9.101298"><ele>890</ele></trkpt><trkpt lat="62.701615" lon="9.101209"><ele>902</ele></trkpt><trkpt lat="62.702062" lon="9.101120"><ele>915</ele></trkpt><trkpt lat="62.702508" lon="9.101031"><ele>931</ele></trkpt><trkpt lat="62.702955" lon="9.100941"><ele>937</ele></trkpt><trkpt lat="62.703401" lon="9.100852"><ele>940</ele></trkpt><trkpt lat="62.703847" lon="9.100763"><ele>948</ele></trkpt><trkpt lat="62.704294" lon="9.100674"><ele>959</ele></trkpt><trkpt lat="62.704740" lon="9.100584"><ele>964</ele></trkpt><trkpt lat="62.705187" lon="9.100495"><ele>969</ele></trkpt><trkpt lat="62.705633" lon="9.100406"><ele>975</ele></trkpt><trkpt lat="62.706079" lon="9.100317"><ele>978</ele></trkpt><trkpt lat="62.706526" lon="9.100227"><ele>991</ele></trkpt><trkpt lat="62.706972" lon="9.100138"><ele>995</ele></trkpt><trkpt lat="62.707419" lon="9.100049"><ele>999</ele></trkpt><trkpt lat="62.707865" lon="9.099959"><ele>1009</ele></trkpt><trkpt lat="62.708311" lon="9.099870"><ele>1016</ele></trkpt><trkpt lat="62.708758" lon="9.099781"><ele>1022</ele></trkpt><trkpt lat="62.709204" lon="9.099692"><ele>1024</ele></trkpt><trkpt lat="62.709651" lon="9.099602"><ele>1018</ele></trkpt><trkpt lat="62.710097" lon="9.099513"><ele>1024</ele></trkpt><trkpt lat="62.710543" lon="9.099424"><ele>1030</ele></trkpt><trkpt lat="62.710990" lon="9.099334"><ele>1028</ele></trkpt><trkpt lat="62.711436" lon="9.099245"><ele>1031</ele></trkpt><trkpt lat="62.711883" lon="9.099156"><ele>1031</ele></trkpt><trkpt lat="62.712329" lon="9.099066"><ele>1027</ele></trkpt><trkpt lat="62.712775" lon="9.098977"><ele>1029</ele></trkpt><trkpt lat="62.713222" lon="9.098888"><ele>1030</ele></trkpt><trkpt lat="62.713668" lon="9.098798"><ele>1030</ele></trkpt><trkpt lat="62.714115" lon="9.098709"><ele>1028</ele></trkpt><trkpt lat="62.714561" lon="9.098620"><ele>1030</ele></trkpt><trkpt lat="62.715007" lon="9.098531"><ele>1029</ele></trkpt><trkpt lat="62.715454" lon="9.098441"><ele>1022</ele></trkpt><trkpt lat="62.715900" lon="9.098352"><ele>1019</ele></trkpt><trkpt lat="62.716347" lon="9.098262"><ele>1018</ele></trkpt><trkpt lat="62.716793" lon="9.098173"><ele>1014</ele></trkpt><trkpt lat="62.717239" lon="9.098084"><ele>1013</ele></trkpt><trkpt lat="62.717686" lon="9.097994"><ele>1014</ele></trkpt><trkpt lat="62.718132" lon="9.097905"><ele>1015</ele></trkpt><trkpt lat="62.718579" lon="9.097816"><ele>1018</ele></trkpt><trkpt lat="62.719025" lon="9.097726"><ele>1023</ele></trkpt><trkpt lat="62.719471" lon="9.097637"><ele>1026</ele></trkpt><trkpt lat="62.719918" lon="9.097548"><ele>1034</ele></trkpt><trkpt lat="62.720364" lon="9.097458"><ele>1039</ele></trkpt><trkpt lat="62.720811" lon="9.097369"><ele>1045</ele></trkpt><trkpt lat="62.721257" lon="9.097280"><ele>1054</ele></trkpt><trkpt lat="62.721703" lon="9.097190"><ele>1067</ele></trkpt><trkpt lat="62.722150" lon="9.097101"><ele>1075</ele></trkpt><trkpt lat="62.722596" lon="9.097011"><ele>1081</ele></trkpt><trkpt lat="62.723043" lon="9.096922"><ele>1084</ele></trkpt><trkpt lat="62.723489" lon="9.096833"><ele>1083</ele></trkpt><trkpt lat="62.723936" lon="9.096743"><ele>1084</ele></trkpt><trkpt lat="62.724382" lon="9.096654"><ele>1084</ele></trkpt><trkpt lat="62.724828" lon="9.096564"><ele>1085</ele></trkpt><trkpt lat="62.725275" lon="9.096475"><ele>1086</ele></trkpt><trkpt lat="62.725721" lon="9.096386"><ele>1089</ele></trkpt><trkpt lat="62.726168" lon="9.096296"><ele>1094</ele></trkpt><trkpt lat="62.726614" lon="9.096207"><ele>1098</ele></trkpt><trkpt lat="62.727060" lon="9.096117"><ele>1102</ele></trkpt><trkpt lat="62.727507" lon="9.096028"><ele>1108</ele></trkpt><trkpt lat="62.727953" lon="9.095939"><ele>1112</ele></trkpt><trkpt lat="62.728400" lon="9.095849"><ele>1120</ele></trkpt><trkpt lat="62.728846" lon="9.095760"><ele>1129</ele></trkpt><trkpt lat="62.729292" lon="9.095670"><ele>1140</ele></trkpt><trkpt lat="62.729780" lon="9.096554"><ele>1153</ele></trkpt><trkpt lat="62.730267" lon="9.097437"><ele>1160</ele></trkpt><trkpt lat="62.730714" lon="9.097348"><ele>1173</ele></trkpt><trkpt lat="62.731176" lon="9.097648"><ele>1181</ele></trkpt><trkpt lat="62.731647" lon="9.098142"><ele>1187</ele></trkpt><trkpt lat="62.732102" lon="9.098247"><ele>1200</ele></trkpt><trkpt lat="62.732548" lon="9.098158"><ele>1212</ele></trkpt><trkpt lat="62.732978" lon="9.097679"><ele>1238</ele></trkpt><trkpt lat="62.733425" lon="9.097590"><ele>1233</ele></trkpt><trkpt lat="62.733871" lon="9.097500"><ele>1220</ele></trkpt><trkpt lat="62.734318" lon="9.097411"><ele>1205</ele></trkpt><trkpt lat="62.734764" lon="9.097322"><ele>1191</ele></trkpt><trkpt lat="62.735210" lon="9.097232"><ele>1181</ele></trkpt><trkpt lat="62.735657" lon="9.097143"><ele>1173</ele></trkpt><trkpt lat="62.736103" lon="9.097053"><ele>1166</ele></trkpt><trkpt lat="62.736550" lon="9.096964"><ele>1162</ele></trkpt><trkpt lat="62.736996" lon="9.096874"><ele>1155</ele></trkpt><trkpt lat="62.737442" lon="9.096785"><ele>1148</ele></trkpt><trkpt lat="62.737889" lon="9.096695"><ele>1141</ele></trkpt><trkpt lat="62.738319" lon="9.096217"><ele>1130</ele></trkpt><trkpt lat="62.738757" lon="9.095933"><ele>1117</ele></trkpt><trkpt lat="62.739203" lon="9.095843"><ele>1107</ele></trkpt><trkpt lat="62.739650" lon="9.095754"><ele>1099</ele></trkpt><trkpt lat="62.740096" lon="9.095664"><ele>1094</ele></trkpt><trkpt lat="62.740543" lon="9.095575"><ele>1091</ele></trkpt><trkpt lat="62.740989" lon="9.095485"><ele>1087</ele></trkpt><trkpt lat="62.741435" lon="9.095396"><ele>1085</ele></trkpt><trkpt lat="62.741882" lon="9.095306"><ele>1084</ele></trkpt><trkpt lat="62.742328" lon="9.095217"><ele>1084</ele></trkpt><trkpt lat="62.742775" lon="9.095127"><ele>1086</ele></trkpt><trkpt lat="62.743221" lon="9.095038"><ele>1087</ele></trkpt><trkpt lat="62.743667" lon="9.094948"><ele>1091</ele></trkpt><trkpt lat="62.744114" lon="9.094859"><ele>1096</ele></trkpt><trkpt lat="62.744560" lon="9.094769"><ele>1096</ele></trkpt><trkpt lat="62.745007" lon="9.094680"><ele>1092</ele></trkpt><trkpt lat="62.745453" lon="9.094590"><ele>1087</ele></trkpt><trkpt lat="62.745899" lon="9.094501"><ele>1079</ele></trkpt><trkpt lat="62.746346" lon="9.094411"><ele>1072</ele></trkpt><trkpt lat="62.746792" lon="9.094322"><ele>1064</ele></trkpt><trkpt lat="62.747239" lon="9.094232"><ele>1056</ele></trkpt><trkpt lat="62.747710" lon="9.094727"><ele>1039</ele></trkpt><trkpt lat="62.748164" lon="9.094832"><ele>1020</ele></trkpt><trkpt lat="62.748602" lon="9.094548"><ele>1007</ele></trkpt><trkpt lat="62.749049" lon="9.094458"><ele>991</ele></trkpt><trkpt lat="62.749503" lon="9.094564"><ele>969</ele></trkpt><trkpt lat="62.749958" lon="9.094669"><ele>951</ele></trkpt><trkpt lat="62.750404" lon="9.094579"><ele>934</ele></trkpt><trkpt lat="62.750875" lon="9.095074"><ele>909</ele></trkpt><trkpt lat="62.751322" lon="9.094984"><ele>894</ele></trkpt><trkpt lat="62.751768" lon="9.094895"><ele>882</ele></trkpt><trkpt lat="62.752215" lon="9.094805"><ele>877</ele></trkpt><trkpt lat="62.752661" lon="9.094716"><ele>872</ele></trkpt><trkpt lat="62.753107" lon="9.094626"><ele>870</ele></trkpt><trkpt lat="62.753554" lon="9.094537"><ele>863</ele></trkpt><trkpt lat="62.754000" lon="9.094447"><ele>860</ele></trkpt><trkpt lat="62.754447" lon="9.094358"><ele>857</ele></trkpt><trkpt lat="62.754893" lon="9.094268"><ele>852</ele></trkpt><trkpt lat="62.755339" lon="9.094178"><ele>852</ele></trkpt><trkpt lat="62.755786" lon="9.094089"><ele>853</ele></trkpt><trkpt lat="62.756232" lon="9.093999"><ele>852</ele></trkpt><trkpt lat="62.756679" lon="9.093910"><ele>854</ele></trkpt><trkpt lat="62.757125" lon="9.093820"><ele>852</ele></trkpt><trkpt lat="62.757571" lon="9.093731"><ele>855</ele></trkpt><trkpt lat="62.758018" lon="9.093641"><ele>857</ele></trkpt><trkpt lat="62.758464" lon="9.093552"><ele>855</ele></trkpt><trkpt lat="62.758911" lon="9.093462"><ele>856</ele></trkpt><trkpt lat="62.759357" lon="9.093372"><ele>858</ele></trkpt><trkpt lat="62.759803" lon="9.093283"><ele>863</ele></trkpt><trkpt lat="62.760250" lon="9.093193"><ele>868</ele></trkpt><trkpt lat="62.760696" lon="9.093104"><ele>874</ele></trkpt><trkpt lat="62.761143" lon="9.093014"><ele>883</ele></trkpt><trkpt lat="62.761589" lon="9.092924"><ele>890</ele></trkpt><trkpt lat="62.762035" lon="9.092835"><ele>902</ele></trkpt><trkpt lat="62.762482" lon="9.092745"><ele>912</ele></trkpt><trkpt lat="62.762928" lon="9.092656"><ele>922</ele></trkpt><trkpt lat="62.763375" lon="9.092566"><ele>925</ele></trkpt><trkpt lat="62.763837" lon="9.092866"><ele>937</ele></trkpt><trkpt lat="62.764284" lon="9.092776"><ele>951</ele></trkpt><trkpt lat="62.764730" lon="9.092687"><ele>956</ele></trkpt><trkpt lat="62.765177" lon="9.092597"><ele>959</ele></trkpt><trkpt lat="62.765623" lon="9.092508"><ele>955</ele></trkpt><trkpt lat="62.766069" lon="9.092418"><ele>953</ele></trkpt><trkpt lat="62.766516" lon="9.092328"><ele>956</ele></trkpt><trkpt lat="62.766962" lon="9.092239"><ele>960</ele></trkpt><trkpt lat="62.767409" lon="9.092149"><ele>969</ele></trkpt><trkpt lat="62.767888" lon="9.092839"><ele>972</ele></trkpt><trkpt lat="62.768375" lon="9.093723"><ele>975</ele></trkpt><trkpt lat="62.768863" lon="9.094608"><ele>973</ele></trkpt><trkpt lat="62.769350" lon="9.095493"><ele>972</ele></trkpt><trkpt lat="62.769838" lon="9.096377"><ele>970</ele></trkpt><trkpt lat="62.770325" lon="9.097262"><ele>966</ele></trkpt><trkpt lat="62.770812" lon="9.098146"><ele>961</ele></trkpt><trkpt lat="62.771300" lon="9.099031"><ele>955</ele></trkpt><trkpt lat="62.771787" lon="9.099916"><ele>951</ele></trkpt><trkpt lat="62.772275" lon="9.100801"><ele>946</ele></trkpt><trkpt lat="62.772762" lon="9.101686"><ele>943</ele></trkpt><trkpt lat="62.773250" lon="9.102570"><ele>941</ele></trkpt><trkpt lat="62.773737" lon="9.103455"><ele>940</ele></trkpt><trkpt lat="62.774224" lon="9.104340"><ele>943</ele></trkpt><trkpt lat="62.774712" lon="9.105225"><ele>947</ele></trkpt><trkpt lat="62.775199" lon="9.106110"><ele>954</ele></trkpt><trkpt lat="62.775687" lon="9.106995"><ele>963</ele></trkpt><trkpt lat="62.776174" lon="9.107880"><ele>973</ele></trkpt><trkpt lat="62.776661" lon="9.108765"><ele>982</ele></trkpt><trkpt lat="62.777149" lon="9.109650"><ele>991</ele></trkpt><trkpt lat="62.777628" lon="9.110340"><ele>1003</ele></trkpt><trkpt lat="62.778115" lon="9.111225"><ele>1018</ele></trkpt><trkpt lat="62.778570" lon="9.111331"><ele>1039</ele></trkpt><trkpt lat="62.779016" lon="9.111242"><ele>1055</ele></trkpt><trkpt lat="62.779463" lon="9.111152"><ele>1049</ele></trkpt><trkpt lat="62.779925" lon="9.111453"><ele>1030</ele></trkpt><trkpt lat="62.780405" lon="9.112143"><ele>997</ele></trkpt><trkpt lat="62.780624" lon="9.113082"><ele>972</ele></trkpt><trkpt lat="62.781022" lon="9.113985"><ele>948</ele></trkpt><trkpt lat="62.781485" lon="9.114285"><ele>945</ele></trkpt><trkpt lat="62.781931" lon="9.114196"><ele>946</ele></trkpt><trkpt lat="62.782378" lon="9.114107"><ele>938</ele></trkpt><trkpt lat="62.782840" lon="9.114407"><ele>947</ele></trkpt><trkpt lat="62.783287" lon="9.114318"><ele>946</ele></trkpt><trkpt lat="62.783733" lon="9.114228"><ele>944</ele></trkpt><trkpt lat="62.784180" lon="9.114139"><ele>941</ele></trkpt><trkpt lat="62.784626" lon="9.114050"><ele>939</ele></trkpt><trkpt lat="62.785073" lon="9.113960"><ele>940</ele></trkpt><trkpt lat="62.785527" lon="9.114066"><ele>943</ele></trkpt><trkpt lat="62.785990" lon="9.114367"><ele>943</ele></trkpt><trkpt lat="62.786453" lon="9.114667"><ele>948</ele></trkpt><trkpt lat="62.786932" lon="9.115358"><ele>951</ele></trkpt><trkpt lat="62.787378" lon="9.115268"><ele>955</ele></trkpt><trkpt lat="62.787825" lon="9.115179"><ele>969</ele></trkpt><trkpt lat="62.788271" lon="9.115089"><ele>982</ele></trkpt><trkpt lat="62.788717" lon="9.115000"><ele>993</ele></trkpt><trkpt lat="62.789164" lon="9.114911"><ele>1010</ele></trkpt><trkpt lat="62.789602" lon="9.114626"><ele>1027</ele></trkpt><trkpt lat="62.790016" lon="9.113757"><ele>1052</ele></trkpt><trkpt lat="62.790462" lon="9.113668"><ele>1066</ele></trkpt><trkpt lat="62.790900" lon="9.113383"><ele>1080</ele></trkpt><trkpt lat="62.791339" lon="9.113099"><ele>1093</ele></trkpt><trkpt lat="62.791785" lon="9.113010"><ele>1102</ele></trkpt><trkpt lat="62.792231" lon="9.112920"><ele>1111</ele></trkpt><trkpt lat="62.792678" lon="9.112831"><ele>1116</ele></trkpt><trkpt lat="62.793124" lon="9.112741"><ele>1120</ele></trkpt><trkpt lat="62.793571" lon="9.112652"><ele>1128</ele></trkpt><trkpt lat="62.794017" lon="9.112562"><ele>1139</ele></trkpt><trkpt lat="62.794472" lon="9.112668"><ele>1152</ele></trkpt><trkpt lat="62.794918" lon="9.112579"><ele>1167</ele></trkpt><trkpt lat="62.795365" lon="9.112489"><ele>1178</ele></trkpt><trkpt lat="62.795811" lon="9.112400"><ele>1183</ele></trkpt><trkpt lat="62.796257" lon="9.112310"><ele>1186</ele></trkpt><trkpt lat="62.796720" lon="9.112611"><ele>1194</ele></trkpt><trkpt lat="62.797207" lon="9.113497"><ele>1213</ele></trkpt><trkpt lat="62.797695" lon="9.114382"><ele>1234</ele></trkpt><trkpt lat="62.798125" lon="9.113903"><ele>1247</ele></trkpt><trkpt lat="62.798125" lon="9.113903"><ele>1247</ele></trkpt></trkseg></trk><wpt lat="62.784387" lon="9.127662"><ele>737</ele><name>Run end · Bollen 1247 m</name></wpt><trk><name>Down · Bollen 1247 m</name><desc>fall-line run: 1018 m of 20–30°, 483 m drop, aspect 140°, max 29°, 0.0% ≥30°; ends 10.23 km from the car.</desc><trkseg><trkpt lat="62.798125" lon="9.113903"><ele>1247</ele></trkpt><trkpt lat="62.794315" lon="9.106800"><ele>1219</ele></trkpt><trkpt lat="62.794251" lon="9.107403"><ele>1207</ele></trkpt><trkpt lat="62.794007" lon="9.108041"><ele>1192</ele></trkpt><trkpt lat="62.793764" lon="9.108680"><ele>1178</ele></trkpt><trkpt lat="62.793521" lon="9.109319"><ele>1159</ele></trkpt><trkpt lat="62.793277" lon="9.109958"><ele>1143</ele></trkpt><trkpt lat="62.793034" lon="9.110596"><ele>1132</ele></trkpt><trkpt lat="62.792775" lon="9.110845"><ele>1129</ele></trkpt><trkpt lat="62.792515" lon="9.111094"><ele>1126</ele></trkpt><trkpt lat="62.792272" lon="9.111732"><ele>1116</ele></trkpt><trkpt lat="62.792012" lon="9.111981"><ele>1109</ele></trkpt><trkpt lat="62.791744" lon="9.112035"><ele>1102</ele></trkpt><trkpt lat="62.791493" lon="9.112478"><ele>1098</ele></trkpt><trkpt lat="62.791241" lon="9.112922"><ele>1091</ele></trkpt><trkpt lat="62.790973" lon="9.112975"><ele>1083</ele></trkpt><trkpt lat="62.790714" lon="9.113224"><ele>1074</ele></trkpt><trkpt lat="62.790454" lon="9.113473"><ele>1065</ele></trkpt><trkpt lat="62.790186" lon="9.113526"><ele>1058</ele></trkpt><trkpt lat="62.789918" lon="9.113580"><ele>1048</ele></trkpt><trkpt lat="62.789650" lon="9.113634"><ele>1036</ele></trkpt><trkpt lat="62.789391" lon="9.113882"><ele>1025</ele></trkpt><trkpt lat="62.789148" lon="9.114521"><ele>1009</ele></trkpt><trkpt lat="62.788880" lon="9.114574"><ele>1000</ele></trkpt><trkpt lat="62.788628" lon="9.115018"><ele>991</ele></trkpt><trkpt lat="62.788369" lon="9.115267"><ele>983</ele></trkpt><trkpt lat="62.788101" lon="9.115320"><ele>976</ele></trkpt><trkpt lat="62.787833" lon="9.115374"><ele>968</ele></trkpt><trkpt lat="62.787565" lon="9.115427"><ele>960</ele></trkpt><trkpt lat="62.787297" lon="9.115481"><ele>953</ele></trkpt><trkpt lat="62.787054" lon="9.116120"><ele>943</ele></trkpt><trkpt lat="62.786892" lon="9.116545"><ele>937</ele></trkpt><trkpt lat="62.786640" lon="9.116989"><ele>926</ele></trkpt><trkpt lat="62.786380" lon="9.117237"><ele>920</ele></trkpt><trkpt lat="62.786129" lon="9.117681"><ele>916</ele></trkpt><trkpt lat="62.785878" lon="9.118124"><ele>906</ele></trkpt><trkpt lat="62.785626" lon="9.118568"><ele>897</ele></trkpt><trkpt lat="62.785358" lon="9.118621"><ele>887</ele></trkpt><trkpt lat="62.785115" lon="9.119260"><ele>875</ele></trkpt><trkpt lat="62.785050" lon="9.119863"><ele>870</ele></trkpt><trkpt lat="62.785075" lon="9.120447"><ele>860</ele></trkpt><trkpt lat="62.784921" lon="9.121068"><ele>850</ele></trkpt><trkpt lat="62.784945" lon="9.121653"><ele>839</ele></trkpt><trkpt lat="62.784880" lon="9.122255"><ele>828</ele></trkpt><trkpt lat="62.784816" lon="9.122858"><ele>815</ele></trkpt><trkpt lat="62.784751" lon="9.123461"><ele>803</ele></trkpt><trkpt lat="62.784686" lon="9.124064"><ele>792</ele></trkpt><trkpt lat="62.784621" lon="9.124666"><ele>780</ele></trkpt><trkpt lat="62.784557" lon="9.125269"><ele>768</ele></trkpt><trkpt lat="62.784581" lon="9.125854"><ele>758</ele></trkpt><trkpt lat="62.784606" lon="9.126439"><ele>751</ele></trkpt><trkpt lat="62.784451" lon="9.127059"><ele>743</ele></trkpt><trkpt lat="62.784387" lon="9.127662"><ele>737</ele></trkpt><trkpt lat="62.784387" lon="9.127662"><ele>737</ele></trkpt></trkseg></trk></gpx>