<?xml version="1.0" encoding="UTF-8"?>
<gpx version="1.1" creator="Rando toppturs" xmlns="http://www.topografix.com/GPX/1/1"><metadata><name>017 Nørdre Knutshøa 1684 m</name><desc>Generated 2026-09-13 17:42 from Kartverket 10 m terrain. Ascent lines are least-cost terrain paths under 35°, not verified routes. Not a snow-stability assessment.</desc></metadata><wpt lat="62.314033" lon="9.614526"><ele>877</ele><name>Car · Nørdre Knutshøa 1684 m</name></wpt><wpt lat="62.325249" lon="9.667264"><ele>1684</ele><name>Nørdre Knutshøa 1684 m</name></wpt><trk><name>Up · Nørdre Knutshøa 1684 m</name><desc>least-cost ascent: +810 m over 3380 m, max 34°, 0.4% on 30–35°, ≈2.87 h at 4 km/h + 400 m/h. Terrain possibility, not a checked route.</desc><trkseg><trkpt lat="62.314033" lon="9.614526"><ele>877</ele></trkpt><trkpt lat="62.314070" lon="9.615487"><ele>891</ele></trkpt><trkpt lat="62.314107" lon="9.616447"><ele>907</ele></trkpt><trkpt lat="62.314144" lon="9.617407"><ele>925</ele></trkpt><trkpt lat="62.314182" lon="9.618367"><ele>944</ele></trkpt><trkpt lat="62.314308" lon="9.619312"><ele>966</ele></trkpt><trkpt lat="62.314703" lon="9.620208"><ele>979</ele></trkpt><trkpt lat="62.315187" lon="9.621088"><ele>989</ele></trkpt><trkpt lat="62.315403" lon="9.622017"><ele>997</ele></trkpt><trkpt lat="62.315887" lon="9.622897"><ele>1001</ele></trkpt><trkpt lat="62.316103" lon="9.623825"><ele>1023</ele></trkpt><trkpt lat="62.316140" lon="9.624786"><ele>1043</ele></trkpt><trkpt lat="62.316356" lon="9.625714"><ele>1060</ele></trkpt><trkpt lat="62.316394" lon="9.626674"><ele>1082</ele></trkpt><trkpt lat="62.316431" lon="9.627635"><ele>1099</ele></trkpt><trkpt lat="62.316647" lon="9.628563"><ele>1121</ele></trkpt><trkpt lat="62.316684" lon="9.629524"><ele>1142</ele></trkpt><trkpt lat="62.316811" lon="9.630468"><ele>1168</ele></trkpt><trkpt lat="62.316848" lon="9.631428"><ele>1193</ele></trkpt><trkpt lat="62.316885" lon="9.632389"><ele>1218</ele></trkpt><trkpt lat="62.317011" lon="9.633333"><ele>1233</ele></trkpt><trkpt lat="62.317495" lon="9.634214"><ele>1250</ele></trkpt><trkpt lat="62.317622" lon="9.635158"><ele>1267</ele></trkpt><trkpt lat="62.317659" lon="9.636119"><ele>1281</ele></trkpt><trkpt lat="62.317696" lon="9.637079"><ele>1296</ele></trkpt><trkpt lat="62.317733" lon="9.638040"><ele>1309</ele></trkpt><trkpt lat="62.317771" lon="9.639000"><ele>1321</ele></trkpt><trkpt lat="62.317808" lon="9.639960"><ele>1331</ele></trkpt><trkpt lat="62.317845" lon="9.640921"><ele>1339</ele></trkpt><trkpt lat="62.317882" lon="9.641881"><ele>1347</ele></trkpt><trkpt lat="62.317919" lon="9.642842"><ele>1354</ele></trkpt><trkpt lat="62.318046" lon="9.643786"><ele>1364</ele></trkpt><trkpt lat="62.318083" lon="9.644747"><ele>1371</ele></trkpt><trkpt lat="62.318120" lon="9.645707"><ele>1376</ele></trkpt><trkpt lat="62.318157" lon="9.646668"><ele>1381</ele></trkpt><trkpt lat="62.318194" lon="9.647628"><ele>1385</ele></trkpt><trkpt lat="62.318231" lon="9.648589"><ele>1389</ele></trkpt><trkpt lat="62.318268" lon="9.649549"><ele>1393</ele></trkpt><trkpt lat="62.318305" lon="9.650510"><ele>1398</ele></trkpt><trkpt lat="62.318342" lon="9.651470"><ele>1408</ele></trkpt><trkpt lat="62.318379" lon="9.652431"><ele>1416</ele></trkpt><trkpt lat="62.318416" lon="9.653391"><ele>1423</ele></trkpt><trkpt lat="62.318453" lon="9.654352"><ele>1431</ele></trkpt><trkpt lat="62.318669" lon="9.655280"><ele>1442</ele></trkpt><trkpt lat="62.319153" lon="9.656161"><ele>1463</ele></trkpt><trkpt lat="62.319637" lon="9.657042"><ele>1485</ele></trkpt><trkpt lat="62.320121" lon="9.657923"><ele>1506</ele></trkpt><trkpt lat="62.320604" lon="9.658804"><ele>1526</ele></trkpt><trkpt lat="62.321088" lon="9.659685"><ele>1543</ele></trkpt><trkpt lat="62.321572" lon="9.660566"><ele>1562</ele></trkpt><trkpt lat="62.322056" lon="9.661448"><ele>1579</ele></trkpt><trkpt lat="62.322540" lon="9.662329"><ele>1596</ele></trkpt><trkpt lat="62.323024" lon="9.663210"><ele>1615</ele></trkpt><trkpt lat="62.323508" lon="9.664091"><ele>1634</ele></trkpt><trkpt lat="62.323991" lon="9.664972"><ele>1653</ele></trkpt><trkpt lat="62.324475" lon="9.665854"><ele>1669</ele></trkpt><trkpt lat="62.324959" lon="9.666735"><ele>1680</ele></trkpt><trkpt lat="62.325249" lon="9.667264"><ele>1684</ele></trkpt></trkseg></trk><wpt lat="62.317004" lon="9.621536"><ele>955</ele><name>Run end · Nørdre Knutshøa 1684 m</name></wpt><trk><name>Down · Nørdre Knutshøa 1684 m</name><desc>fall-line run: 923 m of 20–30°, 667 m drop, aspect 249°, max 32°, 1.6% ≥30°; ends 0.49 km from the car.</desc><trkseg><trkpt lat="62.325249" lon="9.667264"><ele>1684</ele></trkpt><trkpt lat="62.324402" lon="9.661611"><ele>1621</ele></trkpt><trkpt lat="62.324380" lon="9.661034"><ele>1609</ele></trkpt><trkpt lat="62.324358" lon="9.660458"><ele>1601</ele></trkpt><trkpt lat="62.324335" lon="9.659881"><ele>1592</ele></trkpt><trkpt lat="62.324313" lon="9.659305"><ele>1584</ele></trkpt><trkpt lat="62.324202" lon="9.658744"><ele>1580</ele></trkpt><trkpt lat="62.324090" lon="9.658184"><ele>1576</ele></trkpt><trkpt lat="62.323800" lon="9.657655"><ele>1571</ele></trkpt><trkpt lat="62.323509" lon="9.657127"><ele>1564</ele></trkpt><trkpt lat="62.323219" lon="9.656598"><ele>1554</ele></trkpt><trkpt lat="62.322929" lon="9.656069"><ele>1543</ele></trkpt><trkpt lat="62.322638" lon="9.655541"><ele>1535</ele></trkpt><trkpt lat="62.322348" lon="9.655012"><ele>1527</ele></trkpt><trkpt lat="62.322058" lon="9.654483"><ele>1516</ele></trkpt><trkpt lat="62.321767" lon="9.653955"><ele>1507</ele></trkpt><trkpt lat="62.321484" lon="9.653618"><ele>1499</ele></trkpt><trkpt lat="62.321202" lon="9.653282"><ele>1492</ele></trkpt><trkpt lat="62.320911" lon="9.652753"><ele>1484</ele></trkpt><trkpt lat="62.320636" lon="9.652609"><ele>1476</ele></trkpt><trkpt lat="62.320368" lon="9.652657"><ele>1469</ele></trkpt><trkpt lat="62.320092" lon="9.652512"><ele>1460</ele></trkpt><trkpt lat="62.319817" lon="9.652368"><ele>1451</ele></trkpt><trkpt lat="62.319526" lon="9.651840"><ele>1439</ele></trkpt><trkpt lat="62.319243" lon="9.651503"><ele>1429</ele></trkpt><trkpt lat="62.318960" lon="9.651167"><ele>1419</ele></trkpt><trkpt lat="62.318670" lon="9.650638"><ele>1410</ele></trkpt><trkpt lat="62.318394" lon="9.650494"><ele>1401</ele></trkpt><trkpt lat="62.318112" lon="9.650157"><ele>1390</ele></trkpt><trkpt lat="62.317836" lon="9.650013"><ele>1374</ele></trkpt><trkpt lat="62.317560" lon="9.649869"><ele>1359</ele></trkpt><trkpt lat="62.317285" lon="9.649724"><ele>1345</ele></trkpt><trkpt lat="62.317002" lon="9.649388"><ele>1334</ele></trkpt><trkpt lat="62.316980" lon="9.648812"><ele>1329</ele></trkpt><trkpt lat="62.316868" lon="9.648252"><ele>1325</ele></trkpt><trkpt lat="62.316578" lon="9.647723"><ele>1320</ele></trkpt><trkpt lat="62.316466" lon="9.647163"><ele>1314</ele></trkpt><trkpt lat="62.316355" lon="9.646602"><ele>1310</ele></trkpt><trkpt lat="62.316332" lon="9.646026"><ele>1305</ele></trkpt><trkpt lat="62.316399" lon="9.645434"><ele>1299</ele></trkpt><trkpt lat="62.316377" lon="9.644858"><ele>1293</ele></trkpt><trkpt lat="62.316444" lon="9.644266"><ele>1287</ele></trkpt><trkpt lat="62.316511" lon="9.643673"><ele>1282</ele></trkpt><trkpt lat="62.316489" lon="9.643097"><ele>1278</ele></trkpt><trkpt lat="62.316467" lon="9.642521"><ele>1274</ele></trkpt><trkpt lat="62.316355" lon="9.641961"><ele>1270</ele></trkpt><trkpt lat="62.316154" lon="9.641416"><ele>1263</ele></trkpt><trkpt lat="62.315953" lon="9.640872"><ele>1256</ele></trkpt><trkpt lat="62.315842" lon="9.640312"><ele>1251</ele></trkpt><trkpt lat="62.315730" lon="9.639751"><ele>1247</ele></trkpt><trkpt lat="62.315618" lon="9.639191"><ele>1241</ele></trkpt><trkpt lat="62.315685" lon="9.638599"><ele>1236</ele></trkpt><trkpt lat="62.315663" lon="9.638023"><ele>1230</ele></trkpt><trkpt lat="62.315641" lon="9.637446"><ele>1224</ele></trkpt><trkpt lat="62.315619" lon="9.636870"><ele>1218</ele></trkpt><trkpt lat="62.315418" lon="9.636326"><ele>1208</ele></trkpt><trkpt lat="62.315306" lon="9.635766"><ele>1201</ele></trkpt><trkpt lat="62.315284" lon="9.635189"><ele>1193</ele></trkpt><trkpt lat="62.315261" lon="9.634613"><ele>1186</ele></trkpt><trkpt lat="62.315239" lon="9.634037"><ele>1179</ele></trkpt><trkpt lat="62.315217" lon="9.633461"><ele>1172</ele></trkpt><trkpt lat="62.315194" lon="9.632885"><ele>1166</ele></trkpt><trkpt lat="62.315172" lon="9.632308"><ele>1159</ele></trkpt><trkpt lat="62.315239" lon="9.631716"><ele>1152</ele></trkpt><trkpt lat="62.315217" lon="9.631140"><ele>1145</ele></trkpt><trkpt lat="62.315284" lon="9.630548"><ele>1133</ele></trkpt><trkpt lat="62.315440" lon="9.629939"><ele>1123</ele></trkpt><trkpt lat="62.315507" lon="9.629347"><ele>1115</ele></trkpt><trkpt lat="62.315753" lon="9.628723"><ele>1105</ele></trkpt><trkpt lat="62.315910" lon="9.628115"><ele>1096</ele></trkpt><trkpt lat="62.315887" lon="9.627539"><ele>1088</ele></trkpt><trkpt lat="62.315865" lon="9.626962"><ele>1081</ele></trkpt><trkpt lat="62.315664" lon="9.626418"><ele>1071</ele></trkpt><trkpt lat="62.315641" lon="9.625842"><ele>1064</ele></trkpt><trkpt lat="62.315798" lon="9.625234"><ele>1051</ele></trkpt><trkpt lat="62.315776" lon="9.624658"><ele>1039</ele></trkpt><trkpt lat="62.315843" lon="9.624065"><ele>1025</ele></trkpt><trkpt lat="62.315820" lon="9.623489"><ele>1013</ele></trkpt><trkpt lat="62.315887" lon="9.622897"><ele>1001</ele></trkpt><trkpt lat="62.316140" lon="9.622465"><ele>993</ele></trkpt><trkpt lat="62.316409" lon="9.622417"><ele>986</ele></trkpt><trkpt lat="62.316669" lon="9.622177"><ele>976</ele></trkpt><trkpt lat="62.316922" lon="9.621744"><ele>958</ele></trkpt><trkpt lat="62.317004" lon="9.621536"><ele>955</ele></trkpt></trkseg></trk></gpx>