<?xml version="1.0" encoding="UTF-8"?>
<gpx version="1.1" creator="Rando toppturs" xmlns="http://www.topografix.com/GPX/1/1"><metadata><name>021 Åmellomfjellet 1419 m</name><desc>Generated 2026-09-13 17:42 from Kartverket 10 m terrain. Ascent lines are least-cost terrain paths under 35°, not verified routes. Not a snow-stability assessment.</desc></metadata><wpt lat="62.636254" lon="9.309626"><ele>646</ele><name>Car · Åmellomfjellet 1419 m</name></wpt><wpt lat="62.645448" lon="9.352067"><ele>1419</ele><name>Åmellomfjellet 1419 m</name></wpt><trk><name>Up · Åmellomfjellet 1419 m</name><desc>least-cost ascent: +773 m over 2961 m, max 33°, 4.0% on 30–35°, ≈2.67 h at 4 km/h + 400 m/h. Terrain possibility, not a checked route.</desc><trkseg><trkpt lat="62.636254" lon="9.309626"><ele>646</ele></trkpt><trkpt lat="62.636294" lon="9.310596"><ele>664</ele></trkpt><trkpt lat="62.636691" lon="9.311498"><ele>684</ele></trkpt><trkpt lat="62.636730" lon="9.312468"><ele>709</ele></trkpt><trkpt lat="62.636770" lon="9.313438"><ele>733</ele></trkpt><trkpt lat="62.636631" lon="9.314443"><ele>752</ele></trkpt><trkpt lat="62.636670" lon="9.315413"><ele>772</ele></trkpt><trkpt lat="62.636531" lon="9.316417"><ele>788</ele></trkpt><trkpt lat="62.636481" lon="9.317405"><ele>809</ele></trkpt><trkpt lat="62.636610" lon="9.318358"><ele>837</ele></trkpt><trkpt lat="62.636649" lon="9.319328"><ele>863</ele></trkpt><trkpt lat="62.636778" lon="9.320281"><ele>892</ele></trkpt><trkpt lat="62.637085" lon="9.321200"><ele>927</ele></trkpt><trkpt lat="62.637571" lon="9.322084"><ele>965</ele></trkpt><trkpt lat="62.638057" lon="9.322969"><ele>1001</ele></trkpt><trkpt lat="62.638528" lon="9.323466"><ele>1023</ele></trkpt><trkpt lat="62.638990" lon="9.323768"><ele>1042</ele></trkpt><trkpt lat="62.639452" lon="9.324070"><ele>1062</ele></trkpt><trkpt lat="62.639899" lon="9.323985"><ele>1069</ele></trkpt><trkpt lat="62.640346" lon="9.323899"><ele>1075</ele></trkpt><trkpt lat="62.640800" lon="9.324008"><ele>1083</ele></trkpt><trkpt lat="62.641286" lon="9.324892"><ele>1104</ele></trkpt><trkpt lat="62.641756" lon="9.325389"><ele>1114</ele></trkpt><trkpt lat="62.642242" lon="9.326274"><ele>1130</ele></trkpt><trkpt lat="62.642728" lon="9.327158"><ele>1141</ele></trkpt><trkpt lat="62.642857" lon="9.328112"><ele>1157</ele></trkpt><trkpt lat="62.643343" lon="9.328997"><ele>1166</ele></trkpt><trkpt lat="62.643650" lon="9.329916"><ele>1182</ele></trkpt><trkpt lat="62.643958" lon="9.330835"><ele>1199</ele></trkpt><trkpt lat="62.644086" lon="9.331788"><ele>1217</ele></trkpt><trkpt lat="62.644126" lon="9.332759"><ele>1234</ele></trkpt><trkpt lat="62.644165" lon="9.333729"><ele>1251</ele></trkpt><trkpt lat="62.644115" lon="9.334717"><ele>1268</ele></trkpt><trkpt lat="62.644065" lon="9.335704"><ele>1285</ele></trkpt><trkpt lat="62.644015" lon="9.336692"><ele>1303</ele></trkpt><trkpt lat="62.644055" lon="9.337663"><ele>1316</ele></trkpt><trkpt lat="62.644094" lon="9.338633"><ele>1326</ele></trkpt><trkpt lat="62.643955" lon="9.339638"><ele>1344</ele></trkpt><trkpt lat="62.643994" lon="9.340608"><ele>1354</ele></trkpt><trkpt lat="62.644033" lon="9.341579"><ele>1362</ele></trkpt><trkpt lat="62.644072" lon="9.342549"><ele>1369</ele></trkpt><trkpt lat="62.644112" lon="9.343520"><ele>1377</ele></trkpt><trkpt lat="62.644151" lon="9.344490"><ele>1385</ele></trkpt><trkpt lat="62.644190" lon="9.345461"><ele>1389</ele></trkpt><trkpt lat="62.644230" lon="9.346431"><ele>1394</ele></trkpt><trkpt lat="62.644269" lon="9.347402"><ele>1398</ele></trkpt><trkpt lat="62.644308" lon="9.348372"><ele>1400</ele></trkpt><trkpt lat="62.644347" lon="9.349343"><ele>1403</ele></trkpt><trkpt lat="62.644476" lon="9.350296"><ele>1406</ele></trkpt><trkpt lat="62.644962" lon="9.351182"><ele>1409</ele></trkpt><trkpt lat="62.645448" lon="9.352067"><ele>1419</ele></trkpt><trkpt lat="62.645448" lon="9.352067"><ele>1419</ele></trkpt></trkseg></trk><wpt lat="62.642282" lon="9.320594"><ele>1012</ele><name>Run end · Åmellomfjellet 1419 m</name></wpt><trk><name>Down · Åmellomfjellet 1419 m</name><desc>fall-line run: 786 m of 20–30°, 350 m drop, aspect 269°, max 30°, 1.5% ≥30°; ends 0.88 km from the car.</desc><trkseg><trkpt lat="62.645448" lon="9.352067"><ele>1419</ele></trkpt><trkpt lat="62.644826" lon="9.343383"><ele>1362</ele></trkpt><trkpt lat="62.645071" lon="9.342750"><ele>1340</ele></trkpt><trkpt lat="62.645315" lon="9.342116"><ele>1318</ele></trkpt><trkpt lat="62.645559" lon="9.341483"><ele>1301</ele></trkpt><trkpt lat="62.645804" lon="9.340849"><ele>1282</ele></trkpt><trkpt lat="62.646048" lon="9.340215"><ele>1266</ele></trkpt><trkpt lat="62.646293" lon="9.339582"><ele>1248</ele></trkpt><trkpt lat="62.646537" lon="9.338948"><ele>1233</ele></trkpt><trkpt lat="62.646781" lon="9.338314"><ele>1217</ele></trkpt><trkpt lat="62.646847" lon="9.337715"><ele>1205</ele></trkpt><trkpt lat="62.646913" lon="9.337116"><ele>1197</ele></trkpt><trkpt lat="62.646889" lon="9.336533"><ele>1192</ele></trkpt><trkpt lat="62.646866" lon="9.335951"><ele>1188</ele></trkpt><trkpt lat="62.647021" lon="9.335334"><ele>1182</ele></trkpt><trkpt lat="62.647176" lon="9.334718"><ele>1177</ele></trkpt><trkpt lat="62.647420" lon="9.334084"><ele>1171</ele></trkpt><trkpt lat="62.647486" lon="9.333485"><ele>1167</ele></trkpt><trkpt lat="62.647551" lon="9.332885"><ele>1162</ele></trkpt><trkpt lat="62.647617" lon="9.332286"><ele>1159</ele></trkpt><trkpt lat="62.647593" lon="9.331703"><ele>1156</ele></trkpt><trkpt lat="62.647659" lon="9.331104"><ele>1152</ele></trkpt><trkpt lat="62.647546" lon="9.330539"><ele>1149</ele></trkpt><trkpt lat="62.647433" lon="9.329973"><ele>1147</ele></trkpt><trkpt lat="62.647320" lon="9.329408"><ele>1144</ele></trkpt><trkpt lat="62.647297" lon="9.328826"><ele>1142</ele></trkpt><trkpt lat="62.647094" lon="9.328278"><ele>1139</ele></trkpt><trkpt lat="62.646981" lon="9.327712"><ele>1136</ele></trkpt><trkpt lat="62.646779" lon="9.327164"><ele>1135</ele></trkpt><trkpt lat="62.646503" lon="9.327022"><ele>1133</ele></trkpt><trkpt lat="62.646480" lon="9.326439"><ele>1131</ele></trkpt><trkpt lat="62.646277" lon="9.325891"><ele>1125</ele></trkpt><trkpt lat="62.646002" lon="9.325748"><ele>1121</ele></trkpt><trkpt lat="62.645718" lon="9.325412"><ele>1115</ele></trkpt><trkpt lat="62.645434" lon="9.325075"><ele>1108</ele></trkpt><trkpt lat="62.645150" lon="9.324738"><ele>1101</ele></trkpt><trkpt lat="62.644859" lon="9.324207"><ele>1093</ele></trkpt><trkpt lat="62.644657" lon="9.323659"><ele>1085</ele></trkpt><trkpt lat="62.644365" lon="9.323128"><ele>1074</ele></trkpt><trkpt lat="62.644073" lon="9.322597"><ele>1064</ele></trkpt><trkpt lat="62.643871" lon="9.322049"><ele>1058</ele></trkpt><trkpt lat="62.643579" lon="9.321518"><ele>1048</ele></trkpt><trkpt lat="62.643304" lon="9.321376"><ele>1042</ele></trkpt><trkpt lat="62.643020" lon="9.321039"><ele>1033</ele></trkpt><trkpt lat="62.642744" lon="9.320896"><ele>1027</ele></trkpt><trkpt lat="62.642468" lon="9.320754"><ele>1019</ele></trkpt><trkpt lat="62.642282" lon="9.320594"><ele>1012</ele></trkpt></trkseg></trk></gpx>