<?xml version="1.0" encoding="UTF-8"?>
<gpx version="1.1" creator="Rando toppturs" xmlns="http://www.topografix.com/GPX/1/1"><metadata><name>024 Unnamed 1324 m</name><desc>Generated 2026-09-13 17:42 from Kartverket 10 m terrain. Ascent lines are least-cost terrain paths under 35°, not verified routes. Not a snow-stability assessment.</desc></metadata><wpt lat="62.780286" lon="9.561590"><ele>825</ele><name>Car · Unnamed summit 1324 m</name></wpt><wpt lat="62.827304" lon="9.303921"><ele>1324</ele><name>Unnamed summit 1324 m</name></wpt><trk><name>Up · Unnamed summit 1324 m</name><desc>least-cost ascent: +1239 m over 15513 m, max 29°, 0.0% on 30–35°, ≈6.98 h at 4 km/h + 400 m/h. Terrain possibility, not a checked route.</desc><trkseg><trkpt lat="62.780286" lon="9.561590"><ele>825</ele></trkpt><trkpt lat="62.780427" lon="9.560581"><ele>816</ele></trkpt><trkpt lat="62.780478" lon="9.559590"><ele>809</ele></trkpt><trkpt lat="62.780887" lon="9.558532"><ele>805</ele></trkpt><trkpt lat="62.781296" lon="9.557474"><ele>800</ele></trkpt><trkpt lat="62.781705" lon="9.556416"><ele>795</ele></trkpt><trkpt lat="62.782114" lon="9.555357"><ele>795</ele></trkpt><trkpt lat="62.782523" lon="9.554299"><ele>794</ele></trkpt><trkpt lat="62.782932" lon="9.553241"><ele>794</ele></trkpt><trkpt lat="62.783341" lon="9.552183"><ele>794</ele></trkpt><trkpt lat="62.783750" lon="9.551125"><ele>794</ele></trkpt><trkpt lat="62.784158" lon="9.550067"><ele>793</ele></trkpt><trkpt lat="62.784567" lon="9.549008"><ele>794</ele></trkpt><trkpt lat="62.784976" lon="9.547950"><ele>793</ele></trkpt><trkpt lat="62.785385" lon="9.546892"><ele>795</ele></trkpt><trkpt lat="62.785794" lon="9.545834"><ele>794</ele></trkpt><trkpt lat="62.786202" lon="9.544775"><ele>795</ele></trkpt><trkpt lat="62.786611" lon="9.543717"><ele>795</ele></trkpt><trkpt lat="62.787020" lon="9.542658"><ele>796</ele></trkpt><trkpt lat="62.787250" lon="9.541633"><ele>796</ele></trkpt><trkpt lat="62.787212" lon="9.540658"><ele>797</ele></trkpt><trkpt lat="62.787174" lon="9.539682"><ele>798</ele></trkpt><trkpt lat="62.787226" lon="9.538690"><ele>805</ele></trkpt><trkpt lat="62.787188" lon="9.537714"><ele>812</ele></trkpt><trkpt lat="62.787150" lon="9.536739"><ele>817</ele></trkpt><trkpt lat="62.787112" lon="9.535763"><ele>824</ele></trkpt><trkpt lat="62.787074" lon="9.534788"><ele>830</ele></trkpt><trkpt lat="62.787036" lon="9.533812"><ele>829</ele></trkpt><trkpt lat="62.786998" lon="9.532837"><ele>834</ele></trkpt><trkpt lat="62.786960" lon="9.531861"><ele>845</ele></trkpt><trkpt lat="62.786921" lon="9.530886"><ele>857</ele></trkpt><trkpt lat="62.786883" lon="9.529910"><ele>862</ele></trkpt><trkpt lat="62.786845" lon="9.528935"><ele>863</ele></trkpt><trkpt lat="62.786807" lon="9.527959"><ele>864</ele></trkpt><trkpt lat="62.786769" lon="9.526984"><ele>869</ele></trkpt><trkpt lat="62.786731" lon="9.526008"><ele>872</ele></trkpt><trkpt lat="62.786693" lon="9.525033"><ele>882</ele></trkpt><trkpt lat="62.786655" lon="9.524057"><ele>876</ele></trkpt><trkpt lat="62.786617" lon="9.523082"><ele>870</ele></trkpt><trkpt lat="62.786579" lon="9.522106"><ele>866</ele></trkpt><trkpt lat="62.786541" lon="9.521131"><ele>865</ele></trkpt><trkpt lat="62.786503" lon="9.520155"><ele>865</ele></trkpt><trkpt lat="62.786465" lon="9.519180"><ele>867</ele></trkpt><trkpt lat="62.786426" lon="9.518204"><ele>870</ele></trkpt><trkpt lat="62.786478" lon="9.517212"><ele>874</ele></trkpt><trkpt lat="62.786529" lon="9.516220"><ele>887</ele></trkpt><trkpt lat="62.786491" lon="9.515244"><ele>893</ele></trkpt><trkpt lat="62.786453" lon="9.514269"><ele>899</ele></trkpt><trkpt lat="62.786414" lon="9.513294"><ele>908</ele></trkpt><trkpt lat="62.786376" lon="9.512318"><ele>919</ele></trkpt><trkpt lat="62.786338" lon="9.511343"><ele>929</ele></trkpt><trkpt lat="62.786300" lon="9.510367"><ele>923</ele></trkpt><trkpt lat="62.786262" lon="9.509392"><ele>920</ele></trkpt><trkpt lat="62.786224" lon="9.508416"><ele>914</ele></trkpt><trkpt lat="62.786185" lon="9.507441"><ele>906</ele></trkpt><trkpt lat="62.786147" lon="9.506465"><ele>905</ele></trkpt><trkpt lat="62.786109" lon="9.505490"><ele>900</ele></trkpt><trkpt lat="62.786071" lon="9.504514"><ele>884</ele></trkpt><trkpt lat="62.786032" lon="9.503539"><ele>878</ele></trkpt><trkpt lat="62.785994" lon="9.502563"><ele>878</ele></trkpt><trkpt lat="62.785956" lon="9.501588"><ele>870</ele></trkpt><trkpt lat="62.785918" lon="9.500613"><ele>861</ele></trkpt><trkpt lat="62.785879" lon="9.499637"><ele>857</ele></trkpt><trkpt lat="62.785841" lon="9.498662"><ele>852</ele></trkpt><trkpt lat="62.785803" lon="9.497686"><ele>852</ele></trkpt><trkpt lat="62.785765" lon="9.496711"><ele>853</ele></trkpt><trkpt lat="62.785726" lon="9.495735"><ele>861</ele></trkpt><trkpt lat="62.785688" lon="9.494760"><ele>867</ele></trkpt><trkpt lat="62.785650" lon="9.493785"><ele>869</ele></trkpt><trkpt lat="62.785612" lon="9.492809"><ele>878</ele></trkpt><trkpt lat="62.785573" lon="9.491834"><ele>890</ele></trkpt><trkpt lat="62.785535" lon="9.490858"><ele>895</ele></trkpt><trkpt lat="62.785497" lon="9.489883"><ele>898</ele></trkpt><trkpt lat="62.785458" lon="9.488908"><ele>901</ele></trkpt><trkpt lat="62.785420" lon="9.487932"><ele>905</ele></trkpt><trkpt lat="62.785382" lon="9.486957"><ele>903</ele></trkpt><trkpt lat="62.785343" lon="9.485981"><ele>902</ele></trkpt><trkpt lat="62.785305" lon="9.485006"><ele>901</ele></trkpt><trkpt lat="62.785267" lon="9.484031"><ele>899</ele></trkpt><trkpt lat="62.785228" lon="9.483055"><ele>901</ele></trkpt><trkpt lat="62.785190" lon="9.482080"><ele>899</ele></trkpt><trkpt lat="62.785151" lon="9.481104"><ele>898</ele></trkpt><trkpt lat="62.785113" lon="9.480129"><ele>900</ele></trkpt><trkpt lat="62.785075" lon="9.479154"><ele>902</ele></trkpt><trkpt lat="62.785036" lon="9.478178"><ele>902</ele></trkpt><trkpt lat="62.784998" lon="9.477203"><ele>901</ele></trkpt><trkpt lat="62.784959" lon="9.476228"><ele>900</ele></trkpt><trkpt lat="62.784921" lon="9.475252"><ele>902</ele></trkpt><trkpt lat="62.784972" lon="9.474260"><ele>902</ele></trkpt><trkpt lat="62.785380" lon="9.473201"><ele>903</ele></trkpt><trkpt lat="62.785788" lon="9.472141"><ele>898</ele></trkpt><trkpt lat="62.786197" lon="9.471082"><ele>903</ele></trkpt><trkpt lat="62.786605" lon="9.470023"><ele>909</ele></trkpt><trkpt lat="62.787013" lon="9.468963"><ele>919</ele></trkpt><trkpt lat="62.787421" lon="9.467904"><ele>925</ele></trkpt><trkpt lat="62.787830" lon="9.466844"><ele>930</ele></trkpt><trkpt lat="62.788238" lon="9.465785"><ele>936</ele></trkpt><trkpt lat="62.788646" lon="9.464725"><ele>941</ele></trkpt><trkpt lat="62.789054" lon="9.463666"><ele>946</ele></trkpt><trkpt lat="62.789462" lon="9.462606"><ele>953</ele></trkpt><trkpt lat="62.789870" lon="9.461547"><ele>960</ele></trkpt><trkpt lat="62.790279" lon="9.460487"><ele>970</ele></trkpt><trkpt lat="62.790687" lon="9.459427"><ele>979</ele></trkpt><trkpt lat="62.791095" lon="9.458368"><ele>991</ele></trkpt><trkpt lat="62.791503" lon="9.457308"><ele>1002</ele></trkpt><trkpt lat="62.791911" lon="9.456248"><ele>1012</ele></trkpt><trkpt lat="62.792319" lon="9.455188"><ele>1023</ele></trkpt><trkpt lat="62.792727" lon="9.454129"><ele>1035</ele></trkpt><trkpt lat="62.793135" lon="9.453069"><ele>1047</ele></trkpt><trkpt lat="62.793544" lon="9.452009"><ele>1061</ele></trkpt><trkpt lat="62.793952" lon="9.450949"><ele>1075</ele></trkpt><trkpt lat="62.794360" lon="9.449889"><ele>1090</ele></trkpt><trkpt lat="62.794768" lon="9.448829"><ele>1104</ele></trkpt><trkpt lat="62.795176" lon="9.447769"><ele>1114</ele></trkpt><trkpt lat="62.795584" lon="9.446709"><ele>1124</ele></trkpt><trkpt lat="62.795992" lon="9.445649"><ele>1131</ele></trkpt><trkpt lat="62.796400" lon="9.444589"><ele>1141</ele></trkpt><trkpt lat="62.796808" lon="9.443529"><ele>1152</ele></trkpt><trkpt lat="62.797216" lon="9.442469"><ele>1158</ele></trkpt><trkpt lat="62.797624" lon="9.441409"><ele>1162</ele></trkpt><trkpt lat="62.798032" lon="9.440348"><ele>1163</ele></trkpt><trkpt lat="62.798440" lon="9.439288"><ele>1164</ele></trkpt><trkpt lat="62.798848" lon="9.438228"><ele>1162</ele></trkpt><trkpt lat="62.799256" lon="9.437168"><ele>1159</ele></trkpt><trkpt lat="62.799664" lon="9.436107"><ele>1156</ele></trkpt><trkpt lat="62.800072" lon="9.435047"><ele>1153</ele></trkpt><trkpt lat="62.800480" lon="9.433987"><ele>1150</ele></trkpt><trkpt lat="62.800888" lon="9.432926"><ele>1146</ele></trkpt><trkpt lat="62.801296" lon="9.431866"><ele>1141</ele></trkpt><trkpt lat="62.801704" lon="9.430805"><ele>1141</ele></trkpt><trkpt lat="62.802112" lon="9.429745"><ele>1141</ele></trkpt><trkpt lat="62.802519" lon="9.428684"><ele>1145</ele></trkpt><trkpt lat="62.802927" lon="9.427624"><ele>1144</ele></trkpt><trkpt lat="62.803335" lon="9.426563"><ele>1139</ele></trkpt><trkpt lat="62.803743" lon="9.425502"><ele>1139</ele></trkpt><trkpt lat="62.804151" lon="9.424442"><ele>1146</ele></trkpt><trkpt lat="62.804470" lon="9.423398"><ele>1165</ele></trkpt><trkpt lat="62.804609" lon="9.422388"><ele>1175</ele></trkpt><trkpt lat="62.804660" lon="9.421395"><ele>1184</ele></trkpt><trkpt lat="62.804621" lon="9.420419"><ele>1196</ele></trkpt><trkpt lat="62.804582" lon="9.419444"><ele>1203</ele></trkpt><trkpt lat="62.804544" lon="9.418468"><ele>1210</ele></trkpt><trkpt lat="62.804505" lon="9.417492"><ele>1221</ele></trkpt><trkpt lat="62.804466" lon="9.416516"><ele>1232</ele></trkpt><trkpt lat="62.804516" lon="9.415523"><ele>1247</ele></trkpt><trkpt lat="62.804567" lon="9.414530"><ele>1261</ele></trkpt><trkpt lat="62.804617" lon="9.413537"><ele>1278</ele></trkpt><trkpt lat="62.804578" lon="9.412561"><ele>1293</ele></trkpt><trkpt lat="62.804629" lon="9.411568"><ele>1309</ele></trkpt><trkpt lat="62.804679" lon="9.410575"><ele>1324</ele></trkpt><trkpt lat="62.804730" lon="9.409583"><ele>1339</ele></trkpt><trkpt lat="62.804691" lon="9.408607"><ele>1352</ele></trkpt><trkpt lat="62.804920" lon="9.407580"><ele>1357</ele></trkpt><trkpt lat="62.805328" lon="9.406519"><ele>1354</ele></trkpt><trkpt lat="62.805735" lon="9.405458"><ele>1349</ele></trkpt><trkpt lat="62.806054" lon="9.404414"><ele>1359</ele></trkpt><trkpt lat="62.806372" lon="9.403370"><ele>1357</ele></trkpt><trkpt lat="62.806780" lon="9.402309"><ele>1358</ele></trkpt><trkpt lat="62.806920" lon="9.401299"><ele>1341</ele></trkpt><trkpt lat="62.807059" lon="9.400289"><ele>1326</ele></trkpt><trkpt lat="62.807199" lon="9.399279"><ele>1330</ele></trkpt><trkpt lat="62.807249" lon="9.398286"><ele>1323</ele></trkpt><trkpt lat="62.807210" lon="9.397310"><ele>1316</ele></trkpt><trkpt lat="62.807350" lon="9.396300"><ele>1317</ele></trkpt><trkpt lat="62.807758" lon="9.395239"><ele>1303</ele></trkpt><trkpt lat="62.808165" lon="9.394178"><ele>1282</ele></trkpt><trkpt lat="62.808573" lon="9.393116"><ele>1275</ele></trkpt><trkpt lat="62.808989" lon="9.392250"><ele>1252</ele></trkpt><trkpt lat="62.809404" lon="9.391384"><ele>1239</ele></trkpt><trkpt lat="62.809812" lon="9.390323"><ele>1210</ele></trkpt><trkpt lat="62.810130" lon="9.389279"><ele>1191</ele></trkpt><trkpt lat="62.810448" lon="9.388234"><ele>1161</ele></trkpt><trkpt lat="62.810856" lon="9.387173"><ele>1132</ele></trkpt><trkpt lat="62.811263" lon="9.386111"><ele>1105</ele></trkpt><trkpt lat="62.811581" lon="9.385067"><ele>1083</ele></trkpt><trkpt lat="62.811997" lon="9.384201"><ele>1062</ele></trkpt><trkpt lat="62.812404" lon="9.383139"><ele>1040</ele></trkpt><trkpt lat="62.812812" lon="9.382078"><ele>1021</ele></trkpt><trkpt lat="62.813219" lon="9.381016"><ele>998</ele></trkpt><trkpt lat="62.813627" lon="9.379955"><ele>974</ele></trkpt><trkpt lat="62.814035" lon="9.378893"><ele>950</ele></trkpt><trkpt lat="62.814442" lon="9.377831"><ele>930</ele></trkpt><trkpt lat="62.814850" lon="9.376770"><ele>914</ele></trkpt><trkpt lat="62.815257" lon="9.375708"><ele>898</ele></trkpt><trkpt lat="62.815665" lon="9.374646"><ele>885</ele></trkpt><trkpt lat="62.816072" lon="9.373585"><ele>874</ele></trkpt><trkpt lat="62.816479" lon="9.372523"><ele>864</ele></trkpt><trkpt lat="62.816798" lon="9.371478"><ele>855</ele></trkpt><trkpt lat="62.817205" lon="9.370416"><ele>861</ele></trkpt><trkpt lat="62.817613" lon="9.369354"><ele>870</ele></trkpt><trkpt lat="62.818020" lon="9.368292"><ele>883</ele></trkpt><trkpt lat="62.818427" lon="9.367231"><ele>900</ele></trkpt><trkpt lat="62.818835" lon="9.366169"><ele>914</ele></trkpt><trkpt lat="62.819242" lon="9.365107"><ele>928</ele></trkpt><trkpt lat="62.819650" lon="9.364045"><ele>937</ele></trkpt><trkpt lat="62.820057" lon="9.362983"><ele>943</ele></trkpt><trkpt lat="62.820464" lon="9.361920"><ele>945</ele></trkpt><trkpt lat="62.820872" lon="9.360858"><ele>948</ele></trkpt><trkpt lat="62.821279" lon="9.359796"><ele>950</ele></trkpt><trkpt lat="62.821687" lon="9.358734"><ele>960</ele></trkpt><trkpt lat="62.822094" lon="9.357672"><ele>961</ele></trkpt><trkpt lat="62.822501" lon="9.356610"><ele>967</ele></trkpt><trkpt lat="62.822909" lon="9.355547"><ele>973</ele></trkpt><trkpt lat="62.823316" lon="9.354485"><ele>979</ele></trkpt><trkpt lat="62.823723" lon="9.353423"><ele>983</ele></trkpt><trkpt lat="62.824131" lon="9.352360"><ele>989</ele></trkpt><trkpt lat="62.824449" lon="9.351315"><ele>1001</ele></trkpt><trkpt lat="62.824409" lon="9.350339"><ele>1011</ele></trkpt><trkpt lat="62.824638" lon="9.349311"><ele>1019</ele></trkpt><trkpt lat="62.824867" lon="9.348283"><ele>1026</ele></trkpt><trkpt lat="62.824916" lon="9.347289"><ele>1036</ele></trkpt><trkpt lat="62.825056" lon="9.346278"><ele>1049</ele></trkpt><trkpt lat="62.825106" lon="9.345284"><ele>1060</ele></trkpt><trkpt lat="62.825066" lon="9.344308"><ele>1072</ele></trkpt><trkpt lat="62.825116" lon="9.343314"><ele>1083</ele></trkpt><trkpt lat="62.825166" lon="9.342321"><ele>1097</ele></trkpt><trkpt lat="62.825216" lon="9.341327"><ele>1108</ele></trkpt><trkpt lat="62.825177" lon="9.340351"><ele>1117</ele></trkpt><trkpt lat="62.825138" lon="9.339374"><ele>1127</ele></trkpt><trkpt lat="62.825098" lon="9.338398"><ele>1134</ele></trkpt><trkpt lat="62.825059" lon="9.337421"><ele>1143</ele></trkpt><trkpt lat="62.825198" lon="9.336410"><ele>1147</ele></trkpt><trkpt lat="62.825248" lon="9.335416"><ele>1159</ele></trkpt><trkpt lat="62.825209" lon="9.334440"><ele>1172</ele></trkpt><trkpt lat="62.825169" lon="9.333464"><ele>1181</ele></trkpt><trkpt lat="62.825130" lon="9.332487"><ele>1192</ele></trkpt><trkpt lat="62.825090" lon="9.331511"><ele>1205</ele></trkpt><trkpt lat="62.825051" lon="9.330534"><ele>1209</ele></trkpt><trkpt lat="62.825011" lon="9.329558"><ele>1215</ele></trkpt><trkpt lat="62.824972" lon="9.328581"><ele>1223</ele></trkpt><trkpt lat="62.824932" lon="9.327605"><ele>1218</ele></trkpt><trkpt lat="62.824893" lon="9.326628"><ele>1223</ele></trkpt><trkpt lat="62.824854" lon="9.325652"><ele>1219</ele></trkpt><trkpt lat="62.824814" lon="9.324676"><ele>1219</ele></trkpt><trkpt lat="62.824775" lon="9.323699"><ele>1226</ele></trkpt><trkpt lat="62.824735" lon="9.322723"><ele>1221</ele></trkpt><trkpt lat="62.824785" lon="9.321729"><ele>1233</ele></trkpt><trkpt lat="62.824745" lon="9.320753"><ele>1234</ele></trkpt><trkpt lat="62.824706" lon="9.319776"><ele>1234</ele></trkpt><trkpt lat="62.824666" lon="9.318800"><ele>1239</ele></trkpt><trkpt lat="62.824627" lon="9.317823"><ele>1239</ele></trkpt><trkpt lat="62.824587" lon="9.316847"><ele>1234</ele></trkpt><trkpt lat="62.824548" lon="9.315871"><ele>1239</ele></trkpt><trkpt lat="62.824866" lon="9.314825"><ele>1244</ele></trkpt><trkpt lat="62.825094" lon="9.313797"><ele>1254</ele></trkpt><trkpt lat="62.825054" lon="9.312820"><ele>1258</ele></trkpt><trkpt lat="62.825015" lon="9.311844"><ele>1260</ele></trkpt><trkpt lat="62.824975" lon="9.310867"><ele>1265</ele></trkpt><trkpt lat="62.825025" lon="9.309874"><ele>1273</ele></trkpt><trkpt lat="62.825432" lon="9.308811"><ele>1293</ele></trkpt><trkpt lat="62.825839" lon="9.307748"><ele>1312</ele></trkpt><trkpt lat="62.826246" lon="9.306685"><ele>1318</ele></trkpt><trkpt lat="62.826653" lon="9.305622"><ele>1318</ele></trkpt><trkpt lat="62.827060" lon="9.304558"><ele>1319</ele></trkpt><trkpt lat="62.827304" lon="9.303921"><ele>1324</ele></trkpt></trkseg></trk><wpt lat="62.811773" lon="9.278406"><ele>824</ele><name>Run end · Unnamed summit 1324 m</name></wpt><trk><name>Down · Unnamed summit 1324 m</name><desc>fall-line run: 768 m of 20–30°, 458 m drop, aspect 221°, max 30°, 0.8% ≥30°; ends 14.88 km from the car.</desc><trkseg><trkpt lat="62.827304" lon="9.303921"><ele>1324</ele></trkpt><trkpt lat="62.821817" lon="9.295145"><ele>1282</ele></trkpt><trkpt lat="62.821549" lon="9.295197"><ele>1270</ele></trkpt><trkpt lat="62.821289" lon="9.295445"><ele>1261</ele></trkpt><trkpt lat="62.821037" lon="9.295887"><ele>1251</ele></trkpt><trkpt lat="62.820769" lon="9.295939"><ele>1239</ele></trkpt><trkpt lat="62.820501" lon="9.295991"><ele>1223</ele></trkpt><trkpt lat="62.820233" lon="9.296043"><ele>1211</ele></trkpt><trkpt lat="62.819957" lon="9.295900"><ele>1199</ele></trkpt><trkpt lat="62.819689" lon="9.295952"><ele>1186</ele></trkpt><trkpt lat="62.819405" lon="9.295614"><ele>1169</ele></trkpt><trkpt lat="62.819113" lon="9.295080"><ele>1151</ele></trkpt><trkpt lat="62.818822" lon="9.294546"><ele>1129</ele></trkpt><trkpt lat="62.818530" lon="9.294013"><ele>1114</ele></trkpt><trkpt lat="62.818238" lon="9.293479"><ele>1091</ele></trkpt><trkpt lat="62.817946" lon="9.292946"><ele>1071</ele></trkpt><trkpt lat="62.817655" lon="9.292412"><ele>1055</ele></trkpt><trkpt lat="62.817363" lon="9.291878"><ele>1035</ele></trkpt><trkpt lat="62.817071" lon="9.291345"><ele>1017</ele></trkpt><trkpt lat="62.816779" lon="9.290811"><ele>1003</ele></trkpt><trkpt lat="62.816488" lon="9.290278"><ele>986</ele></trkpt><trkpt lat="62.816196" lon="9.289744"><ele>976</ele></trkpt><trkpt lat="62.816172" lon="9.289158"><ele>969</ele></trkpt><trkpt lat="62.816059" lon="9.288590"><ele>963</ele></trkpt><trkpt lat="62.815946" lon="9.288022"><ele>957</ele></trkpt><trkpt lat="62.815833" lon="9.287453"><ele>952</ele></trkpt><trkpt lat="62.815809" lon="9.286868"><ele>947</ele></trkpt><trkpt lat="62.815606" lon="9.286317"><ele>942</ele></trkpt><trkpt lat="62.815315" lon="9.285783"><ele>935</ele></trkpt><trkpt lat="62.815112" lon="9.285233"><ele>932</ele></trkpt><trkpt lat="62.814910" lon="9.284682"><ele>930</ele></trkpt><trkpt lat="62.814618" lon="9.284148"><ele>925</ele></trkpt><trkpt lat="62.814415" lon="9.283597"><ele>920</ele></trkpt><trkpt lat="62.814213" lon="9.283047"><ele>916</ele></trkpt><trkpt lat="62.814100" lon="9.282478"><ele>912</ele></trkpt><trkpt lat="62.813808" lon="9.281945"><ele>904</ele></trkpt><trkpt lat="62.813516" lon="9.281411"><ele>896</ele></trkpt><trkpt lat="62.813314" lon="9.280861"><ele>890</ele></trkpt><trkpt lat="62.813030" lon="9.280522"><ele>883</ele></trkpt><trkpt lat="62.812738" lon="9.279989"><ele>875</ele></trkpt><trkpt lat="62.812446" lon="9.279456"><ele>860</ele></trkpt><trkpt lat="62.812154" lon="9.278922"><ele>842</ele></trkpt><trkpt lat="62.811871" lon="9.278584"><ele>828</ele></trkpt><trkpt lat="62.811773" lon="9.278406"><ele>824</ele></trkpt></trkseg></trk></gpx>