<?xml version="1.0" encoding="UTF-8"?>
<gpx version="1.1" creator="Rando toppturs" xmlns="http://www.topografix.com/GPX/1/1"><metadata><name>026 Unnamed 1426 m</name><desc>Generated 2026-09-13 17:42 from Kartverket 10 m terrain. Ascent lines are least-cost terrain paths under 35°, not verified routes. Not a snow-stability assessment.</desc></metadata><wpt lat="62.737747" lon="9.488609"><ele>1000</ele><name>Car · Unnamed summit 1426 m</name></wpt><wpt lat="62.800613" lon="9.380870"><ele>1426</ele><name>Unnamed summit 1426 m</name></wpt><trk><name>Up · Unnamed summit 1426 m</name><desc>least-cost ascent: +864 m over 9662 m, max 31°, 0.3% on 30–35°, ≈4.57 h at 4 km/h + 400 m/h. Terrain possibility, not a checked route.</desc><trkseg><trkpt lat="62.737747" lon="9.488609"><ele>1000</ele></trkpt><trkpt lat="62.738171" lon="9.487941"><ele>989</ele></trkpt><trkpt lat="62.738579" lon="9.486884"><ele>982</ele></trkpt><trkpt lat="62.738988" lon="9.485826"><ele>976</ele></trkpt><trkpt lat="62.739396" lon="9.484769"><ele>969</ele></trkpt><trkpt lat="62.739805" lon="9.483711"><ele>960</ele></trkpt><trkpt lat="62.740213" lon="9.482654"><ele>949</ele></trkpt><trkpt lat="62.740621" lon="9.481596"><ele>941</ele></trkpt><trkpt lat="62.741030" lon="9.480539"><ele>947</ele></trkpt><trkpt lat="62.741438" lon="9.479481"><ele>941</ele></trkpt><trkpt lat="62.741846" lon="9.478423"><ele>937</ele></trkpt><trkpt lat="62.742255" lon="9.477366"><ele>936</ele></trkpt><trkpt lat="62.742663" lon="9.476308"><ele>935</ele></trkpt><trkpt lat="62.743071" lon="9.475250"><ele>935</ele></trkpt><trkpt lat="62.743479" lon="9.474193"><ele>935</ele></trkpt><trkpt lat="62.743888" lon="9.473135"><ele>937</ele></trkpt><trkpt lat="62.744296" lon="9.472077"><ele>938</ele></trkpt><trkpt lat="62.744704" lon="9.471019"><ele>943</ele></trkpt><trkpt lat="62.745112" lon="9.469961"><ele>950</ele></trkpt><trkpt lat="62.745521" lon="9.468903"><ele>959</ele></trkpt><trkpt lat="62.745929" lon="9.467846"><ele>966</ele></trkpt><trkpt lat="62.746337" lon="9.466788"><ele>970</ele></trkpt><trkpt lat="62.746745" lon="9.465730"><ele>978</ele></trkpt><trkpt lat="62.747154" lon="9.464672"><ele>988</ele></trkpt><trkpt lat="62.747562" lon="9.463614"><ele>997</ele></trkpt><trkpt lat="62.747970" lon="9.462556"><ele>1008</ele></trkpt><trkpt lat="62.748378" lon="9.461497"><ele>1017</ele></trkpt><trkpt lat="62.748786" lon="9.460439"><ele>1030</ele></trkpt><trkpt lat="62.749194" lon="9.459381"><ele>1041</ele></trkpt><trkpt lat="62.749603" lon="9.458323"><ele>1051</ele></trkpt><trkpt lat="62.750011" lon="9.457265"><ele>1057</ele></trkpt><trkpt lat="62.750419" lon="9.456207"><ele>1073</ele></trkpt><trkpt lat="62.750827" lon="9.455148"><ele>1074</ele></trkpt><trkpt lat="62.751235" lon="9.454090"><ele>1072</ele></trkpt><trkpt lat="62.751643" lon="9.453032"><ele>1053</ele></trkpt><trkpt lat="62.751962" lon="9.451990"><ele>1035</ele></trkpt><trkpt lat="62.752370" lon="9.450932"><ele>1033</ele></trkpt><trkpt lat="62.752786" lon="9.450068"><ele>1018</ele></trkpt><trkpt lat="62.753194" lon="9.449010"><ele>1010</ele></trkpt><trkpt lat="62.753602" lon="9.447951"><ele>997</ele></trkpt><trkpt lat="62.754010" lon="9.446893"><ele>977</ele></trkpt><trkpt lat="62.754434" lon="9.446224"><ele>958</ele></trkpt><trkpt lat="62.754880" lon="9.446140"><ele>952</ele></trkpt><trkpt lat="62.755327" lon="9.446056"><ele>948</ele></trkpt><trkpt lat="62.755774" lon="9.445971"><ele>949</ele></trkpt><trkpt lat="62.756220" lon="9.445887"><ele>951</ele></trkpt><trkpt lat="62.756667" lon="9.445803"><ele>957</ele></trkpt><trkpt lat="62.757114" lon="9.445719"><ele>956</ele></trkpt><trkpt lat="62.757560" lon="9.445634"><ele>958</ele></trkpt><trkpt lat="62.758007" lon="9.445550"><ele>959</ele></trkpt><trkpt lat="62.758454" lon="9.445466"><ele>957</ele></trkpt><trkpt lat="62.758900" lon="9.445382"><ele>957</ele></trkpt><trkpt lat="62.759347" lon="9.445297"><ele>963</ele></trkpt><trkpt lat="62.759794" lon="9.445213"><ele>968</ele></trkpt><trkpt lat="62.760240" lon="9.445129"><ele>982</ele></trkpt><trkpt lat="62.760687" lon="9.445045"><ele>991</ele></trkpt><trkpt lat="62.761134" lon="9.444960"><ele>999</ele></trkpt><trkpt lat="62.761580" lon="9.444876"><ele>1009</ele></trkpt><trkpt lat="62.762027" lon="9.444792"><ele>1020</ele></trkpt><trkpt lat="62.762474" lon="9.444707"><ele>1029</ele></trkpt><trkpt lat="62.762920" lon="9.444623"><ele>1036</ele></trkpt><trkpt lat="62.763367" lon="9.444539"><ele>1037</ele></trkpt><trkpt lat="62.763814" lon="9.444455"><ele>1043</ele></trkpt><trkpt lat="62.764261" lon="9.444370"><ele>1049</ele></trkpt><trkpt lat="62.764707" lon="9.444286"><ele>1052</ele></trkpt><trkpt lat="62.765154" lon="9.444202"><ele>1057</ele></trkpt><trkpt lat="62.765601" lon="9.444117"><ele>1060</ele></trkpt><trkpt lat="62.766047" lon="9.444033"><ele>1061</ele></trkpt><trkpt lat="62.766494" lon="9.443949"><ele>1061</ele></trkpt><trkpt lat="62.766941" lon="9.443865"><ele>1062</ele></trkpt><trkpt lat="62.767387" lon="9.443780"><ele>1061</ele></trkpt><trkpt lat="62.767834" lon="9.443696"><ele>1064</ele></trkpt><trkpt lat="62.768281" lon="9.443612"><ele>1066</ele></trkpt><trkpt lat="62.768727" lon="9.443527"><ele>1072</ele></trkpt><trkpt lat="62.769174" lon="9.443443"><ele>1075</ele></trkpt><trkpt lat="62.769621" lon="9.443359"><ele>1080</ele></trkpt><trkpt lat="62.770067" lon="9.443274"><ele>1087</ele></trkpt><trkpt lat="62.770514" lon="9.443190"><ele>1094</ele></trkpt><trkpt lat="62.770961" lon="9.443106"><ele>1098</ele></trkpt><trkpt lat="62.771407" lon="9.443021"><ele>1106</ele></trkpt><trkpt lat="62.771854" lon="9.442937"><ele>1111</ele></trkpt><trkpt lat="62.772301" lon="9.442853"><ele>1113</ele></trkpt><trkpt lat="62.772747" lon="9.442768"><ele>1114</ele></trkpt><trkpt lat="62.773194" lon="9.442684"><ele>1117</ele></trkpt><trkpt lat="62.773641" lon="9.442600"><ele>1118</ele></trkpt><trkpt lat="62.774087" lon="9.442515"><ele>1122</ele></trkpt><trkpt lat="62.774526" lon="9.442236"><ele>1124</ele></trkpt><trkpt lat="62.774957" lon="9.441761"><ele>1131</ele></trkpt><trkpt lat="62.775365" lon="9.440702"><ele>1139</ele></trkpt><trkpt lat="62.775773" lon="9.439643"><ele>1141</ele></trkpt><trkpt lat="62.776181" lon="9.438583"><ele>1133</ele></trkpt><trkpt lat="62.776589" lon="9.437524"><ele>1122</ele></trkpt><trkpt lat="62.776997" lon="9.436464"><ele>1104</ele></trkpt><trkpt lat="62.777405" lon="9.435405"><ele>1087</ele></trkpt><trkpt lat="62.777813" lon="9.434345"><ele>1075</ele></trkpt><trkpt lat="62.778221" lon="9.433286"><ele>1063</ele></trkpt><trkpt lat="62.778629" lon="9.432226"><ele>1052</ele></trkpt><trkpt lat="62.779037" lon="9.431167"><ele>1041</ele></trkpt><trkpt lat="62.779445" lon="9.430107"><ele>1029</ele></trkpt><trkpt lat="62.779861" lon="9.429242"><ele>1015</ele></trkpt><trkpt lat="62.780269" lon="9.428183"><ele>1003</ele></trkpt><trkpt lat="62.780677" lon="9.427123"><ele>992</ele></trkpt><trkpt lat="62.781084" lon="9.426063"><ele>983</ele></trkpt><trkpt lat="62.781492" lon="9.425003"><ele>978</ele></trkpt><trkpt lat="62.781900" lon="9.423943"><ele>969</ele></trkpt><trkpt lat="62.782308" lon="9.422884"><ele>961</ele></trkpt><trkpt lat="62.782716" lon="9.421824"><ele>952</ele></trkpt><trkpt lat="62.783124" lon="9.420764"><ele>947</ele></trkpt><trkpt lat="62.783532" lon="9.419704"><ele>946</ele></trkpt><trkpt lat="62.783939" lon="9.418644"><ele>940</ele></trkpt><trkpt lat="62.784347" lon="9.417584"><ele>935</ele></trkpt><trkpt lat="62.784755" lon="9.416524"><ele>936</ele></trkpt><trkpt lat="62.785163" lon="9.415464"><ele>934</ele></trkpt><trkpt lat="62.785571" lon="9.414404"><ele>939</ele></trkpt><trkpt lat="62.785979" lon="9.413344"><ele>940</ele></trkpt><trkpt lat="62.786386" lon="9.412283"><ele>947</ele></trkpt><trkpt lat="62.786794" lon="9.411223"><ele>953</ele></trkpt><trkpt lat="62.787202" lon="9.410163"><ele>961</ele></trkpt><trkpt lat="62.787610" lon="9.409103"><ele>976</ele></trkpt><trkpt lat="62.788017" lon="9.408043"><ele>987</ele></trkpt><trkpt lat="62.788425" lon="9.406982"><ele>996</ele></trkpt><trkpt lat="62.788833" lon="9.405922"><ele>1008</ele></trkpt><trkpt lat="62.789248" lon="9.405057"><ele>1023</ele></trkpt><trkpt lat="62.789656" lon="9.403996"><ele>1037</ele></trkpt><trkpt lat="62.790064" lon="9.402936"><ele>1043</ele></trkpt><trkpt lat="62.790472" lon="9.401875"><ele>1044</ele></trkpt><trkpt lat="62.790879" lon="9.400815"><ele>1040</ele></trkpt><trkpt lat="62.791287" lon="9.399754"><ele>1049</ele></trkpt><trkpt lat="62.791695" lon="9.398694"><ele>1061</ele></trkpt><trkpt lat="62.792102" lon="9.397633"><ele>1079</ele></trkpt><trkpt lat="62.792518" lon="9.396768"><ele>1108</ele></trkpt><trkpt lat="62.792657" lon="9.395758"><ele>1125</ele></trkpt><trkpt lat="62.792797" lon="9.394749"><ele>1141</ele></trkpt><trkpt lat="62.793213" lon="9.393883"><ele>1165</ele></trkpt><trkpt lat="62.793659" lon="9.393798"><ele>1192</ele></trkpt><trkpt lat="62.794082" lon="9.393128"><ele>1220</ele></trkpt><trkpt lat="62.794506" lon="9.392457"><ele>1251</ele></trkpt><trkpt lat="62.794921" lon="9.391591"><ele>1275</ele></trkpt><trkpt lat="62.795329" lon="9.390531"><ele>1291</ele></trkpt><trkpt lat="62.795744" lon="9.389665"><ele>1310</ele></trkpt><trkpt lat="62.796152" lon="9.388604"><ele>1329</ele></trkpt><trkpt lat="62.796598" lon="9.388519"><ele>1344</ele></trkpt><trkpt lat="62.797045" lon="9.388434"><ele>1355</ele></trkpt><trkpt lat="62.797492" lon="9.388348"><ele>1367</ele></trkpt><trkpt lat="62.797923" lon="9.387873"><ele>1381</ele></trkpt><trkpt lat="62.798330" lon="9.386812"><ele>1398</ele></trkpt><trkpt lat="62.798738" lon="9.385751"><ele>1404</ele></trkpt><trkpt lat="62.799145" lon="9.384690"><ele>1409</ele></trkpt><trkpt lat="62.799553" lon="9.383629"><ele>1409</ele></trkpt><trkpt lat="62.799960" lon="9.382568"><ele>1414</ele></trkpt><trkpt lat="62.800368" lon="9.381507"><ele>1421</ele></trkpt><trkpt lat="62.800613" lon="9.380870"><ele>1426</ele></trkpt></trkseg></trk><wpt lat="62.813192" lon="9.378071"><ele>951</ele><name>Run end · Unnamed summit 1426 m</name></wpt><trk><name>Down · Unnamed summit 1426 m</name><desc>fall-line run: 760 m of 20–30°, 345 m drop, aspect 342°, max 30°, 1.2% ≥30°; ends 10.13 km from the car.</desc><trkseg><trkpt lat="62.800613" lon="9.380870"><ele>1426</ele></trkpt><trkpt lat="62.806277" lon="9.387458"><ele>1297</ele></trkpt><trkpt lat="62.806568" lon="9.387992"><ele>1278</ele></trkpt><trkpt lat="62.806844" lon="9.388136"><ele>1260</ele></trkpt><trkpt lat="62.807112" lon="9.388085"><ele>1244</ele></trkpt><trkpt lat="62.807380" lon="9.388034"><ele>1230</ele></trkpt><trkpt lat="62.807640" lon="9.387787"><ele>1218</ele></trkpt><trkpt lat="62.807892" lon="9.387346"><ele>1204</ele></trkpt><trkpt lat="62.808152" lon="9.387099"><ele>1192</ele></trkpt><trkpt lat="62.808413" lon="9.386853"><ele>1180</ele></trkpt><trkpt lat="62.808665" lon="9.386411"><ele>1167</ele></trkpt><trkpt lat="62.808910" lon="9.385774"><ele>1153</ele></trkpt><trkpt lat="62.809178" lon="9.385723"><ele>1144</ele></trkpt><trkpt lat="62.809430" lon="9.385282"><ele>1131</ele></trkpt><trkpt lat="62.809682" lon="9.384840"><ele>1119</ele></trkpt><trkpt lat="62.809927" lon="9.384203"><ele>1106</ele></trkpt><trkpt lat="62.810179" lon="9.383762"><ele>1095</ele></trkpt><trkpt lat="62.810424" lon="9.383125"><ele>1082</ele></trkpt><trkpt lat="62.810684" lon="9.382878"><ele>1073</ele></trkpt><trkpt lat="62.810936" lon="9.382437"><ele>1064</ele></trkpt><trkpt lat="62.811181" lon="9.381800"><ele>1052</ele></trkpt><trkpt lat="62.811433" lon="9.381358"><ele>1040</ele></trkpt><trkpt lat="62.811678" lon="9.380721"><ele>1029</ele></trkpt><trkpt lat="62.811930" lon="9.380279"><ele>1019</ele></trkpt><trkpt lat="62.812182" lon="9.379838"><ele>1006</ele></trkpt><trkpt lat="62.812435" lon="9.379396"><ele>994</ele></trkpt><trkpt lat="62.812687" lon="9.378954"><ele>981</ele></trkpt><trkpt lat="62.812939" lon="9.378513"><ele>968</ele></trkpt><trkpt lat="62.813192" lon="9.378071"><ele>951</ele></trkpt><trkpt lat="62.813192" lon="9.378071"><ele>951</ele></trkpt></trkseg></trk></gpx>