<?xml version="1.0" encoding="UTF-8"?>
<gpx version="1.1" creator="Rando toppturs" xmlns="http://www.topografix.com/GPX/1/1"><metadata><name>028 Klingfjellet 1545 m</name><desc>Generated 2026-09-13 17:42 from Kartverket 10 m terrain. Ascent lines are least-cost terrain paths under 35°, not verified routes. Not a snow-stability assessment.</desc></metadata><wpt lat="62.693589" lon="9.005601"><ele>763</ele><name>Car · Klingfjellet 1545 m</name></wpt><wpt lat="62.614949" lon="8.963076"><ele>1545</ele><name>Klingfjellet 1545 m</name></wpt><trk><name>Up · Klingfjellet 1545 m</name><desc>least-cost ascent: +1183 m over 11236 m, max 35°, 0.6% on 30–35°, ≈5.77 h at 4 km/h + 400 m/h. Terrain possibility, not a checked route.</desc><trkseg><trkpt lat="62.693589" lon="9.005601"><ele>763</ele></trkpt><trkpt lat="62.693142" lon="9.005692"><ele>764</ele></trkpt><trkpt lat="62.692696" lon="9.005783"><ele>764</ele></trkpt><trkpt lat="62.692250" lon="9.005873"><ele>758</ele></trkpt><trkpt lat="62.691803" lon="9.005964"><ele>756</ele></trkpt><trkpt lat="62.691357" lon="9.006055"><ele>756</ele></trkpt><trkpt lat="62.690911" lon="9.006145"><ele>756</ele></trkpt><trkpt lat="62.690465" lon="9.006236"><ele>756</ele></trkpt><trkpt lat="62.689985" lon="9.005549"><ele>756</ele></trkpt><trkpt lat="62.689497" lon="9.004669"><ele>756</ele></trkpt><trkpt lat="62.689009" lon="9.003788"><ele>756</ele></trkpt><trkpt lat="62.688521" lon="9.002907"><ele>763</ele></trkpt><trkpt lat="62.688033" lon="9.002026"><ele>765</ele></trkpt><trkpt lat="62.687545" lon="9.001146"><ele>768</ele></trkpt><trkpt lat="62.687057" lon="9.000265"><ele>778</ele></trkpt><trkpt lat="62.686569" lon="8.999385"><ele>784</ele></trkpt><trkpt lat="62.686081" lon="8.998504"><ele>789</ele></trkpt><trkpt lat="62.685593" lon="8.997623"><ele>792</ele></trkpt><trkpt lat="62.685105" lon="8.996743"><ele>800</ele></trkpt><trkpt lat="62.684617" lon="8.995862"><ele>806</ele></trkpt><trkpt lat="62.684129" lon="8.994982"><ele>807</ele></trkpt><trkpt lat="62.683666" lon="8.994684"><ele>808</ele></trkpt><trkpt lat="62.683219" lon="8.994775"><ele>813</ele></trkpt><trkpt lat="62.682773" lon="8.994866"><ele>821</ele></trkpt><trkpt lat="62.682327" lon="8.994957"><ele>822</ele></trkpt><trkpt lat="62.681881" lon="8.995047"><ele>820</ele></trkpt><trkpt lat="62.681434" lon="8.995138"><ele>825</ele></trkpt><trkpt lat="62.680988" lon="8.995229"><ele>832</ele></trkpt><trkpt lat="62.680542" lon="8.995320"><ele>840</ele></trkpt><trkpt lat="62.680095" lon="8.995410"><ele>848</ele></trkpt><trkpt lat="62.679649" lon="8.995501"><ele>849</ele></trkpt><trkpt lat="62.679203" lon="8.995592"><ele>853</ele></trkpt><trkpt lat="62.678756" lon="8.995683"><ele>856</ele></trkpt><trkpt lat="62.678310" lon="8.995773"><ele>860</ele></trkpt><trkpt lat="62.677864" lon="8.995864"><ele>864</ele></trkpt><trkpt lat="62.677417" lon="8.995955"><ele>872</ele></trkpt><trkpt lat="62.676971" lon="8.996046"><ele>880</ele></trkpt><trkpt lat="62.676525" lon="8.996136"><ele>888</ele></trkpt><trkpt lat="62.676078" lon="8.996227"><ele>900</ele></trkpt><trkpt lat="62.675632" lon="8.996318"><ele>904</ele></trkpt><trkpt lat="62.675186" lon="8.996408"><ele>914</ele></trkpt><trkpt lat="62.674739" lon="8.996499"><ele>924</ele></trkpt><trkpt lat="62.674293" lon="8.996590"><ele>936</ele></trkpt><trkpt lat="62.673847" lon="8.996681"><ele>947</ele></trkpt><trkpt lat="62.673400" lon="8.996771"><ele>958</ele></trkpt><trkpt lat="62.672954" lon="8.996862"><ele>969</ele></trkpt><trkpt lat="62.672499" lon="8.996759"><ele>977</ele></trkpt><trkpt lat="62.672053" lon="8.996849"><ele>984</ele></trkpt><trkpt lat="62.671598" lon="8.996746"><ele>994</ele></trkpt><trkpt lat="62.671152" lon="8.996836"><ele>999</ele></trkpt><trkpt lat="62.670706" lon="8.996927"><ele>1008</ele></trkpt><trkpt lat="62.670259" lon="8.997018"><ele>1015</ele></trkpt><trkpt lat="62.669813" lon="8.997109"><ele>1016</ele></trkpt><trkpt lat="62.669367" lon="8.997199"><ele>1019</ele></trkpt><trkpt lat="62.668920" lon="8.997290"><ele>1024</ele></trkpt><trkpt lat="62.668474" lon="8.997381"><ele>1025</ele></trkpt><trkpt lat="62.668028" lon="8.997471"><ele>1029</ele></trkpt><trkpt lat="62.667582" lon="8.997562"><ele>1035</ele></trkpt><trkpt lat="62.667135" lon="8.997653"><ele>1036</ele></trkpt><trkpt lat="62.666689" lon="8.997743"><ele>1036</ele></trkpt><trkpt lat="62.666243" lon="8.997834"><ele>1042</ele></trkpt><trkpt lat="62.665796" lon="8.997925"><ele>1047</ele></trkpt><trkpt lat="62.665350" lon="8.998015"><ele>1048</ele></trkpt><trkpt lat="62.664904" lon="8.998106"><ele>1049</ele></trkpt><trkpt lat="62.664457" lon="8.998197"><ele>1052</ele></trkpt><trkpt lat="62.664011" lon="8.998287"><ele>1050</ele></trkpt><trkpt lat="62.663565" lon="8.998378"><ele>1053</ele></trkpt><trkpt lat="62.663118" lon="8.998468"><ele>1055</ele></trkpt><trkpt lat="62.662672" lon="8.998559"><ele>1063</ele></trkpt><trkpt lat="62.662226" lon="8.998650"><ele>1067</ele></trkpt><trkpt lat="62.661779" lon="8.998740"><ele>1067</ele></trkpt><trkpt lat="62.661333" lon="8.998831"><ele>1068</ele></trkpt><trkpt lat="62.660887" lon="8.998922"><ele>1070</ele></trkpt><trkpt lat="62.660440" lon="8.999012"><ele>1070</ele></trkpt><trkpt lat="62.659994" lon="8.999103"><ele>1070</ele></trkpt><trkpt lat="62.659548" lon="8.999193"><ele>1070</ele></trkpt><trkpt lat="62.659101" lon="8.999284"><ele>1067</ele></trkpt><trkpt lat="62.658655" lon="8.999375"><ele>1066</ele></trkpt><trkpt lat="62.658209" lon="8.999465"><ele>1065</ele></trkpt><trkpt lat="62.657762" lon="8.999556"><ele>1065</ele></trkpt><trkpt lat="62.657316" lon="8.999646"><ele>1063</ele></trkpt><trkpt lat="62.656870" lon="8.999737"><ele>1060</ele></trkpt><trkpt lat="62.656423" lon="8.999828"><ele>1057</ele></trkpt><trkpt lat="62.655977" lon="8.999918"><ele>1051</ele></trkpt><trkpt lat="62.655531" lon="9.000009"><ele>1050</ele></trkpt><trkpt lat="62.655084" lon="9.000099"><ele>1047</ele></trkpt><trkpt lat="62.654638" lon="9.000190"><ele>1044</ele></trkpt><trkpt lat="62.654192" lon="9.000281"><ele>1043</ele></trkpt><trkpt lat="62.653745" lon="9.000371"><ele>1043</ele></trkpt><trkpt lat="62.653299" lon="9.000462"><ele>1045</ele></trkpt><trkpt lat="62.652853" lon="9.000552"><ele>1049</ele></trkpt><trkpt lat="62.652448" lon="9.001613"><ele>1041</ele></trkpt><trkpt lat="62.652043" lon="9.002674"><ele>1034</ele></trkpt><trkpt lat="62.651630" lon="9.003540"><ele>1032</ele></trkpt><trkpt lat="62.651226" lon="9.004601"><ele>1029</ele></trkpt><trkpt lat="62.650821" lon="9.005662"><ele>1029</ele></trkpt><trkpt lat="62.650400" lon="9.006334"><ele>1030</ele></trkpt><trkpt lat="62.649987" lon="9.007201"><ele>1027</ele></trkpt><trkpt lat="62.649557" lon="9.007679"><ele>1029</ele></trkpt><trkpt lat="62.649136" lon="9.008352"><ele>1024</ele></trkpt><trkpt lat="62.648731" lon="9.009412"><ele>1011</ele></trkpt><trkpt lat="62.648318" lon="9.010279"><ele>998</ele></trkpt><trkpt lat="62.647888" lon="9.010757"><ele>991</ele></trkpt><trkpt lat="62.647450" lon="9.011042"><ele>983</ele></trkpt><trkpt lat="62.647004" lon="9.011132"><ele>978</ele></trkpt><trkpt lat="62.646557" lon="9.011223"><ele>973</ele></trkpt><trkpt lat="62.646111" lon="9.011313"><ele>969</ele></trkpt><trkpt lat="62.645665" lon="9.011403"><ele>961</ele></trkpt><trkpt lat="62.645218" lon="9.011494"><ele>953</ele></trkpt><trkpt lat="62.644764" lon="9.011390"><ele>948</ele></trkpt><trkpt lat="62.644317" lon="9.011480"><ele>939</ele></trkpt><trkpt lat="62.643854" lon="9.011183"><ele>932</ele></trkpt><trkpt lat="62.643400" lon="9.011079"><ele>921</ele></trkpt><trkpt lat="62.642928" lon="9.010588"><ele>915</ele></trkpt><trkpt lat="62.642482" lon="9.010678"><ele>897</ele></trkpt><trkpt lat="62.642027" lon="9.010574"><ele>877</ele></trkpt><trkpt lat="62.641581" lon="9.010665"><ele>873</ele></trkpt><trkpt lat="62.641135" lon="9.010755"><ele>866</ele></trkpt><trkpt lat="62.640688" lon="9.010846"><ele>863</ele></trkpt><trkpt lat="62.640242" lon="9.010936"><ele>861</ele></trkpt><trkpt lat="62.639796" lon="9.011026"><ele>858</ele></trkpt><trkpt lat="62.639349" lon="9.011117"><ele>854</ele></trkpt><trkpt lat="62.638903" lon="9.011207"><ele>853</ele></trkpt><trkpt lat="62.638457" lon="9.011297"><ele>853</ele></trkpt><trkpt lat="62.638010" lon="9.011388"><ele>852</ele></trkpt><trkpt lat="62.637564" lon="9.011478"><ele>852</ele></trkpt><trkpt lat="62.637118" lon="9.011568"><ele>850</ele></trkpt><trkpt lat="62.636671" lon="9.011659"><ele>854</ele></trkpt><trkpt lat="62.636225" lon="9.011749"><ele>854</ele></trkpt><trkpt lat="62.635779" lon="9.011839"><ele>855</ele></trkpt><trkpt lat="62.635299" lon="9.011154"><ele>847</ele></trkpt><trkpt lat="62.634811" lon="9.010275"><ele>837</ele></trkpt><trkpt lat="62.634340" lon="9.009783"><ele>830</ele></trkpt><trkpt lat="62.633894" lon="9.009874"><ele>832</ele></trkpt><trkpt lat="62.633447" lon="9.009964"><ele>834</ele></trkpt><trkpt lat="62.632993" lon="9.009860"><ele>830</ele></trkpt><trkpt lat="62.632546" lon="9.009951"><ele>835</ele></trkpt><trkpt lat="62.632075" lon="9.009459"><ele>825</ele></trkpt><trkpt lat="62.631595" lon="9.008774"><ele>817</ele></trkpt><trkpt lat="62.631141" lon="9.008671"><ele>817</ele></trkpt><trkpt lat="62.630694" lon="9.008761"><ele>820</ele></trkpt><trkpt lat="62.630231" lon="9.008464"><ele>819</ele></trkpt><trkpt lat="62.629785" lon="9.008554"><ele>827</ele></trkpt><trkpt lat="62.629314" lon="9.008063"><ele>824</ele></trkpt><trkpt lat="62.628859" lon="9.007959"><ele>822</ele></trkpt><trkpt lat="62.628379" lon="9.007274"><ele>815</ele></trkpt><trkpt lat="62.627908" lon="9.006783"><ele>815</ele></trkpt><trkpt lat="62.627420" lon="9.005904"><ele>808</ele></trkpt><trkpt lat="62.626932" lon="9.005025"><ele>806</ele></trkpt><trkpt lat="62.626444" lon="9.004146"><ele>802</ele></trkpt><trkpt lat="62.625956" lon="9.003267"><ele>798</ele></trkpt><trkpt lat="62.625468" lon="9.002388"><ele>803</ele></trkpt><trkpt lat="62.624989" lon="9.001703"><ele>804</ele></trkpt><trkpt lat="62.624501" lon="9.000824"><ele>810</ele></trkpt><trkpt lat="62.624013" lon="8.999945"><ele>814</ele></trkpt><trkpt lat="62.623525" lon="8.999066"><ele>819</ele></trkpt><trkpt lat="62.623215" lon="8.998151"><ele>828</ele></trkpt><trkpt lat="62.623084" lon="8.997200"><ele>841</ele></trkpt><trkpt lat="62.622864" lon="8.996267"><ele>856</ele></trkpt><trkpt lat="62.622733" lon="8.995316"><ele>872</ele></trkpt><trkpt lat="62.622513" lon="8.994383"><ele>886</ele></trkpt><trkpt lat="62.622471" lon="8.993414"><ele>904</ele></trkpt><trkpt lat="62.622519" lon="8.992427"><ele>924</ele></trkpt><trkpt lat="62.622566" lon="8.991439"><ele>947</ele></trkpt><trkpt lat="62.622614" lon="8.990452"><ele>974</ele></trkpt><trkpt lat="62.622840" lon="8.989428"><ele>998</ele></trkpt><trkpt lat="62.622977" lon="8.988423"><ele>1021</ele></trkpt><trkpt lat="62.623203" lon="8.987399"><ele>1053</ele></trkpt><trkpt lat="62.623250" lon="8.986412"><ele>1081</ele></trkpt><trkpt lat="62.623209" lon="8.985443"><ele>1093</ele></trkpt><trkpt lat="62.623167" lon="8.984474"><ele>1097</ele></trkpt><trkpt lat="62.622679" lon="8.983595"><ele>1112</ele></trkpt><trkpt lat="62.622191" lon="8.982717"><ele>1105</ele></trkpt><trkpt lat="62.621703" lon="8.981838"><ele>1109</ele></trkpt><trkpt lat="62.621214" lon="8.980960"><ele>1114</ele></trkpt><trkpt lat="62.620726" lon="8.980081"><ele>1118</ele></trkpt><trkpt lat="62.620238" lon="8.979203"><ele>1136</ele></trkpt><trkpt lat="62.619759" lon="8.978519"><ele>1155</ele></trkpt><trkpt lat="62.619312" lon="8.978609"><ele>1181</ele></trkpt><trkpt lat="62.618832" lon="8.977925"><ele>1202</ele></trkpt><trkpt lat="62.618434" lon="8.977028"><ele>1225</ele></trkpt><trkpt lat="62.618035" lon="8.976132"><ele>1250</ele></trkpt><trkpt lat="62.617725" lon="8.975217"><ele>1272</ele></trkpt><trkpt lat="62.617683" lon="8.974248"><ele>1277</ele></trkpt><trkpt lat="62.617641" lon="8.973279"><ele>1290</ele></trkpt><trkpt lat="62.617421" lon="8.972347"><ele>1310</ele></trkpt><trkpt lat="62.617290" lon="8.971396"><ele>1320</ele></trkpt><trkpt lat="62.617070" lon="8.970463"><ele>1344</ele></trkpt><trkpt lat="62.617028" lon="8.969494"><ele>1355</ele></trkpt><trkpt lat="62.616897" lon="8.968544"><ele>1373</ele></trkpt><trkpt lat="62.616855" lon="8.967575"><ele>1387</ele></trkpt><trkpt lat="62.616813" lon="8.966606"><ele>1404</ele></trkpt><trkpt lat="62.616771" lon="8.965637"><ele>1418</ele></trkpt><trkpt lat="62.616551" lon="8.964704"><ele>1436</ele></trkpt><trkpt lat="62.616071" lon="8.964020"><ele>1466</ele></trkpt><trkpt lat="62.615591" lon="8.963336"><ele>1499</ele></trkpt><trkpt lat="62.615119" lon="8.962845"><ele>1540</ele></trkpt><trkpt lat="62.614949" lon="8.963076"><ele>1545</ele></trkpt></trkseg></trk><wpt lat="62.622916" lon="8.966144"><ele>1168</ele><name>Run end · Klingfjellet 1545 m</name></wpt><trk><name>Down · Klingfjellet 1545 m</name><desc>fall-line run: 737 m of 20–30°, 304 m drop, aspect 39°, max 29°, 0.0% ≥30°; ends 8.14 km from the car.</desc><trkseg><trkpt lat="62.614949" lon="8.963076"><ele>1545</ele></trkpt><trkpt lat="62.617668" lon="8.957242"><ele>1472</ele></trkpt><trkpt lat="62.617961" lon="8.957769"><ele>1454</ele></trkpt><trkpt lat="62.618254" lon="8.958296"><ele>1436</ele></trkpt><trkpt lat="62.618547" lon="8.958823"><ele>1419</ele></trkpt><trkpt lat="62.618840" lon="8.959349"><ele>1401</ele></trkpt><trkpt lat="62.619133" lon="8.959876"><ele>1387</ele></trkpt><trkpt lat="62.619426" lon="8.960403"><ele>1371</ele></trkpt><trkpt lat="62.619719" lon="8.960930"><ele>1355</ele></trkpt><trkpt lat="62.620012" lon="8.961457"><ele>1338</ele></trkpt><trkpt lat="62.620305" lon="8.961983"><ele>1323</ele></trkpt><trkpt lat="62.620598" lon="8.962510"><ele>1308</ele></trkpt><trkpt lat="62.620882" lon="8.962843"><ele>1294</ele></trkpt><trkpt lat="62.621159" lon="8.962983"><ele>1279</ele></trkpt><trkpt lat="62.621451" lon="8.963509"><ele>1263</ele></trkpt><trkpt lat="62.621744" lon="8.964036"><ele>1245</ele></trkpt><trkpt lat="62.622037" lon="8.964563"><ele>1229</ele></trkpt><trkpt lat="62.622330" lon="8.965090"><ele>1209</ele></trkpt><trkpt lat="62.622623" lon="8.965617"><ele>1188</ele></trkpt><trkpt lat="62.622916" lon="8.966144"><ele>1168</ele></trkpt><trkpt lat="62.622916" lon="8.966144"><ele>1168</ele></trkpt></trkseg></trk></gpx>