<?xml version="1.0" encoding="UTF-8"?>
<gpx version="1.1" creator="Rando toppturs" xmlns="http://www.topografix.com/GPX/1/1"><metadata><name>036 Storlifjellet 1487 m</name><desc>Generated 2026-09-13 17:42 from Kartverket 10 m terrain. Ascent lines are least-cost terrain paths under 35°, not verified routes. Not a snow-stability assessment.</desc></metadata><wpt lat="62.693514" lon="9.101260"><ele>651</ele><name>Car · Storlifjellet 1487 m</name></wpt><wpt lat="62.779624" lon="9.188362"><ele>1487</ele><name>Storlifjellet 1487 m</name></wpt><trk><name>Up · Storlifjellet 1487 m</name><desc>least-cost ascent: +1226 m over 11534 m, max 29°, 0.0% on 30–35°, ≈5.95 h at 4 km/h + 400 m/h. Terrain possibility, not a checked route.</desc><trkseg><trkpt lat="62.693514" lon="9.101260"><ele>651</ele></trkpt><trkpt lat="62.693961" lon="9.101171"><ele>648</ele></trkpt><trkpt lat="62.694407" lon="9.101082"><ele>657</ele></trkpt><trkpt lat="62.694854" lon="9.100993"><ele>666</ele></trkpt><trkpt lat="62.695300" lon="9.100903"><ele>691</ele></trkpt><trkpt lat="62.695746" lon="9.100814"><ele>706</ele></trkpt><trkpt lat="62.696193" lon="9.100725"><ele>718</ele></trkpt><trkpt lat="62.696672" lon="9.101413"><ele>734</ele></trkpt><trkpt lat="62.697135" lon="9.101713"><ele>752</ele></trkpt><trkpt lat="62.697614" lon="9.102401"><ele>771</ele></trkpt><trkpt lat="62.698085" lon="9.102895"><ele>783</ele></trkpt><trkpt lat="62.698572" lon="9.103777"><ele>805</ele></trkpt><trkpt lat="62.699027" lon="9.103883"><ele>828</ele></trkpt><trkpt lat="62.699473" lon="9.103793"><ele>843</ele></trkpt><trkpt lat="62.699920" lon="9.103704"><ele>857</ele></trkpt><trkpt lat="62.700391" lon="9.104198"><ele>874</ele></trkpt><trkpt lat="62.700845" lon="9.104303"><ele>892</ele></trkpt><trkpt lat="62.701300" lon="9.104409"><ele>903</ele></trkpt><trkpt lat="62.701763" lon="9.104708"><ele>918</ele></trkpt><trkpt lat="62.702242" lon="9.105397"><ele>937</ele></trkpt><trkpt lat="62.702721" lon="9.106085"><ele>956</ele></trkpt><trkpt lat="62.703192" lon="9.106579"><ele>970</ele></trkpt><trkpt lat="62.703647" lon="9.106684"><ele>981</ele></trkpt><trkpt lat="62.704110" lon="9.106984"><ele>993</ele></trkpt><trkpt lat="62.704597" lon="9.107867"><ele>1015</ele></trkpt><trkpt lat="62.705084" lon="9.108750"><ele>1024</ele></trkpt><trkpt lat="62.705555" lon="9.109244"><ele>1039</ele></trkpt><trkpt lat="62.706002" lon="9.109155"><ele>1052</ele></trkpt><trkpt lat="62.706448" lon="9.109066"><ele>1059</ele></trkpt><trkpt lat="62.706894" lon="9.108977"><ele>1065</ele></trkpt><trkpt lat="62.707341" lon="9.108887"><ele>1068</ele></trkpt><trkpt lat="62.707787" lon="9.108798"><ele>1073</ele></trkpt><trkpt lat="62.708234" lon="9.108709"><ele>1073</ele></trkpt><trkpt lat="62.708680" lon="9.108620"><ele>1074</ele></trkpt><trkpt lat="62.709127" lon="9.108531"><ele>1083</ele></trkpt><trkpt lat="62.709573" lon="9.108442"><ele>1087</ele></trkpt><trkpt lat="62.710019" lon="9.108353"><ele>1094</ele></trkpt><trkpt lat="62.710466" lon="9.108263"><ele>1101</ele></trkpt><trkpt lat="62.710912" lon="9.108174"><ele>1106</ele></trkpt><trkpt lat="62.711359" lon="9.108085"><ele>1107</ele></trkpt><trkpt lat="62.711805" lon="9.107996"><ele>1106</ele></trkpt><trkpt lat="62.712268" lon="9.108296"><ele>1103</ele></trkpt><trkpt lat="62.712755" lon="9.109179"><ele>1106</ele></trkpt><trkpt lat="62.713242" lon="9.110062"><ele>1119</ele></trkpt><trkpt lat="62.713705" lon="9.110362"><ele>1124</ele></trkpt><trkpt lat="62.714152" lon="9.110273"><ele>1123</ele></trkpt><trkpt lat="62.714606" lon="9.110378"><ele>1135</ele></trkpt><trkpt lat="62.715053" lon="9.110289"><ele>1135</ele></trkpt><trkpt lat="62.715540" lon="9.111172"><ele>1131</ele></trkpt><trkpt lat="62.716027" lon="9.112056"><ele>1123</ele></trkpt><trkpt lat="62.716515" lon="9.112939"><ele>1116</ele></trkpt><trkpt lat="62.717002" lon="9.113822"><ele>1107</ele></trkpt><trkpt lat="62.717489" lon="9.114706"><ele>1104</ele></trkpt><trkpt lat="62.717977" lon="9.115589"><ele>1100</ele></trkpt><trkpt lat="62.718464" lon="9.116473"><ele>1093</ele></trkpt><trkpt lat="62.718951" lon="9.117356"><ele>1092</ele></trkpt><trkpt lat="62.719439" lon="9.118240"><ele>1089</ele></trkpt><trkpt lat="62.719926" lon="9.119123"><ele>1090</ele></trkpt><trkpt lat="62.720413" lon="9.120007"><ele>1090</ele></trkpt><trkpt lat="62.720900" lon="9.120890"><ele>1090</ele></trkpt><trkpt lat="62.721388" lon="9.121774"><ele>1095</ele></trkpt><trkpt lat="62.721875" lon="9.122658"><ele>1109</ele></trkpt><trkpt lat="62.722346" lon="9.123152"><ele>1126</ele></trkpt><trkpt lat="62.722792" lon="9.123063"><ele>1138</ele></trkpt><trkpt lat="62.723239" lon="9.122974"><ele>1141</ele></trkpt><trkpt lat="62.723685" lon="9.122885"><ele>1142</ele></trkpt><trkpt lat="62.724132" lon="9.122796"><ele>1144</ele></trkpt><trkpt lat="62.724578" lon="9.122707"><ele>1147</ele></trkpt><trkpt lat="62.725024" lon="9.122618"><ele>1149</ele></trkpt><trkpt lat="62.725471" lon="9.122529"><ele>1150</ele></trkpt><trkpt lat="62.725917" lon="9.122440"><ele>1149</ele></trkpt><trkpt lat="62.726364" lon="9.122351"><ele>1148</ele></trkpt><trkpt lat="62.726810" lon="9.122262"><ele>1147</ele></trkpt><trkpt lat="62.727256" lon="9.122173"><ele>1149</ele></trkpt><trkpt lat="62.727703" lon="9.122084"><ele>1153</ele></trkpt><trkpt lat="62.728149" lon="9.121995"><ele>1155</ele></trkpt><trkpt lat="62.728596" lon="9.121906"><ele>1160</ele></trkpt><trkpt lat="62.729042" lon="9.121817"><ele>1166</ele></trkpt><trkpt lat="62.729489" lon="9.121728"><ele>1166</ele></trkpt><trkpt lat="62.729968" lon="9.122417"><ele>1155</ele></trkpt><trkpt lat="62.730414" lon="9.122328"><ele>1151</ele></trkpt><trkpt lat="62.730869" lon="9.122434"><ele>1139</ele></trkpt><trkpt lat="62.731315" lon="9.122345"><ele>1129</ele></trkpt><trkpt lat="62.731762" lon="9.122256"><ele>1117</ele></trkpt><trkpt lat="62.732208" lon="9.122167"><ele>1108</ele></trkpt><trkpt lat="62.732654" lon="9.122078"><ele>1104</ele></trkpt><trkpt lat="62.733101" lon="9.121989"><ele>1106</ele></trkpt><trkpt lat="62.733547" lon="9.121900"><ele>1104</ele></trkpt><trkpt lat="62.733994" lon="9.121811"><ele>1107</ele></trkpt><trkpt lat="62.734440" lon="9.121722"><ele>1110</ele></trkpt><trkpt lat="62.734887" lon="9.121633"><ele>1114</ele></trkpt><trkpt lat="62.735341" lon="9.121738"><ele>1115</ele></trkpt><trkpt lat="62.735796" lon="9.121844"><ele>1118</ele></trkpt><trkpt lat="62.736242" lon="9.121755"><ele>1117</ele></trkpt><trkpt lat="62.736689" lon="9.121666"><ele>1115</ele></trkpt><trkpt lat="62.737176" lon="9.122550"><ele>1101</ele></trkpt><trkpt lat="62.737663" lon="9.123434"><ele>1094</ele></trkpt><trkpt lat="62.738150" lon="9.124318"><ele>1089</ele></trkpt><trkpt lat="62.738638" lon="9.125202"><ele>1089</ele></trkpt><trkpt lat="62.739125" lon="9.126086"><ele>1090</ele></trkpt><trkpt lat="62.739612" lon="9.126971"><ele>1092</ele></trkpt><trkpt lat="62.740099" lon="9.127855"><ele>1092</ele></trkpt><trkpt lat="62.740587" lon="9.128739"><ele>1085</ele></trkpt><trkpt lat="62.741074" lon="9.129624"><ele>1074</ele></trkpt><trkpt lat="62.741561" lon="9.130508"><ele>1063</ele></trkpt><trkpt lat="62.742048" lon="9.131393"><ele>1047</ele></trkpt><trkpt lat="62.742527" lon="9.132082"><ele>1028</ele></trkpt><trkpt lat="62.743015" lon="9.132967"><ele>1005</ele></trkpt><trkpt lat="62.743469" lon="9.133072"><ele>995</ele></trkpt><trkpt lat="62.743916" lon="9.132984"><ele>989</ele></trkpt><trkpt lat="62.744362" lon="9.132895"><ele>981</ele></trkpt><trkpt lat="62.744849" lon="9.133779"><ele>966</ele></trkpt><trkpt lat="62.745336" lon="9.134664"><ele>950</ele></trkpt><trkpt lat="62.745824" lon="9.135548"><ele>936</ele></trkpt><trkpt lat="62.746311" lon="9.136433"><ele>925</ele></trkpt><trkpt lat="62.746798" lon="9.137318"><ele>915</ele></trkpt><trkpt lat="62.747285" lon="9.138202"><ele>906</ele></trkpt><trkpt lat="62.747772" lon="9.139087"><ele>899</ele></trkpt><trkpt lat="62.748259" lon="9.139972"><ele>894</ele></trkpt><trkpt lat="62.748747" lon="9.140856"><ele>887</ele></trkpt><trkpt lat="62.749234" lon="9.141741"><ele>884</ele></trkpt><trkpt lat="62.749721" lon="9.142626"><ele>883</ele></trkpt><trkpt lat="62.750208" lon="9.143511"><ele>880</ele></trkpt><trkpt lat="62.750695" lon="9.144396"><ele>878</ele></trkpt><trkpt lat="62.751182" lon="9.145281"><ele>877</ele></trkpt><trkpt lat="62.751670" lon="9.146166"><ele>876</ele></trkpt><trkpt lat="62.752157" lon="9.147051"><ele>877</ele></trkpt><trkpt lat="62.752644" lon="9.147936"><ele>881</ele></trkpt><trkpt lat="62.753131" lon="9.148821"><ele>884</ele></trkpt><trkpt lat="62.753618" lon="9.149706"><ele>888</ele></trkpt><trkpt lat="62.754105" lon="9.150591"><ele>894</ele></trkpt><trkpt lat="62.754592" lon="9.151476"><ele>901</ele></trkpt><trkpt lat="62.755079" lon="9.152361"><ele>908</ele></trkpt><trkpt lat="62.755566" lon="9.153246"><ele>909</ele></trkpt><trkpt lat="62.756054" lon="9.154131"><ele>911</ele></trkpt><trkpt lat="62.756541" lon="9.155017"><ele>922</ele></trkpt><trkpt lat="62.757028" lon="9.155902"><ele>930</ele></trkpt><trkpt lat="62.757515" lon="9.156787"><ele>942</ele></trkpt><trkpt lat="62.758002" lon="9.157673"><ele>955</ele></trkpt><trkpt lat="62.758489" lon="9.158558"><ele>968</ele></trkpt><trkpt lat="62.758976" lon="9.159443"><ele>983</ele></trkpt><trkpt lat="62.759463" lon="9.160329"><ele>1002</ele></trkpt><trkpt lat="62.759950" lon="9.161214"><ele>1017</ele></trkpt><trkpt lat="62.760437" lon="9.162100"><ele>1033</ele></trkpt><trkpt lat="62.760924" lon="9.162985"><ele>1049</ele></trkpt><trkpt lat="62.761411" lon="9.163871"><ele>1066</ele></trkpt><trkpt lat="62.761898" lon="9.164756"><ele>1079</ele></trkpt><trkpt lat="62.762385" lon="9.165642"><ele>1091</ele></trkpt><trkpt lat="62.762872" lon="9.166527"><ele>1102</ele></trkpt><trkpt lat="62.763359" lon="9.167413"><ele>1108</ele></trkpt><trkpt lat="62.763846" lon="9.168299"><ele>1110</ele></trkpt><trkpt lat="62.764333" lon="9.169184"><ele>1122</ele></trkpt><trkpt lat="62.764820" lon="9.170070"><ele>1131</ele></trkpt><trkpt lat="62.765307" lon="9.170956"><ele>1144</ele></trkpt><trkpt lat="62.765794" lon="9.171842"><ele>1152</ele></trkpt><trkpt lat="62.766281" lon="9.172727"><ele>1165</ele></trkpt><trkpt lat="62.766760" lon="9.173418"><ele>1185</ele></trkpt><trkpt lat="62.767247" lon="9.174304"><ele>1206</ele></trkpt><trkpt lat="62.767726" lon="9.174995"><ele>1227</ele></trkpt><trkpt lat="62.768213" lon="9.175881"><ele>1246</ele></trkpt><trkpt lat="62.768700" lon="9.176767"><ele>1256</ele></trkpt><trkpt lat="62.769187" lon="9.177653"><ele>1259</ele></trkpt><trkpt lat="62.769674" lon="9.178539"><ele>1261</ele></trkpt><trkpt lat="62.770161" lon="9.179425"><ele>1270</ele></trkpt><trkpt lat="62.770647" lon="9.180311"><ele>1282</ele></trkpt><trkpt lat="62.771134" lon="9.181197"><ele>1298</ele></trkpt><trkpt lat="62.771621" lon="9.182084"><ele>1314</ele></trkpt><trkpt lat="62.772084" lon="9.182385"><ele>1333</ele></trkpt><trkpt lat="62.772530" lon="9.182297"><ele>1348</ele></trkpt><trkpt lat="62.772977" lon="9.182208"><ele>1360</ele></trkpt><trkpt lat="62.773448" lon="9.182705"><ele>1379</ele></trkpt><trkpt lat="62.773902" lon="9.182811"><ele>1395</ele></trkpt><trkpt lat="62.774349" lon="9.182723"><ele>1409</ele></trkpt><trkpt lat="62.774795" lon="9.182635"><ele>1419</ele></trkpt><trkpt lat="62.775242" lon="9.182547"><ele>1428</ele></trkpt><trkpt lat="62.775688" lon="9.182458"><ele>1436</ele></trkpt><trkpt lat="62.776135" lon="9.182370"><ele>1443</ele></trkpt><trkpt lat="62.776605" lon="9.182866"><ele>1450</ele></trkpt><trkpt lat="62.777092" lon="9.183753"><ele>1454</ele></trkpt><trkpt lat="62.777579" lon="9.184639"><ele>1461</ele></trkpt><trkpt lat="62.778066" lon="9.185525"><ele>1472</ele></trkpt><trkpt lat="62.778553" lon="9.186412"><ele>1482</ele></trkpt><trkpt lat="62.779040" lon="9.187298"><ele>1484</ele></trkpt><trkpt lat="62.779527" lon="9.188185"><ele>1487</ele></trkpt><trkpt lat="62.779624" lon="9.188362"><ele>1487</ele></trkpt></trkseg></trk><wpt lat="62.770648" lon="9.145730"><ele>822</ele><name>Run end · Storlifjellet 1487 m</name></wpt><trk><name>Down · Storlifjellet 1487 m</name><desc>fall-line run: 692 m of 20–30°, 543 m drop, aspect 253°, max 30°, 0.0% ≥30°; ends 8.9 km from the car.</desc><trkseg><trkpt lat="62.779624" lon="9.188362"><ele>1487</ele></trkpt><trkpt lat="62.777126" lon="9.173723"><ele>1366</ele></trkpt><trkpt lat="62.777369" lon="9.173086"><ele>1348</ele></trkpt><trkpt lat="62.777345" lon="9.172501"><ele>1337</ele></trkpt><trkpt lat="62.777321" lon="9.171916"><ele>1327</ele></trkpt><trkpt lat="62.777296" lon="9.171331"><ele>1318</ele></trkpt><trkpt lat="62.777272" lon="9.170747"><ele>1309</ele></trkpt><trkpt lat="62.777248" lon="9.170162"><ele>1299</ele></trkpt><trkpt lat="62.777223" lon="9.169577"><ele>1287</ele></trkpt><trkpt lat="62.777199" lon="9.168992"><ele>1276</ele></trkpt><trkpt lat="62.777175" lon="9.168408"><ele>1264</ele></trkpt><trkpt lat="62.777150" lon="9.167823"><ele>1253</ele></trkpt><trkpt lat="62.776858" lon="9.167291"><ele>1243</ele></trkpt><trkpt lat="62.776566" lon="9.166760"><ele>1231</ele></trkpt><trkpt lat="62.776363" lon="9.166210"><ele>1220</ele></trkpt><trkpt lat="62.776339" lon="9.165626"><ele>1211</ele></trkpt><trkpt lat="62.776314" lon="9.165041"><ele>1203</ele></trkpt><trkpt lat="62.776201" lon="9.164474"><ele>1196</ele></trkpt><trkpt lat="62.776087" lon="9.163907"><ele>1190</ele></trkpt><trkpt lat="62.775974" lon="9.163340"><ele>1183</ele></trkpt><trkpt lat="62.775860" lon="9.162773"><ele>1177</ele></trkpt><trkpt lat="62.775568" lon="9.162241"><ele>1168</ele></trkpt><trkpt lat="62.775365" lon="9.161692"><ele>1159</ele></trkpt><trkpt lat="62.775162" lon="9.161143"><ele>1150</ele></trkpt><trkpt lat="62.774870" lon="9.160611"><ele>1140</ele></trkpt><trkpt lat="62.774577" lon="9.160080"><ele>1130</ele></trkpt><trkpt lat="62.774285" lon="9.159548"><ele>1120</ele></trkpt><trkpt lat="62.774261" lon="9.158963"><ele>1114</ele></trkpt><trkpt lat="62.774147" lon="9.158396"><ele>1107</ele></trkpt><trkpt lat="62.774033" lon="9.157830"><ele>1100</ele></trkpt><trkpt lat="62.774009" lon="9.157245"><ele>1094</ele></trkpt><trkpt lat="62.773806" lon="9.156696"><ele>1085</ele></trkpt><trkpt lat="62.773603" lon="9.156146"><ele>1075</ele></trkpt><trkpt lat="62.773489" lon="9.155580"><ele>1065</ele></trkpt><trkpt lat="62.773287" lon="9.155030"><ele>1053</ele></trkpt><trkpt lat="62.773084" lon="9.154481"><ele>1041</ele></trkpt><trkpt lat="62.772970" lon="9.153914"><ele>1031</ele></trkpt><trkpt lat="62.772946" lon="9.153330"><ele>1021</ele></trkpt><trkpt lat="62.772743" lon="9.152780"><ele>1007</ele></trkpt><trkpt lat="62.772450" lon="9.152249"><ele>995</ele></trkpt><trkpt lat="62.772247" lon="9.151700"><ele>982</ele></trkpt><trkpt lat="62.772134" lon="9.151133"><ele>969</ele></trkpt><trkpt lat="62.772109" lon="9.150548"><ele>957</ele></trkpt><trkpt lat="62.771906" lon="9.149999"><ele>942</ele></trkpt><trkpt lat="62.771703" lon="9.149450"><ele>924</ele></trkpt><trkpt lat="62.771500" lon="9.148901"><ele>907</ele></trkpt><trkpt lat="62.771297" lon="9.148352"><ele>890</ele></trkpt><trkpt lat="62.771184" lon="9.147785"><ele>874</ele></trkpt><trkpt lat="62.771070" lon="9.147218"><ele>859</ele></trkpt><trkpt lat="62.770956" lon="9.146651"><ele>847</ele></trkpt><trkpt lat="62.770753" lon="9.146102"><ele>831</ele></trkpt><trkpt lat="62.770648" lon="9.145730"><ele>822</ele></trkpt></trkseg></trk></gpx>