<?xml version="1.0" encoding="UTF-8"?>
<gpx version="1.1" creator="Rando toppturs" xmlns="http://www.topografix.com/GPX/1/1"><metadata><name>038 Hælfjellet 1197 m</name><desc>Generated 2026-09-13 17:42 from Kartverket 10 m terrain. Ascent lines are least-cost terrain paths under 35°, not verified routes. Not a snow-stability assessment.</desc></metadata><wpt lat="62.522890" lon="8.997757"><ele>792</ele><name>Car · Hælfjellet 1197 m</name></wpt><wpt lat="62.512529" lon="9.018549"><ele>1197</ele><name>Hælfjellet 1197 m</name></wpt><trk><name>Up · Hælfjellet 1197 m</name><desc>least-cost ascent: +414 m over 1774 m, max 34°, 1.5% on 30–35°, ≈1.48 h at 4 km/h + 400 m/h. Terrain possibility, not a checked route.</desc><trkseg><trkpt lat="62.522890" lon="8.997757"><ele>792</ele></trkpt><trkpt lat="62.522443" lon="8.997847"><ele>814</ele></trkpt><trkpt lat="62.522005" lon="8.998130"><ele>832</ele></trkpt><trkpt lat="62.521567" lon="8.998414"><ele>845</ele></trkpt><trkpt lat="62.521121" lon="8.998504"><ele>858</ele></trkpt><trkpt lat="62.520708" lon="8.999367"><ele>873</ele></trkpt><trkpt lat="62.520287" lon="9.000036"><ele>890</ele></trkpt><trkpt lat="62.519840" lon="9.000126"><ele>896</ele></trkpt><trkpt lat="62.519394" lon="9.000216"><ele>895</ele></trkpt><trkpt lat="62.518964" lon="9.000693"><ele>911</ele></trkpt><trkpt lat="62.518535" lon="9.001169"><ele>939</ele></trkpt><trkpt lat="62.518219" lon="9.002207"><ele>966</ele></trkpt><trkpt lat="62.517814" lon="9.003263"><ele>993</ele></trkpt><trkpt lat="62.517767" lon="9.004247"><ele>1021</ele></trkpt><trkpt lat="62.517451" lon="9.005284"><ele>1044</ele></trkpt><trkpt lat="62.517038" lon="9.006147"><ele>1065</ele></trkpt><trkpt lat="62.516625" lon="9.007010"><ele>1089</ele></trkpt><trkpt lat="62.516220" lon="9.008065"><ele>1108</ele></trkpt><trkpt lat="62.515816" lon="9.009121"><ele>1121</ele></trkpt><trkpt lat="62.515411" lon="9.010177"><ele>1144</ele></trkpt><trkpt lat="62.515363" lon="9.011160"><ele>1155</ele></trkpt><trkpt lat="62.514958" lon="9.012216"><ele>1165</ele></trkpt><trkpt lat="62.514553" lon="9.013272"><ele>1177</ele></trkpt><trkpt lat="62.514149" lon="9.014327"><ele>1178</ele></trkpt><trkpt lat="62.513744" lon="9.015383"><ele>1174</ele></trkpt><trkpt lat="62.513339" lon="9.016438"><ele>1180</ele></trkpt><trkpt lat="62.512934" lon="9.017494"><ele>1190</ele></trkpt><trkpt lat="62.512529" lon="9.018549"><ele>1197</ele></trkpt><trkpt lat="62.512529" lon="9.018549"><ele>1197</ele></trkpt></trkseg></trk><wpt lat="62.516433" lon="8.994189"><ele>765</ele><name>Run end · Hælfjellet 1197 m</name></wpt><trk><name>Down · Hælfjellet 1197 m</name><desc>fall-line run: 661 m of 20–30°, 312 m drop, aspect 278°, max 31°, 1.5% ≥30°; ends 0.74 km from the car.</desc><trkseg><trkpt lat="62.512529" lon="9.018549"><ele>1197</ele></trkpt><trkpt lat="62.516876" lon="9.006569"><ele>1077</ele></trkpt><trkpt lat="62.517144" lon="9.006515"><ele>1064</ele></trkpt><trkpt lat="62.517387" lon="9.005882"><ele>1054</ele></trkpt><trkpt lat="62.517541" lon="9.005266"><ele>1042</ele></trkpt><trkpt lat="62.517516" lon="9.004687"><ele>1033</ele></trkpt><trkpt lat="62.517491" lon="9.004107"><ele>1021</ele></trkpt><trkpt lat="62.517466" lon="9.003528"><ele>1007</ele></trkpt><trkpt lat="62.517619" lon="9.002912"><ele>988</ele></trkpt><trkpt lat="62.517594" lon="9.002333"><ele>973</ele></trkpt><trkpt lat="62.517569" lon="9.001753"><ele>959</ele></trkpt><trkpt lat="62.517544" lon="9.001174"><ele>944</ele></trkpt><trkpt lat="62.517519" lon="9.000594"><ele>934</ele></trkpt><trkpt lat="62.517494" lon="9.000015"><ele>919</ele></trkpt><trkpt lat="62.517469" lon="8.999436"><ele>904</ele></trkpt><trkpt lat="62.517444" lon="8.998856"><ele>887</ele></trkpt><trkpt lat="62.517420" lon="8.998277"><ele>873</ele></trkpt><trkpt lat="62.517395" lon="8.997697"><ele>863</ele></trkpt><trkpt lat="62.517370" lon="8.997118"><ele>852</ele></trkpt><trkpt lat="62.517345" lon="8.996538"><ele>839</ele></trkpt><trkpt lat="62.517320" lon="8.995959"><ele>826</ele></trkpt><trkpt lat="62.517027" lon="8.995433"><ele>806</ele></trkpt><trkpt lat="62.516734" lon="8.994908"><ele>784</ele></trkpt><trkpt lat="62.516530" lon="8.994364"><ele>770</ele></trkpt><trkpt lat="62.516433" lon="8.994189"><ele>765</ele></trkpt></trkseg></trk></gpx>