<?xml version="1.0" encoding="UTF-8"?>
<gpx version="1.1" creator="Rando toppturs" xmlns="http://www.topografix.com/GPX/1/1"><metadata><name>044 Råstu 1672 m</name><desc>Generated 2026-09-13 17:42 from Kartverket 10 m terrain. Ascent lines are least-cost terrain paths under 35°, not verified routes. Not a snow-stability assessment.</desc></metadata><wpt lat="62.536162" lon="8.959007"><ele>752</ele><name>Car · Råstu 1672 m</name></wpt><wpt lat="62.513647" lon="8.837717"><ele>1672</ele><name>Råstu 1672 m</name></wpt><trk><name>Up · Råstu 1672 m</name><desc>least-cost ascent: +968 m over 7349 m, max 25°, 0.0% on 30–35°, ≈4.26 h at 4 km/h + 400 m/h. Terrain possibility, not a checked route.</desc><trkseg><trkpt lat="62.536162" lon="8.959007"><ele>752</ele></trkpt><trkpt lat="62.535674" lon="8.958132"><ele>757</ele></trkpt><trkpt lat="62.535186" lon="8.957256"><ele>771</ele></trkpt><trkpt lat="62.534697" lon="8.956381"><ele>791</ele></trkpt><trkpt lat="62.534209" lon="8.955505"><ele>809</ele></trkpt><trkpt lat="62.533721" lon="8.954630"><ele>825</ele></trkpt><trkpt lat="62.533233" lon="8.953754"><ele>846</ele></trkpt><trkpt lat="62.532744" lon="8.952879"><ele>870</ele></trkpt><trkpt lat="62.532256" lon="8.952003"><ele>894</ele></trkpt><trkpt lat="62.531857" lon="8.951110"><ele>915</ele></trkpt><trkpt lat="62.531547" lon="8.950198"><ele>938</ele></trkpt><trkpt lat="62.531059" lon="8.949323"><ele>955</ele></trkpt><trkpt lat="62.530928" lon="8.948375"><ele>970</ele></trkpt><trkpt lat="62.530797" lon="8.947427"><ele>982</ele></trkpt><trkpt lat="62.530755" lon="8.946461"><ele>993</ele></trkpt><trkpt lat="62.530534" lon="8.945531"><ele>1002</ele></trkpt><trkpt lat="62.530403" lon="8.944583"><ele>1012</ele></trkpt><trkpt lat="62.530272" lon="8.943635"><ele>1021</ele></trkpt><trkpt lat="62.529962" lon="8.942724"><ele>1025</ele></trkpt><trkpt lat="62.529741" lon="8.941794"><ele>1032</ele></trkpt><trkpt lat="62.529521" lon="8.940864"><ele>1038</ele></trkpt><trkpt lat="62.529479" lon="8.939898"><ele>1047</ele></trkpt><trkpt lat="62.529437" lon="8.938932"><ele>1059</ele></trkpt><trkpt lat="62.529395" lon="8.937966"><ele>1070</ele></trkpt><trkpt lat="62.529263" lon="8.937018"><ele>1075</ele></trkpt><trkpt lat="62.529221" lon="8.936052"><ele>1084</ele></trkpt><trkpt lat="62.529179" lon="8.935086"><ele>1093</ele></trkpt><trkpt lat="62.529137" lon="8.934120"><ele>1098</ele></trkpt><trkpt lat="62.529006" lon="8.933172"><ele>1101</ele></trkpt><trkpt lat="62.528964" lon="8.932206"><ele>1108</ele></trkpt><trkpt lat="62.528922" lon="8.931240"><ele>1112</ele></trkpt><trkpt lat="62.528790" lon="8.930292"><ele>1117</ele></trkpt><trkpt lat="62.528302" lon="8.929417"><ele>1110</ele></trkpt><trkpt lat="62.528081" lon="8.928488"><ele>1113</ele></trkpt><trkpt lat="62.527861" lon="8.927558"><ele>1115</ele></trkpt><trkpt lat="62.527640" lon="8.926629"><ele>1119</ele></trkpt><trkpt lat="62.527598" lon="8.925663"><ele>1128</ele></trkpt><trkpt lat="62.527466" lon="8.924715"><ele>1133</ele></trkpt><trkpt lat="62.527424" lon="8.923749"><ele>1139</ele></trkpt><trkpt lat="62.527382" lon="8.922783"><ele>1144</ele></trkpt><trkpt lat="62.527340" lon="8.921817"><ele>1147</ele></trkpt><trkpt lat="62.527298" lon="8.920851"><ele>1152</ele></trkpt><trkpt lat="62.527256" lon="8.919885"><ele>1155</ele></trkpt><trkpt lat="62.527213" lon="8.918919"><ele>1162</ele></trkpt><trkpt lat="62.527171" lon="8.917953"><ele>1170</ele></trkpt><trkpt lat="62.527129" lon="8.916987"><ele>1176</ele></trkpt><trkpt lat="62.527087" lon="8.916021"><ele>1181</ele></trkpt><trkpt lat="62.527045" lon="8.915055"><ele>1187</ele></trkpt><trkpt lat="62.527002" lon="8.914089"><ele>1192</ele></trkpt><trkpt lat="62.526960" lon="8.913123"><ele>1198</ele></trkpt><trkpt lat="62.526918" lon="8.912157"><ele>1202</ele></trkpt><trkpt lat="62.526876" lon="8.911191"><ele>1204</ele></trkpt><trkpt lat="62.526834" lon="8.910225"><ele>1211</ele></trkpt><trkpt lat="62.526791" lon="8.909259"><ele>1217</ele></trkpt><trkpt lat="62.526749" lon="8.908293"><ele>1221</ele></trkpt><trkpt lat="62.526707" lon="8.907327"><ele>1226</ele></trkpt><trkpt lat="62.526665" lon="8.906362"><ele>1230</ele></trkpt><trkpt lat="62.526622" lon="8.905396"><ele>1233</ele></trkpt><trkpt lat="62.526580" lon="8.904430"><ele>1234</ele></trkpt><trkpt lat="62.526538" lon="8.903464"><ele>1238</ele></trkpt><trkpt lat="62.526495" lon="8.902498"><ele>1246</ele></trkpt><trkpt lat="62.526453" lon="8.901532"><ele>1253</ele></trkpt><trkpt lat="62.526411" lon="8.900566"><ele>1258</ele></trkpt><trkpt lat="62.526368" lon="8.899600"><ele>1263</ele></trkpt><trkpt lat="62.526326" lon="8.898634"><ele>1265</ele></trkpt><trkpt lat="62.526284" lon="8.897668"><ele>1270</ele></trkpt><trkpt lat="62.526242" lon="8.896702"><ele>1272</ele></trkpt><trkpt lat="62.526110" lon="8.895755"><ele>1281</ele></trkpt><trkpt lat="62.525978" lon="8.894807"><ele>1289</ele></trkpt><trkpt lat="62.525936" lon="8.893841"><ele>1293</ele></trkpt><trkpt lat="62.525715" lon="8.892912"><ele>1304</ele></trkpt><trkpt lat="62.525494" lon="8.891983"><ele>1318</ele></trkpt><trkpt lat="62.525452" lon="8.891017"><ele>1326</ele></trkpt><trkpt lat="62.525410" lon="8.890051"><ele>1336</ele></trkpt><trkpt lat="62.525367" lon="8.889085"><ele>1345</ele></trkpt><trkpt lat="62.525325" lon="8.888120"><ele>1356</ele></trkpt><trkpt lat="62.525282" lon="8.887154"><ele>1364</ele></trkpt><trkpt lat="62.525240" lon="8.886188"><ele>1374</ele></trkpt><trkpt lat="62.525198" lon="8.885222"><ele>1384</ele></trkpt><trkpt lat="62.525155" lon="8.884256"><ele>1395</ele></trkpt><trkpt lat="62.525113" lon="8.883290"><ele>1407</ele></trkpt><trkpt lat="62.525070" lon="8.882324"><ele>1416</ele></trkpt><trkpt lat="62.525028" lon="8.881359"><ele>1425</ele></trkpt><trkpt lat="62.524985" lon="8.880393"><ele>1434</ele></trkpt><trkpt lat="62.524943" lon="8.879427"><ele>1443</ele></trkpt><trkpt lat="62.524900" lon="8.878461"><ele>1449</ele></trkpt><trkpt lat="62.524858" lon="8.877495"><ele>1454</ele></trkpt><trkpt lat="62.524816" lon="8.876529"><ele>1458</ele></trkpt><trkpt lat="62.524773" lon="8.875564"><ele>1463</ele></trkpt><trkpt lat="62.524731" lon="8.874598"><ele>1468</ele></trkpt><trkpt lat="62.524688" lon="8.873632"><ele>1475</ele></trkpt><trkpt lat="62.524646" lon="8.872666"><ele>1483</ele></trkpt><trkpt lat="62.524603" lon="8.871700"><ele>1492</ele></trkpt><trkpt lat="62.524561" lon="8.870735"><ele>1501</ele></trkpt><trkpt lat="62.524518" lon="8.869769"><ele>1514</ele></trkpt><trkpt lat="62.524476" lon="8.868803"><ele>1524</ele></trkpt><trkpt lat="62.524433" lon="8.867837"><ele>1534</ele></trkpt><trkpt lat="62.524390" lon="8.866871"><ele>1543</ele></trkpt><trkpt lat="62.524348" lon="8.865906"><ele>1552</ele></trkpt><trkpt lat="62.524305" lon="8.864940"><ele>1559</ele></trkpt><trkpt lat="62.524263" lon="8.863974"><ele>1564</ele></trkpt><trkpt lat="62.524220" lon="8.863008"><ele>1564</ele></trkpt><trkpt lat="62.524178" lon="8.862043"><ele>1565</ele></trkpt><trkpt lat="62.524135" lon="8.861077"><ele>1569</ele></trkpt><trkpt lat="62.524092" lon="8.860111"><ele>1573</ele></trkpt><trkpt lat="62.524050" lon="8.859145"><ele>1577</ele></trkpt><trkpt lat="62.524007" lon="8.858180"><ele>1579</ele></trkpt><trkpt lat="62.523965" lon="8.857214"><ele>1582</ele></trkpt><trkpt lat="62.523833" lon="8.856266"><ele>1586</ele></trkpt><trkpt lat="62.523344" lon="8.855393"><ele>1598</ele></trkpt><trkpt lat="62.522855" lon="8.854519"><ele>1611</ele></trkpt><trkpt lat="62.522366" lon="8.853646"><ele>1622</ele></trkpt><trkpt lat="62.521877" lon="8.852773"><ele>1623</ele></trkpt><trkpt lat="62.521389" lon="8.851899"><ele>1616</ele></trkpt><trkpt lat="62.520900" lon="8.851026"><ele>1620</ele></trkpt><trkpt lat="62.520411" lon="8.850152"><ele>1626</ele></trkpt><trkpt lat="62.519922" lon="8.849279"><ele>1627</ele></trkpt><trkpt lat="62.519433" lon="8.848406"><ele>1619</ele></trkpt><trkpt lat="62.518944" lon="8.847533"><ele>1611</ele></trkpt><trkpt lat="62.518455" lon="8.846659"><ele>1609</ele></trkpt><trkpt lat="62.517967" lon="8.845786"><ele>1609</ele></trkpt><trkpt lat="62.517478" lon="8.844913"><ele>1609</ele></trkpt><trkpt lat="62.516989" lon="8.844040"><ele>1615</ele></trkpt><trkpt lat="62.516500" lon="8.843167"><ele>1622</ele></trkpt><trkpt lat="62.516011" lon="8.842294"><ele>1636</ele></trkpt><trkpt lat="62.515522" lon="8.841421"><ele>1644</ele></trkpt><trkpt lat="62.515033" lon="8.840548"><ele>1649</ele></trkpt><trkpt lat="62.514544" lon="8.839675"><ele>1652</ele></trkpt><trkpt lat="62.514055" lon="8.838802"><ele>1658</ele></trkpt><trkpt lat="62.513745" lon="8.837892"><ele>1670</ele></trkpt><trkpt lat="62.513647" lon="8.837717"><ele>1672</ele></trkpt></trkseg></trk><wpt lat="62.502751" lon="8.825561"><ele>1252</ele><name>Run end · Råstu 1672 m</name></wpt><trk><name>Down · Råstu 1672 m</name><desc>fall-line run: 628 m of 20–30°, 395 m drop, aspect 204°, max 30°, 0.8% ≥30°; ends 7.82 km from the car.</desc><trkseg><trkpt lat="62.513647" lon="8.837717"><ele>1672</ele></trkpt><trkpt lat="62.512507" lon="8.832303"><ele>1647</ele></trkpt><trkpt lat="62.512213" lon="8.831779"><ele>1630</ele></trkpt><trkpt lat="62.511920" lon="8.831256"><ele>1614</ele></trkpt><trkpt lat="62.511716" lon="8.830714"><ele>1603</ele></trkpt><trkpt lat="62.511690" lon="8.830134"><ele>1596</ele></trkpt><trkpt lat="62.511664" lon="8.829555"><ele>1589</ele></trkpt><trkpt lat="62.511639" lon="8.828976"><ele>1583</ele></trkpt><trkpt lat="62.511434" lon="8.828434"><ele>1577</ele></trkpt><trkpt lat="62.511409" lon="8.827855"><ele>1573</ele></trkpt><trkpt lat="62.511383" lon="8.827276"><ele>1570</ele></trkpt><trkpt lat="62.511090" lon="8.826752"><ele>1565</ele></trkpt><trkpt lat="62.510822" lon="8.826808"><ele>1556</ele></trkpt><trkpt lat="62.510537" lon="8.826477"><ele>1548</ele></trkpt><trkpt lat="62.510261" lon="8.826340"><ele>1540</ele></trkpt><trkpt lat="62.509985" lon="8.826202"><ele>1533</ele></trkpt><trkpt lat="62.509708" lon="8.826065"><ele>1526</ele></trkpt><trkpt lat="62.509441" lon="8.826120"><ele>1521</ele></trkpt><trkpt lat="62.509173" lon="8.826176"><ele>1517</ele></trkpt><trkpt lat="62.508888" lon="8.825845"><ele>1513</ele></trkpt><trkpt lat="62.508595" lon="8.825322"><ele>1510</ele></trkpt><trkpt lat="62.508301" lon="8.824798"><ele>1506</ele></trkpt><trkpt lat="62.508016" lon="8.824468"><ele>1499</ele></trkpt><trkpt lat="62.507749" lon="8.824523"><ele>1487</ele></trkpt><trkpt lat="62.507481" lon="8.824579"><ele>1474</ele></trkpt><trkpt lat="62.507213" lon="8.824634"><ele>1460</ele></trkpt><trkpt lat="62.506946" lon="8.824690"><ele>1447</ele></trkpt><trkpt lat="62.506678" lon="8.824746"><ele>1433</ele></trkpt><trkpt lat="62.506410" lon="8.824801"><ele>1419</ele></trkpt><trkpt lat="62.506142" lon="8.824857"><ele>1404</ele></trkpt><trkpt lat="62.505875" lon="8.824912"><ele>1395</ele></trkpt><trkpt lat="62.505607" lon="8.824968"><ele>1386</ele></trkpt><trkpt lat="62.505339" lon="8.825023"><ele>1378</ele></trkpt><trkpt lat="62.505072" lon="8.825079"><ele>1367</ele></trkpt><trkpt lat="62.504804" lon="8.825135"><ele>1355</ele></trkpt><trkpt lat="62.504536" lon="8.825190"><ele>1341</ele></trkpt><trkpt lat="62.504268" lon="8.825246"><ele>1329</ele></trkpt><trkpt lat="62.504001" lon="8.825301"><ele>1316</ele></trkpt><trkpt lat="62.503733" lon="8.825357"><ele>1300</ele></trkpt><trkpt lat="62.503465" lon="8.825412"><ele>1287</ele></trkpt><trkpt lat="62.503198" lon="8.825468"><ele>1274</ele></trkpt><trkpt lat="62.502930" lon="8.825524"><ele>1260</ele></trkpt><trkpt lat="62.502751" lon="8.825561"><ele>1252</ele></trkpt></trkseg></trk></gpx>