<?xml version="1.0" encoding="UTF-8"?>
<gpx version="1.1" creator="Rando toppturs" xmlns="http://www.topografix.com/GPX/1/1"><metadata><name>046 Hesthåggåhøa 1663 m</name><desc>Generated 2026-09-13 17:42 from Kartverket 10 m terrain. Ascent lines are least-cost terrain paths under 35°, not verified routes. Not a snow-stability assessment.</desc></metadata><wpt lat="62.401158" lon="9.635890"><ele>700</ele><name>Car · Hesthåggåhøa 1663 m</name></wpt><wpt lat="62.395984" lon="9.590663"><ele>1663</ele><name>Hesthåggåhøa 1663 m</name></wpt><trk><name>Up · Hesthåggåhøa 1663 m</name><desc>least-cost ascent: +968 m over 3131 m, max 35°, 5.2% on 30–35°, ≈3.2 h at 4 km/h + 400 m/h. Terrain possibility, not a checked route.</desc><trkseg><trkpt lat="62.401158" lon="9.635890"><ele>700</ele></trkpt><trkpt lat="62.401299" lon="9.634895"><ele>695</ele></trkpt><trkpt lat="62.401619" lon="9.633867"><ele>697</ele></trkpt><trkpt lat="62.402029" lon="9.632824"><ele>715</ele></trkpt><trkpt lat="62.402349" lon="9.631797"><ele>737</ele></trkpt><trkpt lat="62.402401" lon="9.630818"><ele>756</ele></trkpt><trkpt lat="62.402454" lon="9.629838"><ele>771</ele></trkpt><trkpt lat="62.402595" lon="9.628843"><ele>793</ele></trkpt><trkpt lat="62.402558" lon="9.627880"><ele>816</ele></trkpt><trkpt lat="62.402431" lon="9.626933"><ele>840</ele></trkpt><trkpt lat="62.402394" lon="9.625970"><ele>866</ele></trkpt><trkpt lat="62.402535" lon="9.624975"><ele>900</ele></trkpt><trkpt lat="62.402588" lon="9.623995"><ele>929</ele></trkpt><trkpt lat="62.402818" lon="9.622984"><ele>958</ele></trkpt><trkpt lat="62.403146" lon="9.622149"><ele>987</ele></trkpt><trkpt lat="62.403563" lon="9.621298"><ele>1019</ele></trkpt><trkpt lat="62.403794" lon="9.620287"><ele>1047</ele></trkpt><trkpt lat="62.403667" lon="9.619340"><ele>1075</ele></trkpt><trkpt lat="62.403541" lon="9.618393"><ele>1105</ele></trkpt><trkpt lat="62.403593" lon="9.617413"><ele>1133</ele></trkpt><trkpt lat="62.403645" lon="9.616434"><ele>1162</ele></trkpt><trkpt lat="62.403607" lon="9.615471"><ele>1184</ele></trkpt><trkpt lat="62.403570" lon="9.614508"><ele>1202</ele></trkpt><trkpt lat="62.403533" lon="9.613545"><ele>1222</ele></trkpt><trkpt lat="62.403406" lon="9.612598"><ele>1242</ele></trkpt><trkpt lat="62.403369" lon="9.611634"><ele>1255</ele></trkpt><trkpt lat="62.403331" lon="9.610671"><ele>1273</ele></trkpt><trkpt lat="62.403115" lon="9.609740"><ele>1293</ele></trkpt><trkpt lat="62.402899" lon="9.608809"><ele>1318</ele></trkpt><trkpt lat="62.402504" lon="9.607911"><ele>1346</ele></trkpt><trkpt lat="62.402377" lon="9.606964"><ele>1366</ele></trkpt><trkpt lat="62.401893" lon="9.606081"><ele>1393</ele></trkpt><trkpt lat="62.401498" lon="9.605183"><ele>1416</ele></trkpt><trkpt lat="62.401014" lon="9.604300"><ele>1437</ele></trkpt><trkpt lat="62.400530" lon="9.603418"><ele>1456</ele></trkpt><trkpt lat="62.400053" lon="9.602728"><ele>1475</ele></trkpt><trkpt lat="62.399606" lon="9.602809"><ele>1489</ele></trkpt><trkpt lat="62.399122" lon="9.601926"><ele>1510</ele></trkpt><trkpt lat="62.398638" lon="9.601044"><ele>1540</ele></trkpt><trkpt lat="62.398184" lon="9.600932"><ele>1572</ele></trkpt><trkpt lat="62.397968" lon="9.600001"><ele>1589</ele></trkpt><trkpt lat="62.397930" lon="9.599038"><ele>1591</ele></trkpt><trkpt lat="62.397893" lon="9.598075"><ele>1594</ele></trkpt><trkpt lat="62.397855" lon="9.597112"><ele>1598</ele></trkpt><trkpt lat="62.397818" lon="9.596149"><ele>1601</ele></trkpt><trkpt lat="62.397780" lon="9.595186"><ele>1604</ele></trkpt><trkpt lat="62.397743" lon="9.594224"><ele>1609</ele></trkpt><trkpt lat="62.397437" lon="9.593309"><ele>1624</ele></trkpt><trkpt lat="62.396953" lon="9.592427"><ele>1644</ele></trkpt><trkpt lat="62.396469" lon="9.591545"><ele>1658</ele></trkpt><trkpt lat="62.395984" lon="9.590663"><ele>1663</ele></trkpt><trkpt lat="62.395984" lon="9.590663"><ele>1663</ele></trkpt></trkseg></trk><wpt lat="62.403667" lon="9.617012"><ele>1145</ele><name>Run end · Hesthåggåhøa 1663 m</name></wpt><trk><name>Down · Hesthåggåhøa 1663 m</name><desc>fall-line run: 612 m of 20–30°, 387 m drop, aspect 64°, max 31°, 1.0% ≥30°; ends 1.02 km from the car.</desc><trkseg><trkpt lat="62.395984" lon="9.590663"><ele>1663</ele></trkpt><trkpt lat="62.398735" lon="9.601220"><ele>1532</ele></trkpt><trkpt lat="62.399003" lon="9.601172"><ele>1520</ele></trkpt><trkpt lat="62.399271" lon="9.601124"><ele>1509</ele></trkpt><trkpt lat="62.399539" lon="9.601075"><ele>1498</ele></trkpt><trkpt lat="62.399807" lon="9.601027"><ele>1491</ele></trkpt><trkpt lat="62.400075" lon="9.600978"><ele>1482</ele></trkpt><trkpt lat="62.400366" lon="9.601508"><ele>1474</ele></trkpt><trkpt lat="62.400656" lon="9.602037"><ele>1462</ele></trkpt><trkpt lat="62.400947" lon="9.602567"><ele>1451</ele></trkpt><trkpt lat="62.401237" lon="9.603096"><ele>1445</ele></trkpt><trkpt lat="62.401439" lon="9.603642"><ele>1436</ele></trkpt><trkpt lat="62.401729" lon="9.604171"><ele>1424</ele></trkpt><trkpt lat="62.401752" lon="9.604749"><ele>1414</ele></trkpt><trkpt lat="62.401953" lon="9.605295"><ele>1402</ele></trkpt><trkpt lat="62.402154" lon="9.605840"><ele>1389</ele></trkpt><trkpt lat="62.402444" lon="9.606370"><ele>1371</ele></trkpt><trkpt lat="62.402556" lon="9.606932"><ele>1365</ele></trkpt><trkpt lat="62.402579" lon="9.607509"><ele>1354</ele></trkpt><trkpt lat="62.402601" lon="9.608087"><ele>1340</ele></trkpt><trkpt lat="62.402892" lon="9.608617"><ele>1321</ele></trkpt><trkpt lat="62.403003" lon="9.609179"><ele>1309</ele></trkpt><trkpt lat="62.403026" lon="9.609756"><ele>1294</ele></trkpt><trkpt lat="62.403048" lon="9.610334"><ele>1283</ele></trkpt><trkpt lat="62.403071" lon="9.610912"><ele>1273</ele></trkpt><trkpt lat="62.403093" lon="9.611490"><ele>1261</ele></trkpt><trkpt lat="62.403294" lon="9.612036"><ele>1251</ele></trkpt><trkpt lat="62.403317" lon="9.612614"><ele>1242</ele></trkpt><trkpt lat="62.403428" lon="9.613176"><ele>1232</ele></trkpt><trkpt lat="62.403540" lon="9.613737"><ele>1219</ele></trkpt><trkpt lat="62.403563" lon="9.614315"><ele>1206</ele></trkpt><trkpt lat="62.403585" lon="9.614893"><ele>1195</ele></trkpt><trkpt lat="62.403697" lon="9.615455"><ele>1183</ele></trkpt><trkpt lat="62.403719" lon="9.616033"><ele>1171</ele></trkpt><trkpt lat="62.403741" lon="9.616611"><ele>1158</ele></trkpt><trkpt lat="62.403667" lon="9.617012"><ele>1145</ele></trkpt></trkseg></trk></gpx>