<?xml version="1.0" encoding="UTF-8"?>
<gpx version="1.1" creator="Rando toppturs" xmlns="http://www.topografix.com/GPX/1/1"><metadata><name>047 Svarthattan 979 m</name><desc>Generated 2026-09-13 17:42 from Kartverket 10 m terrain. Ascent lines are least-cost terrain paths under 35°, not verified routes. Not a snow-stability assessment.</desc></metadata><wpt lat="62.647089" lon="9.907760"><ele>583</ele><name>Car · Svarthattan 979 m</name></wpt><wpt lat="62.634743" lon="9.939393"><ele>979</ele><name>Svarthattan 979 m</name></wpt><trk><name>Up · Svarthattan 979 m</name><desc>least-cost ascent: +399 m over 2203 m, max 32°, 0.6% on 30–35°, ≈1.55 h at 4 km/h + 400 m/h. Terrain possibility, not a checked route.</desc><trkseg><trkpt lat="62.647089" lon="9.907760"><ele>583</ele></trkpt><trkpt lat="62.646656" lon="9.908225"><ele>585</ele></trkpt><trkpt lat="62.646244" lon="9.909274"><ele>589</ele></trkpt><trkpt lat="62.645833" lon="9.910322"><ele>592</ele></trkpt><trkpt lat="62.645421" lon="9.911370"><ele>604</ele></trkpt><trkpt lat="62.645009" lon="9.912419"><ele>620</ele></trkpt><trkpt lat="62.644598" lon="9.913467"><ele>631</ele></trkpt><trkpt lat="62.644186" lon="9.914515"><ele>641</ele></trkpt><trkpt lat="62.643774" lon="9.915563"><ele>655</ele></trkpt><trkpt lat="62.643363" lon="9.916611"><ele>668</ele></trkpt><trkpt lat="62.642951" lon="9.917659"><ele>679</ele></trkpt><trkpt lat="62.642539" lon="9.918708"><ele>689</ele></trkpt><trkpt lat="62.642127" lon="9.919756"><ele>695</ele></trkpt><trkpt lat="62.641716" lon="9.920804"><ele>704</ele></trkpt><trkpt lat="62.641304" lon="9.921852"><ele>714</ele></trkpt><trkpt lat="62.640892" lon="9.922900"><ele>725</ele></trkpt><trkpt lat="62.640480" lon="9.923948"><ele>739</ele></trkpt><trkpt lat="62.640069" lon="9.924996"><ele>751</ele></trkpt><trkpt lat="62.639657" lon="9.926044"><ele>764</ele></trkpt><trkpt lat="62.639245" lon="9.927091"><ele>775</ele></trkpt><trkpt lat="62.638833" lon="9.928139"><ele>787</ele></trkpt><trkpt lat="62.638421" lon="9.929187"><ele>795</ele></trkpt><trkpt lat="62.638010" lon="9.930235"><ele>809</ele></trkpt><trkpt lat="62.637598" lon="9.931283"><ele>824</ele></trkpt><trkpt lat="62.637186" lon="9.932330"><ele>839</ele></trkpt><trkpt lat="62.636767" lon="9.933184"><ele>854</ele></trkpt><trkpt lat="62.636624" lon="9.934186"><ele>878</ele></trkpt><trkpt lat="62.636212" lon="9.935233"><ele>894</ele></trkpt><trkpt lat="62.635800" lon="9.936281"><ele>902</ele></trkpt><trkpt lat="62.635388" lon="9.937328"><ele>928</ele></trkpt><trkpt lat="62.634976" lon="9.938376"><ele>956</ele></trkpt><trkpt lat="62.634743" lon="9.939393"><ele>979</ele></trkpt><trkpt lat="62.634743" lon="9.939393"><ele>979</ele></trkpt></trkseg></trk><wpt lat="62.634126" lon="9.917415"><ele>668</ele><name>Run end · Svarthattan 979 m</name></wpt><trk><name>Down · Svarthattan 979 m</name><desc>fall-line run: 601 m of 20–30°, 255 m drop, aspect 284°, max 32°, 1.9% ≥30°; ends 1.53 km from the car.</desc><trkseg><trkpt lat="62.634743" lon="9.939393"><ele>979</ele></trkpt><trkpt lat="62.631014" lon="9.938271"><ele>923</ele></trkpt><trkpt lat="62.630904" lon="9.937704"><ele>907</ele></trkpt><trkpt lat="62.630882" lon="9.937121"><ele>892</ele></trkpt><trkpt lat="62.630951" lon="9.936523"><ele>889</ele></trkpt><trkpt lat="62.631198" lon="9.935895"><ele>884</ele></trkpt><trkpt lat="62.631177" lon="9.935312"><ele>881</ele></trkpt><trkpt lat="62.630977" lon="9.934760"><ele>876</ele></trkpt><trkpt lat="62.630956" lon="9.934178"><ele>874</ele></trkpt><trkpt lat="62.631024" lon="9.933580"><ele>866</ele></trkpt><trkpt lat="62.631271" lon="9.932951"><ele>850</ele></trkpt><trkpt lat="62.631532" lon="9.932711"><ele>842</ele></trkpt><trkpt lat="62.631601" lon="9.932113"><ele>833</ele></trkpt><trkpt lat="62.631579" lon="9.931531"><ele>825</ele></trkpt><trkpt lat="62.631558" lon="9.930948"><ele>813</ele></trkpt><trkpt lat="62.631537" lon="9.930365"><ele>801</ele></trkpt><trkpt lat="62.631605" lon="9.929768"><ele>789</ele></trkpt><trkpt lat="62.631674" lon="9.929170"><ele>771</ele></trkpt><trkpt lat="62.631742" lon="9.928572"><ele>756</ele></trkpt><trkpt lat="62.631810" lon="9.927974"><ele>742</ele></trkpt><trkpt lat="62.631968" lon="9.927361"><ele>726</ele></trkpt><trkpt lat="62.632215" lon="9.926732"><ele>710</ele></trkpt><trkpt lat="62.632194" lon="9.926149"><ele>701</ele></trkpt><trkpt lat="62.632352" lon="9.925536"><ele>693</ele></trkpt><trkpt lat="62.632509" lon="9.924923"><ele>690</ele></trkpt><trkpt lat="62.632667" lon="9.924310"><ele>688</ele></trkpt><trkpt lat="62.632735" lon="9.923712"><ele>687</ele></trkpt><trkpt lat="62.632893" lon="9.923098"><ele>685</ele></trkpt><trkpt lat="62.632961" lon="9.922500"><ele>684</ele></trkpt><trkpt lat="62.633029" lon="9.921902"><ele>683</ele></trkpt><trkpt lat="62.633097" lon="9.921304"><ele>682</ele></trkpt><trkpt lat="62.633166" lon="9.920706"><ele>681</ele></trkpt><trkpt lat="62.633323" lon="9.920093"><ele>680</ele></trkpt><trkpt lat="62.633570" lon="9.919464"><ele>678</ele></trkpt><trkpt lat="62.633817" lon="9.918836"><ele>675</ele></trkpt><trkpt lat="62.633975" lon="9.918222"><ele>672</ele></trkpt><trkpt lat="62.634133" lon="9.917609"><ele>669</ele></trkpt><trkpt lat="62.634126" lon="9.917415"><ele>668</ele></trkpt></trkseg></trk></gpx>