<?xml version="1.0" encoding="UTF-8"?>
<gpx version="1.1" creator="Rando toppturs" xmlns="http://www.topografix.com/GPX/1/1"><metadata><name>051 Unnamed 1522 m</name><desc>Generated 2026-09-13 17:42 from Kartverket 10 m terrain. Ascent lines are least-cost terrain paths under 35°, not verified routes. Not a snow-stability assessment.</desc></metadata><wpt lat="62.627070" lon="9.583488"><ele>706</ele><name>Car · Unnamed summit 1522 m</name></wpt><wpt lat="62.656527" lon="9.637960"><ele>1523</ele><name>Unnamed summit 1522 m</name></wpt><trk><name>Up · Unnamed summit 1522 m</name><desc>least-cost ascent: +842 m over 4617 m, max 25°, 0.0% on 30–35°, ≈3.26 h at 4 km/h + 400 m/h. Terrain possibility, not a checked route.</desc><trkseg><trkpt lat="62.627070" lon="9.583488"><ele>706</ele></trkpt><trkpt lat="62.627019" lon="9.584475"><ele>699</ele></trkpt><trkpt lat="62.627146" lon="9.585429"><ele>710</ele></trkpt><trkpt lat="62.627183" lon="9.586399"><ele>717</ele></trkpt><trkpt lat="62.627310" lon="9.587353"><ele>727</ele></trkpt><trkpt lat="62.627348" lon="9.588323"><ele>731</ele></trkpt><trkpt lat="62.627385" lon="9.589294"><ele>737</ele></trkpt><trkpt lat="62.627870" lon="9.590183"><ele>747</ele></trkpt><trkpt lat="62.628354" lon="9.591071"><ele>761</ele></trkpt><trkpt lat="62.628838" lon="9.591960"><ele>774</ele></trkpt><trkpt lat="62.629323" lon="9.592849"><ele>787</ele></trkpt><trkpt lat="62.629628" lon="9.593771"><ele>799</ele></trkpt><trkpt lat="62.630113" lon="9.594659"><ele>812</ele></trkpt><trkpt lat="62.630597" lon="9.595548"><ele>824</ele></trkpt><trkpt lat="62.631081" lon="9.596437"><ele>840</ele></trkpt><trkpt lat="62.631566" lon="9.597326"><ele>855</ele></trkpt><trkpt lat="62.632050" lon="9.598215"><ele>869</ele></trkpt><trkpt lat="62.632534" lon="9.599104"><ele>885</ele></trkpt><trkpt lat="62.633019" lon="9.599993"><ele>900</ele></trkpt><trkpt lat="62.633503" lon="9.600883"><ele>914</ele></trkpt><trkpt lat="62.633987" lon="9.601772"><ele>924</ele></trkpt><trkpt lat="62.634382" lon="9.602677"><ele>934</ele></trkpt><trkpt lat="62.634859" lon="9.603372"><ele>937</ele></trkpt><trkpt lat="62.635321" lon="9.603679"><ele>940</ele></trkpt><trkpt lat="62.635775" lon="9.603792"><ele>957</ele></trkpt><trkpt lat="62.636229" lon="9.603904"><ele>975</ele></trkpt><trkpt lat="62.636676" lon="9.603823"><ele>997</ele></trkpt><trkpt lat="62.637138" lon="9.604130"><ele>1020</ele></trkpt><trkpt lat="62.637607" lon="9.604631"><ele>1045</ele></trkpt><trkpt lat="62.638091" lon="9.605520"><ele>1069</ele></trkpt><trkpt lat="62.638486" lon="9.606426"><ele>1088</ele></trkpt><trkpt lat="62.638971" lon="9.607315"><ele>1106</ele></trkpt><trkpt lat="62.639455" lon="9.608205"><ele>1124</ele></trkpt><trkpt lat="62.639909" lon="9.608317"><ele>1147</ele></trkpt><trkpt lat="62.640371" lon="9.608624"><ele>1161</ele></trkpt><trkpt lat="62.640855" lon="9.609514"><ele>1174</ele></trkpt><trkpt lat="62.641339" lon="9.610403"><ele>1183</ele></trkpt><trkpt lat="62.641824" lon="9.611293"><ele>1191</ele></trkpt><trkpt lat="62.642308" lon="9.612182"><ele>1199</ele></trkpt><trkpt lat="62.642792" lon="9.613072"><ele>1210</ele></trkpt><trkpt lat="62.643276" lon="9.613962"><ele>1221</ele></trkpt><trkpt lat="62.643761" lon="9.614851"><ele>1230</ele></trkpt><trkpt lat="62.644245" lon="9.615741"><ele>1241</ele></trkpt><trkpt lat="62.644729" lon="9.616631"><ele>1254</ele></trkpt><trkpt lat="62.645213" lon="9.617520"><ele>1266</ele></trkpt><trkpt lat="62.645697" lon="9.618410"><ele>1289</ele></trkpt><trkpt lat="62.646159" lon="9.618717"><ele>1306</ele></trkpt><trkpt lat="62.646643" lon="9.619607"><ele>1326</ele></trkpt><trkpt lat="62.647128" lon="9.620497"><ele>1330</ele></trkpt><trkpt lat="62.647612" lon="9.621387"><ele>1327</ele></trkpt><trkpt lat="62.648096" lon="9.622277"><ele>1324</ele></trkpt><trkpt lat="62.648580" lon="9.623167"><ele>1330</ele></trkpt><trkpt lat="62.649064" lon="9.624056"><ele>1337</ele></trkpt><trkpt lat="62.649548" lon="9.624946"><ele>1348</ele></trkpt><trkpt lat="62.650033" lon="9.625836"><ele>1360</ele></trkpt><trkpt lat="62.650517" lon="9.626726"><ele>1372</ele></trkpt><trkpt lat="62.651001" lon="9.627617"><ele>1386</ele></trkpt><trkpt lat="62.651485" lon="9.628507"><ele>1414</ele></trkpt><trkpt lat="62.651880" lon="9.629413"><ele>1431</ele></trkpt><trkpt lat="62.652364" lon="9.630303"><ele>1445</ele></trkpt><trkpt lat="62.652848" lon="9.631193"><ele>1455</ele></trkpt><trkpt lat="62.653332" lon="9.632084"><ele>1466</ele></trkpt><trkpt lat="62.653816" lon="9.632974"><ele>1475</ele></trkpt><trkpt lat="62.654300" lon="9.633864"><ele>1481</ele></trkpt><trkpt lat="62.654784" lon="9.634754"><ele>1495</ele></trkpt><trkpt lat="62.655268" lon="9.635645"><ele>1504</ele></trkpt><trkpt lat="62.655753" lon="9.636535"><ele>1511</ele></trkpt><trkpt lat="62.656237" lon="9.637425"><ele>1517</ele></trkpt><trkpt lat="62.656527" lon="9.637960"><ele>1523</ele></trkpt></trkseg></trk><wpt lat="62.627906" lon="9.586462"><ele>713</ele><name>Run end · Unnamed summit 1522 m</name></wpt><trk><name>Down · Unnamed summit 1522 m</name><desc>fall-line run: 565 m of 20–30°, 703 m drop, aspect 233°, max 24°, 0.0% ≥30°; ends 0.18 km from the car.</desc><trkseg><trkpt lat="62.656527" lon="9.637960"><ele>1523</ele></trkpt><trkpt lat="62.649772" lon="9.633120"><ele>1416</ele></trkpt><trkpt lat="62.649482" lon="9.632586"><ele>1404</ele></trkpt><trkpt lat="62.649281" lon="9.632036"><ele>1398</ele></trkpt><trkpt lat="62.648990" lon="9.631502"><ele>1391</ele></trkpt><trkpt lat="62.648700" lon="9.630968"><ele>1383</ele></trkpt><trkpt lat="62.648499" lon="9.630418"><ele>1377</ele></trkpt><trkpt lat="62.648208" lon="9.629884"><ele>1371</ele></trkpt><trkpt lat="62.647918" lon="9.629350"><ele>1364</ele></trkpt><trkpt lat="62.647627" lon="9.628816"><ele>1356</ele></trkpt><trkpt lat="62.647426" lon="9.628265"><ele>1348</ele></trkpt><trkpt lat="62.647315" lon="9.627699"><ele>1343</ele></trkpt><trkpt lat="62.647024" lon="9.627165"><ele>1336</ele></trkpt><trkpt lat="62.646734" lon="9.626631"><ele>1329</ele></trkpt><trkpt lat="62.646443" lon="9.626097"><ele>1323</ele></trkpt><trkpt lat="62.646153" lon="9.625563"><ele>1319</ele></trkpt><trkpt lat="62.645877" lon="9.625418"><ele>1317</ele></trkpt><trkpt lat="62.645616" lon="9.625661"><ele>1315</ele></trkpt><trkpt lat="62.645356" lon="9.625903"><ele>1312</ele></trkpt><trkpt lat="62.645088" lon="9.625952"><ele>1307</ele></trkpt><trkpt lat="62.644820" lon="9.626001"><ele>1301</ele></trkpt><trkpt lat="62.644552" lon="9.626049"><ele>1295</ele></trkpt><trkpt lat="62.644276" lon="9.625904"><ele>1287</ele></trkpt><trkpt lat="62.644000" lon="9.625758"><ele>1281</ele></trkpt><trkpt lat="62.643717" lon="9.625419"><ele>1274</ele></trkpt><trkpt lat="62.643434" lon="9.625079"><ele>1267</ele></trkpt><trkpt lat="62.643159" lon="9.624934"><ele>1260</ele></trkpt><trkpt lat="62.642868" lon="9.624400"><ele>1250</ele></trkpt><trkpt lat="62.642585" lon="9.624060"><ele>1238</ele></trkpt><trkpt lat="62.642302" lon="9.623720"><ele>1223</ele></trkpt><trkpt lat="62.642019" lon="9.623381"><ele>1210</ele></trkpt><trkpt lat="62.641736" lon="9.623041"><ele>1197</ele></trkpt><trkpt lat="62.641453" lon="9.622701"><ele>1185</ele></trkpt><trkpt lat="62.641341" lon="9.622135"><ele>1180</ele></trkpt><trkpt lat="62.641230" lon="9.621569"><ele>1175</ele></trkpt><trkpt lat="62.641028" lon="9.621019"><ele>1168</ele></trkpt><trkpt lat="62.640827" lon="9.620469"><ele>1161</ele></trkpt><trkpt lat="62.640537" lon="9.619935"><ele>1152</ele></trkpt><trkpt lat="62.640336" lon="9.619385"><ele>1143</ele></trkpt><trkpt lat="62.640135" lon="9.618835"><ele>1136</ele></trkpt><trkpt lat="62.639933" lon="9.618285"><ele>1130</ele></trkpt><trkpt lat="62.639822" lon="9.617719"><ele>1125</ele></trkpt><trkpt lat="62.639620" lon="9.617169"><ele>1117</ele></trkpt><trkpt lat="62.639419" lon="9.616619"><ele>1111</ele></trkpt><trkpt lat="62.639218" lon="9.616069"><ele>1106</ele></trkpt><trkpt lat="62.639017" lon="9.615519"><ele>1101</ele></trkpt><trkpt lat="62.638995" lon="9.614936"><ele>1097</ele></trkpt><trkpt lat="62.638972" lon="9.614354"><ele>1090</ele></trkpt><trkpt lat="62.639128" lon="9.613739"><ele>1084</ele></trkpt><trkpt lat="62.639106" lon="9.613156"><ele>1078</ele></trkpt><trkpt lat="62.638994" lon="9.612590"><ele>1072</ele></trkpt><trkpt lat="62.638882" lon="9.612024"><ele>1067</ele></trkpt><trkpt lat="62.638770" lon="9.611458"><ele>1062</ele></trkpt><trkpt lat="62.638569" lon="9.610908"><ele>1057</ele></trkpt><trkpt lat="62.638294" lon="9.610762"><ele>1052</ele></trkpt><trkpt lat="62.638026" lon="9.610811"><ele>1049</ele></trkpt><trkpt lat="62.637758" lon="9.610860"><ele>1041</ele></trkpt><trkpt lat="62.637482" lon="9.610715"><ele>1035</ele></trkpt><trkpt lat="62.637214" lon="9.610763"><ele>1030</ele></trkpt><trkpt lat="62.636923" lon="9.610230"><ele>1021</ele></trkpt><trkpt lat="62.636648" lon="9.610084"><ele>1015</ele></trkpt><trkpt lat="62.636447" lon="9.609534"><ele>1008</ele></trkpt><trkpt lat="62.636245" lon="9.608985"><ele>1001</ele></trkpt><trkpt lat="62.636044" lon="9.608435"><ele>995</ele></trkpt><trkpt lat="62.635932" lon="9.607869"><ele>988</ele></trkpt><trkpt lat="62.635910" lon="9.607286"><ele>983</ele></trkpt><trkpt lat="62.635798" lon="9.606720"><ele>976</ele></trkpt><trkpt lat="62.635776" lon="9.606138"><ele>968</ele></trkpt><trkpt lat="62.635664" lon="9.605572"><ele>962</ele></trkpt><trkpt lat="62.635463" lon="9.605022"><ele>953</ele></trkpt><trkpt lat="62.635351" lon="9.604456"><ele>946</ele></trkpt><trkpt lat="62.635239" lon="9.603889"><ele>939</ele></trkpt><trkpt lat="62.635127" lon="9.603323"><ele>932</ele></trkpt><trkpt lat="62.634926" lon="9.602774"><ele>925</ele></trkpt><trkpt lat="62.634814" lon="9.602207"><ele>919</ele></trkpt><trkpt lat="62.634523" lon="9.601674"><ele>907</ele></trkpt><trkpt lat="62.634411" lon="9.601108"><ele>897</ele></trkpt><trkpt lat="62.634389" lon="9.600525"><ele>889</ele></trkpt><trkpt lat="62.634366" lon="9.599943"><ele>882</ele></trkpt><trkpt lat="62.634165" lon="9.599393"><ele>873</ele></trkpt><trkpt lat="62.634143" lon="9.598811"><ele>865</ele></trkpt><trkpt lat="62.634210" lon="9.598212"><ele>855</ele></trkpt><trkpt lat="62.634187" lon="9.597630"><ele>847</ele></trkpt><trkpt lat="62.634343" lon="9.597015"><ele>837</ele></trkpt><trkpt lat="62.634499" lon="9.596400"><ele>826</ele></trkpt><trkpt lat="62.634656" lon="9.595785"><ele>814</ele></trkpt><trkpt lat="62.634723" lon="9.595186"><ele>807</ele></trkpt><trkpt lat="62.634521" lon="9.594637"><ele>804</ele></trkpt><trkpt lat="62.634320" lon="9.594087"><ele>801</ele></trkpt><trkpt lat="62.634119" lon="9.593537"><ele>798</ele></trkpt><trkpt lat="62.634007" lon="9.592971"><ele>795</ele></trkpt><trkpt lat="62.633806" lon="9.592421"><ele>790</ele></trkpt><trkpt lat="62.633515" lon="9.591888"><ele>786</ele></trkpt><trkpt lat="62.633224" lon="9.591355"><ele>782</ele></trkpt><trkpt lat="62.633113" lon="9.590789"><ele>779</ele></trkpt><trkpt lat="62.632822" lon="9.590255"><ele>775</ele></trkpt><trkpt lat="62.632546" lon="9.590110"><ele>773</ele></trkpt><trkpt lat="62.632263" lon="9.589771"><ele>771</ele></trkpt><trkpt lat="62.631980" lon="9.589432"><ele>768</ele></trkpt><trkpt lat="62.631689" lon="9.588898"><ele>764</ele></trkpt><trkpt lat="62.631406" lon="9.588559"><ele>762</ele></trkpt><trkpt lat="62.631131" lon="9.588414"><ele>760</ele></trkpt><trkpt lat="62.630855" lon="9.588269"><ele>757</ele></trkpt><trkpt lat="62.630572" lon="9.587930"><ele>753</ele></trkpt><trkpt lat="62.630296" lon="9.587785"><ele>751</ele></trkpt><trkpt lat="62.630021" lon="9.587639"><ele>751</ele></trkpt><trkpt lat="62.629753" lon="9.587688"><ele>746</ele></trkpt><trkpt lat="62.629470" lon="9.587349"><ele>744</ele></trkpt><trkpt lat="62.629202" lon="9.587398"><ele>741</ele></trkpt><trkpt lat="62.628934" lon="9.587447"><ele>739</ele></trkpt><trkpt lat="62.628822" lon="9.586881"><ele>737</ele></trkpt><trkpt lat="62.628620" lon="9.586332"><ele>732</ele></trkpt><trkpt lat="62.628345" lon="9.586187"><ele>729</ele></trkpt><trkpt lat="62.628077" lon="9.586236"><ele>722</ele></trkpt><trkpt lat="62.627809" lon="9.586285"><ele>712</ele></trkpt><trkpt lat="62.627906" lon="9.586462"><ele>713</ele></trkpt></trkseg></trk></gpx>