<?xml version="1.0" encoding="UTF-8"?>
<gpx version="1.1" creator="Rando toppturs" xmlns="http://www.topografix.com/GPX/1/1"><metadata><name>056 Unnamed 1567 m</name><desc>Generated 2026-09-13 17:42 from Kartverket 10 m terrain. Ascent lines are least-cost terrain paths under 35°, not verified routes. Not a snow-stability assessment.</desc></metadata><wpt lat="62.376194" lon="9.639588"><ele>730</ele><name>Car · Unnamed summit 1567 m</name></wpt><wpt lat="62.386443" lon="9.526276"><ele>1567</ele><name>Unnamed summit 1567 m</name></wpt><trk><name>Up · Unnamed summit 1567 m</name><desc>least-cost ascent: +928 m over 6839 m, max 35°, 0.3% on 30–35°, ≈4.03 h at 4 km/h + 400 m/h. Terrain possibility, not a checked route.</desc><trkseg><trkpt lat="62.376194" lon="9.639588"><ele>730</ele></trkpt><trkpt lat="62.376157" lon="9.638625"><ele>726</ele></trkpt><trkpt lat="62.376299" lon="9.637631"><ele>733</ele></trkpt><trkpt lat="62.376261" lon="9.636669"><ele>736</ele></trkpt><trkpt lat="62.376492" lon="9.635658"><ele>737</ele></trkpt><trkpt lat="62.376723" lon="9.634648"><ele>752</ele></trkpt><trkpt lat="62.376597" lon="9.633702"><ele>772</ele></trkpt><trkpt lat="62.376560" lon="9.632739"><ele>785</ele></trkpt><trkpt lat="62.376254" lon="9.631825"><ele>790</ele></trkpt><trkpt lat="62.376038" lon="9.630895"><ele>806</ele></trkpt><trkpt lat="62.375912" lon="9.629949"><ele>834</ele></trkpt><trkpt lat="62.376143" lon="9.628938"><ele>860</ele></trkpt><trkpt lat="62.376374" lon="9.627928"><ele>881</ele></trkpt><trkpt lat="62.376515" lon="9.626933"><ele>888</ele></trkpt><trkpt lat="62.376478" lon="9.625971"><ele>890</ele></trkpt><trkpt lat="62.376441" lon="9.625009"><ele>890</ele></trkpt><trkpt lat="62.376403" lon="9.624047"><ele>896</ele></trkpt><trkpt lat="62.376723" lon="9.623020"><ele>897</ele></trkpt><trkpt lat="62.377133" lon="9.621977"><ele>902</ele></trkpt><trkpt lat="62.377543" lon="9.620935"><ele>910</ele></trkpt><trkpt lat="62.377773" lon="9.619924"><ele>917</ele></trkpt><trkpt lat="62.377736" lon="9.618962"><ele>922</ele></trkpt><trkpt lat="62.377699" lon="9.618000"><ele>924</ele></trkpt><trkpt lat="62.377662" lon="9.617037"><ele>926</ele></trkpt><trkpt lat="62.377624" lon="9.616075"><ele>927</ele></trkpt><trkpt lat="62.377944" lon="9.615048"><ele>930</ele></trkpt><trkpt lat="62.378354" lon="9.614006"><ele>933</ele></trkpt><trkpt lat="62.378585" lon="9.612995"><ele>942</ele></trkpt><trkpt lat="62.378905" lon="9.611968"><ele>940</ele></trkpt><trkpt lat="62.379046" lon="9.610974"><ele>946</ele></trkpt><trkpt lat="62.379277" lon="9.609963"><ele>950</ele></trkpt><trkpt lat="62.379240" lon="9.609001"><ele>958</ele></trkpt><trkpt lat="62.379560" lon="9.607974"><ele>964</ele></trkpt><trkpt lat="62.379612" lon="9.606996"><ele>973</ele></trkpt><trkpt lat="62.379664" lon="9.606017"><ele>980</ele></trkpt><trkpt lat="62.379716" lon="9.605039"><ele>989</ele></trkpt><trkpt lat="62.379768" lon="9.604060"><ele>994</ele></trkpt><trkpt lat="62.379909" lon="9.603065"><ele>997</ele></trkpt><trkpt lat="62.379961" lon="9.602087"><ele>1007</ele></trkpt><trkpt lat="62.380013" lon="9.601108"><ele>1012</ele></trkpt><trkpt lat="62.380065" lon="9.600130"><ele>1019</ele></trkpt><trkpt lat="62.380027" lon="9.599168"><ele>1022</ele></trkpt><trkpt lat="62.379990" lon="9.598205"><ele>1027</ele></trkpt><trkpt lat="62.379952" lon="9.597243"><ele>1035</ele></trkpt><trkpt lat="62.379915" lon="9.596280"><ele>1042</ele></trkpt><trkpt lat="62.379878" lon="9.595318"><ele>1049</ele></trkpt><trkpt lat="62.379840" lon="9.594356"><ele>1054</ele></trkpt><trkpt lat="62.379803" lon="9.593393"><ele>1056</ele></trkpt><trkpt lat="62.379765" lon="9.592431"><ele>1063</ele></trkpt><trkpt lat="62.379728" lon="9.591469"><ele>1065</ele></trkpt><trkpt lat="62.379511" lon="9.590539"><ele>1063</ele></trkpt><trkpt lat="62.379474" lon="9.589576"><ele>1064</ele></trkpt><trkpt lat="62.379436" lon="9.588614"><ele>1067</ele></trkpt><trkpt lat="62.379220" lon="9.587684"><ele>1064</ele></trkpt><trkpt lat="62.379183" lon="9.586721"><ele>1069</ele></trkpt><trkpt lat="62.379145" lon="9.585759"><ele>1071</ele></trkpt><trkpt lat="62.379108" lon="9.584797"><ele>1070</ele></trkpt><trkpt lat="62.379070" lon="9.583834"><ele>1074</ele></trkpt><trkpt lat="62.379033" lon="9.582872"><ele>1073</ele></trkpt><trkpt lat="62.378995" lon="9.581910"><ele>1078</ele></trkpt><trkpt lat="62.378957" lon="9.580948"><ele>1080</ele></trkpt><trkpt lat="62.378831" lon="9.580001"><ele>1079</ele></trkpt><trkpt lat="62.378704" lon="9.579055"><ele>1079</ele></trkpt><trkpt lat="62.378577" lon="9.578109"><ele>1082</ele></trkpt><trkpt lat="62.378360" lon="9.577179"><ele>1080</ele></trkpt><trkpt lat="62.378323" lon="9.576217"><ele>1090</ele></trkpt><trkpt lat="62.378017" lon="9.575303"><ele>1086</ele></trkpt><trkpt lat="62.377980" lon="9.574341"><ele>1094</ele></trkpt><trkpt lat="62.377942" lon="9.573379"><ele>1100</ele></trkpt><trkpt lat="62.377726" lon="9.572449"><ele>1103</ele></trkpt><trkpt lat="62.377509" lon="9.571519"><ele>1106</ele></trkpt><trkpt lat="62.377114" lon="9.570622"><ele>1096</ele></trkpt><trkpt lat="62.376987" lon="9.569675"><ele>1095</ele></trkpt><trkpt lat="62.376950" lon="9.568713"><ele>1102</ele></trkpt><trkpt lat="62.377001" lon="9.567735"><ele>1107</ele></trkpt><trkpt lat="62.377053" lon="9.566756"><ele>1110</ele></trkpt><trkpt lat="62.377194" lon="9.565762"><ele>1112</ele></trkpt><trkpt lat="62.377246" lon="9.564783"><ele>1119</ele></trkpt><trkpt lat="62.377208" lon="9.563821"><ele>1123</ele></trkpt><trkpt lat="62.377260" lon="9.562843"><ele>1126</ele></trkpt><trkpt lat="62.377133" lon="9.561897"><ele>1131</ele></trkpt><trkpt lat="62.376916" lon="9.560967"><ele>1136</ele></trkpt><trkpt lat="62.376611" lon="9.560053"><ele>1142</ele></trkpt><trkpt lat="62.376573" lon="9.559091"><ele>1150</ele></trkpt><trkpt lat="62.376535" lon="9.558129"><ele>1161</ele></trkpt><trkpt lat="62.376498" lon="9.557167"><ele>1169</ele></trkpt><trkpt lat="62.376460" lon="9.556204"><ele>1180</ele></trkpt><trkpt lat="62.376422" lon="9.555242"><ele>1188</ele></trkpt><trkpt lat="62.376384" lon="9.554280"><ele>1199</ele></trkpt><trkpt lat="62.376704" lon="9.553253"><ele>1227</ele></trkpt><trkpt lat="62.377024" lon="9.552226"><ele>1253</ele></trkpt><trkpt lat="62.377433" lon="9.551182"><ele>1281</ele></trkpt><trkpt lat="62.377752" lon="9.550155"><ele>1306</ele></trkpt><trkpt lat="62.378072" lon="9.549127"><ele>1325</ele></trkpt><trkpt lat="62.378124" lon="9.548149"><ele>1339</ele></trkpt><trkpt lat="62.378265" lon="9.547154"><ele>1346</ele></trkpt><trkpt lat="62.378673" lon="9.546110"><ele>1354</ele></trkpt><trkpt lat="62.379082" lon="9.545067"><ele>1363</ele></trkpt><trkpt lat="62.379491" lon="9.544023"><ele>1376</ele></trkpt><trkpt lat="62.379900" lon="9.542979"><ele>1383</ele></trkpt><trkpt lat="62.380309" lon="9.541936"><ele>1395</ele></trkpt><trkpt lat="62.380718" lon="9.540892"><ele>1417</ele></trkpt><trkpt lat="62.381127" lon="9.539848"><ele>1434</ele></trkpt><trkpt lat="62.381536" lon="9.538804"><ele>1447</ele></trkpt><trkpt lat="62.381945" lon="9.537760"><ele>1460</ele></trkpt><trkpt lat="62.382354" lon="9.536716"><ele>1476</ele></trkpt><trkpt lat="62.382763" lon="9.535673"><ele>1495</ele></trkpt><trkpt lat="62.383179" lon="9.534821"><ele>1520</ele></trkpt><trkpt lat="62.383409" lon="9.533810"><ele>1532</ele></trkpt><trkpt lat="62.383818" lon="9.532766"><ele>1537</ele></trkpt><trkpt lat="62.384227" lon="9.531722"><ele>1540</ele></trkpt><trkpt lat="62.384636" lon="9.530678"><ele>1541</ele></trkpt><trkpt lat="62.385053" lon="9.529826"><ele>1542</ele></trkpt><trkpt lat="62.385461" lon="9.528782"><ele>1549</ele></trkpt><trkpt lat="62.385870" lon="9.527738"><ele>1559</ele></trkpt><trkpt lat="62.386279" lon="9.526694"><ele>1566</ele></trkpt><trkpt lat="62.386443" lon="9.526276"><ele>1567</ele></trkpt></trkseg></trk><wpt lat="62.376826" lon="9.558657"><ele>1158</ele><name>Run end · Unnamed summit 1567 m</name></wpt><trk><name>Down · Unnamed summit 1567 m</name><desc>fall-line run: 543 m of 20–30°, 322 m drop, aspect 135°, max 28°, 0.0% ≥30°; ends 4.19 km from the car.</desc><trkseg><trkpt lat="62.386443" lon="9.526276"><ele>1567</ele></trkpt><trkpt lat="62.383659" lon="9.540161"><ele>1480</ele></trkpt><trkpt lat="62.383950" lon="9.540690"><ele>1462</ele></trkpt><trkpt lat="62.384152" lon="9.541235"><ele>1449</ele></trkpt><trkpt lat="62.384174" lon="9.541812"><ele>1443</ele></trkpt><trkpt lat="62.384197" lon="9.542390"><ele>1435</ele></trkpt><trkpt lat="62.384220" lon="9.542967"><ele>1429</ele></trkpt><trkpt lat="62.384242" lon="9.543545"><ele>1421</ele></trkpt><trkpt lat="62.384265" lon="9.544122"><ele>1417</ele></trkpt><trkpt lat="62.384288" lon="9.544700"><ele>1414</ele></trkpt><trkpt lat="62.384400" lon="9.545261"><ele>1410</ele></trkpt><trkpt lat="62.384333" lon="9.545855"><ele>1406</ele></trkpt><trkpt lat="62.384177" lon="9.546465"><ele>1403</ele></trkpt><trkpt lat="62.384200" lon="9.547042"><ele>1402</ele></trkpt><trkpt lat="62.384133" lon="9.547636"><ele>1396</ele></trkpt><trkpt lat="62.383977" lon="9.548246"><ele>1391</ele></trkpt><trkpt lat="62.383732" lon="9.548872"><ele>1386</ele></trkpt><trkpt lat="62.383486" lon="9.549498"><ele>1381</ele></trkpt><trkpt lat="62.383241" lon="9.550125"><ele>1371</ele></trkpt><trkpt lat="62.382973" lon="9.550173"><ele>1369</ele></trkpt><trkpt lat="62.382705" lon="9.550222"><ele>1367</ele></trkpt><trkpt lat="62.382429" lon="9.550079"><ele>1366</ele></trkpt><trkpt lat="62.382161" lon="9.550127"><ele>1364</ele></trkpt><trkpt lat="62.381893" lon="9.550176"><ele>1361</ele></trkpt><trkpt lat="62.381625" lon="9.550225"><ele>1357</ele></trkpt><trkpt lat="62.381364" lon="9.550466"><ele>1353</ele></trkpt><trkpt lat="62.381111" lon="9.550900"><ele>1350</ele></trkpt><trkpt lat="62.380866" lon="9.551526"><ele>1346</ele></trkpt><trkpt lat="62.380621" lon="9.552152"><ele>1343</ele></trkpt><trkpt lat="62.380368" lon="9.552586"><ele>1339</ele></trkpt><trkpt lat="62.380107" lon="9.552827"><ele>1333</ele></trkpt><trkpt lat="62.379854" lon="9.553261"><ele>1324</ele></trkpt><trkpt lat="62.379594" lon="9.553502"><ele>1317</ele></trkpt><trkpt lat="62.379326" lon="9.553551"><ele>1309</ele></trkpt><trkpt lat="62.379065" lon="9.553792"><ele>1299</ele></trkpt><trkpt lat="62.378820" lon="9.554418"><ele>1284</ele></trkpt><trkpt lat="62.378663" lon="9.555028"><ele>1272</ele></trkpt><trkpt lat="62.378507" lon="9.555638"><ele>1258</ele></trkpt><trkpt lat="62.378254" lon="9.556072"><ele>1243</ele></trkpt><trkpt lat="62.377994" lon="9.556313"><ele>1230</ele></trkpt><trkpt lat="62.377748" lon="9.556939"><ele>1216</ele></trkpt><trkpt lat="62.377496" lon="9.557373"><ele>1200</ele></trkpt><trkpt lat="62.377250" lon="9.557999"><ele>1182</ele></trkpt><trkpt lat="62.377005" lon="9.558625"><ele>1166</ele></trkpt><trkpt lat="62.376826" lon="9.558657"><ele>1158</ele></trkpt></trkseg></trk></gpx>