<?xml version="1.0" encoding="UTF-8"?>
<gpx version="1.1" creator="Rando toppturs" xmlns="http://www.topografix.com/GPX/1/1"><metadata><name>065 Resfjellet 1163 m</name><desc>Generated 2026-09-13 17:42 from Kartverket 10 m terrain. Ascent lines are least-cost terrain paths under 35°, not verified routes. Not a snow-stability assessment.</desc></metadata><wpt lat="62.975340" lon="9.590730"><ele>611</ele><name>Car · Resfjellet 1163 m</name></wpt><wpt lat="63.000094" lon="9.593263"><ele>1163</ele><name>Resfjellet 1163 m</name></wpt><trk><name>Up · Resfjellet 1163 m</name><desc>least-cost ascent: +607 m over 3051 m, max 33°, 0.4% on 30–35°, ≈2.28 h at 4 km/h + 400 m/h. Terrain possibility, not a checked route.</desc><trkseg><trkpt lat="62.975340" lon="9.590730"><ele>611</ele></trkpt><trkpt lat="62.975787" lon="9.590647"><ele>620</ele></trkpt><trkpt lat="62.976233" lon="9.590565"><ele>633</ele></trkpt><trkpt lat="62.976680" lon="9.590482"><ele>638</ele></trkpt><trkpt lat="62.977127" lon="9.590399"><ele>647</ele></trkpt><trkpt lat="62.977574" lon="9.590316"><ele>642</ele></trkpt><trkpt lat="62.978020" lon="9.590233"><ele>652</ele></trkpt><trkpt lat="62.978467" lon="9.590150"><ele>663</ele></trkpt><trkpt lat="62.978914" lon="9.590068"><ele>671</ele></trkpt><trkpt lat="62.979361" lon="9.589985"><ele>664</ele></trkpt><trkpt lat="62.979845" lon="9.590884"><ele>664</ele></trkpt><trkpt lat="62.980322" lon="9.591587"><ele>671</ele></trkpt><trkpt lat="62.980769" lon="9.591504"><ele>694</ele></trkpt><trkpt lat="62.981216" lon="9.591421"><ele>710</ele></trkpt><trkpt lat="62.981662" lon="9.591338"><ele>712</ele></trkpt><trkpt lat="62.982109" lon="9.591255"><ele>707</ele></trkpt><trkpt lat="62.982556" lon="9.591173"><ele>694</ele></trkpt><trkpt lat="62.983003" lon="9.591090"><ele>680</ele></trkpt><trkpt lat="62.983450" lon="9.591007"><ele>681</ele></trkpt><trkpt lat="62.983896" lon="9.590924"><ele>687</ele></trkpt><trkpt lat="62.984343" lon="9.590841"><ele>701</ele></trkpt><trkpt lat="62.984790" lon="9.590758"><ele>714</ele></trkpt><trkpt lat="62.985244" lon="9.590872"><ele>735</ele></trkpt><trkpt lat="62.985698" lon="9.590985"><ele>754</ele></trkpt><trkpt lat="62.986153" lon="9.591099"><ele>769</ele></trkpt><trkpt lat="62.986600" lon="9.591016"><ele>779</ele></trkpt><trkpt lat="62.987046" lon="9.590933"><ele>788</ele></trkpt><trkpt lat="62.987493" lon="9.590850"><ele>799</ele></trkpt><trkpt lat="62.987940" lon="9.590768"><ele>808</ele></trkpt><trkpt lat="62.988387" lon="9.590685"><ele>823</ele></trkpt><trkpt lat="62.988833" lon="9.590602"><ele>835</ele></trkpt><trkpt lat="62.989280" lon="9.590519"><ele>840</ele></trkpt><trkpt lat="62.989697" lon="9.589650"><ele>853</ele></trkpt><trkpt lat="62.990143" lon="9.589567"><ele>866</ele></trkpt><trkpt lat="62.990590" lon="9.589484"><ele>883</ele></trkpt><trkpt lat="62.991029" lon="9.589205"><ele>902</ele></trkpt><trkpt lat="62.991476" lon="9.589122"><ele>928</ele></trkpt><trkpt lat="62.991923" lon="9.589039"><ele>938</ele></trkpt><trkpt lat="62.992370" lon="9.588956"><ele>939</ele></trkpt><trkpt lat="62.992817" lon="9.588873"><ele>948</ele></trkpt><trkpt lat="62.993248" lon="9.588398"><ele>963</ele></trkpt><trkpt lat="62.993695" lon="9.588315"><ele>964</ele></trkpt><trkpt lat="62.994142" lon="9.588232"><ele>968</ele></trkpt><trkpt lat="62.994604" lon="9.588542"><ele>991</ele></trkpt><trkpt lat="62.995050" lon="9.588459"><ele>1011</ele></trkpt><trkpt lat="62.995445" lon="9.589375"><ele>1040</ele></trkpt><trkpt lat="62.995915" lon="9.589882"><ele>1069</ele></trkpt><trkpt lat="62.996369" lon="9.589995"><ele>1082</ele></trkpt><trkpt lat="62.996854" lon="9.590895"><ele>1100</ele></trkpt><trkpt lat="62.997315" lon="9.591205"><ele>1113</ele></trkpt><trkpt lat="62.997762" lon="9.591122"><ele>1122</ele></trkpt><trkpt lat="62.998209" lon="9.591039"><ele>1125</ele></trkpt><trkpt lat="62.998671" lon="9.591349"><ele>1134</ele></trkpt><trkpt lat="62.999133" lon="9.591660"><ele>1135</ele></trkpt><trkpt lat="62.999610" lon="9.592363"><ele>1152</ele></trkpt><trkpt lat="63.000094" lon="9.593263"><ele>1163</ele></trkpt><trkpt lat="63.000094" lon="9.593263"><ele>1163</ele></trkpt></trkseg></trk><wpt lat="62.990406" lon="9.612868"><ele>741</ele><name>Run end · Resfjellet 1163 m</name></wpt><trk><name>Down · Resfjellet 1163 m</name><desc>fall-line run: 487 m of 20–30°, 310 m drop, aspect 141°, max 32°, 2.6% ≥30°; ends 2.02 km from the car.</desc><trkseg><trkpt lat="63.000094" lon="9.593263"><ele>1163</ele></trkpt><trkpt lat="62.995830" lon="9.599397"><ele>1051</ele></trkpt><trkpt lat="62.995584" lon="9.600037"><ele>1035</ele></trkpt><trkpt lat="62.995339" lon="9.600676"><ele>1020</ele></trkpt><trkpt lat="62.995093" lon="9.601315"><ele>1006</ele></trkpt><trkpt lat="62.994840" lon="9.601758"><ele>998</ele></trkpt><trkpt lat="62.994587" lon="9.602200"><ele>994</ele></trkpt><trkpt lat="62.994342" lon="9.602839"><ele>983</ele></trkpt><trkpt lat="62.994096" lon="9.603479"><ele>969</ele></trkpt><trkpt lat="62.993851" lon="9.604118"><ele>955</ele></trkpt><trkpt lat="62.993605" lon="9.604757"><ele>940</ele></trkpt><trkpt lat="62.993360" lon="9.605396"><ele>920</ele></trkpt><trkpt lat="62.993099" lon="9.605642"><ele>907</ele></trkpt><trkpt lat="62.992831" lon="9.605692"><ele>896</ele></trkpt><trkpt lat="62.992675" lon="9.606314"><ele>883</ele></trkpt><trkpt lat="62.992697" lon="9.606904"><ele>876</ele></trkpt><trkpt lat="62.992631" lon="9.607510"><ele>869</ele></trkpt><trkpt lat="62.992385" lon="9.608149"><ele>865</ele></trkpt><trkpt lat="62.992140" lon="9.608788"><ele>856</ele></trkpt><trkpt lat="62.991894" lon="9.609427"><ele>838</ele></trkpt><trkpt lat="62.991648" lon="9.610066"><ele>817</ele></trkpt><trkpt lat="62.991582" lon="9.610672"><ele>811</ele></trkpt><trkpt lat="62.991425" lon="9.611294"><ele>803</ele></trkpt><trkpt lat="62.991172" lon="9.611737"><ele>784</ele></trkpt><trkpt lat="62.990912" lon="9.611983"><ele>767</ele></trkpt><trkpt lat="62.990659" lon="9.612426"><ele>756</ele></trkpt><trkpt lat="62.990406" lon="9.612868"><ele>741</ele></trkpt><trkpt lat="62.990406" lon="9.612868"><ele>741</ele></trkpt></trkseg></trk></gpx>