<?xml version="1.0" encoding="UTF-8"?>
<gpx version="1.1" creator="Rando toppturs" xmlns="http://www.topografix.com/GPX/1/1"><metadata><name>066 Høgtangan 1804 m</name><desc>Generated 2026-09-13 17:42 from Kartverket 10 m terrain. Ascent lines are least-cost terrain paths under 35°, not verified routes. Not a snow-stability assessment.</desc></metadata><wpt lat="62.498907" lon="9.087487"><ele>751</ele><name>Car · Høgtangan 1804 m</name></wpt><wpt lat="62.437652" lon="9.082528"><ele>1804</ele><name>Høgtangan 1804 m</name></wpt><trk><name>Up · Høgtangan 1804 m</name><desc>least-cost ascent: +1206 m over 8074 m, max 34°, 0.6% on 30–35°, ≈5.03 h at 4 km/h + 400 m/h. Terrain possibility, not a checked route.</desc><trkseg><trkpt lat="62.498907" lon="9.087487"><ele>751</ele></trkpt><trkpt lat="62.498428" lon="9.086804"><ele>752</ele></trkpt><trkpt lat="62.497965" lon="9.086506"><ele>762</ele></trkpt><trkpt lat="62.497519" lon="9.086595"><ele>763</ele></trkpt><trkpt lat="62.497072" lon="9.086684"><ele>763</ele></trkpt><trkpt lat="62.496593" lon="9.086000"><ele>763</ele></trkpt><trkpt lat="62.496147" lon="9.086089"><ele>775</ele></trkpt><trkpt lat="62.495659" lon="9.085212"><ele>774</ele></trkpt><trkpt lat="62.495172" lon="9.084336"><ele>773</ele></trkpt><trkpt lat="62.494684" lon="9.083459"><ele>773</ele></trkpt><trkpt lat="62.494197" lon="9.082583"><ele>772</ele></trkpt><trkpt lat="62.493710" lon="9.081706"><ele>771</ele></trkpt><trkpt lat="62.493222" lon="9.080830"><ele>771</ele></trkpt><trkpt lat="62.492735" lon="9.079953"><ele>777</ele></trkpt><trkpt lat="62.492247" lon="9.079077"><ele>773</ele></trkpt><trkpt lat="62.491760" lon="9.078201"><ele>771</ele></trkpt><trkpt lat="62.491289" lon="9.077710"><ele>756</ele></trkpt><trkpt lat="62.490826" lon="9.077413"><ele>738</ele></trkpt><trkpt lat="62.490606" lon="9.076484"><ele>722</ele></trkpt><trkpt lat="62.490565" lon="9.075519"><ele>708</ele></trkpt><trkpt lat="62.490345" lon="9.074589"><ele>694</ele></trkpt><trkpt lat="62.489858" lon="9.073713"><ele>690</ele></trkpt><trkpt lat="62.489371" lon="9.072837"><ele>690</ele></trkpt><trkpt lat="62.488883" lon="9.071961"><ele>684</ele></trkpt><trkpt lat="62.488395" lon="9.071084"><ele>683</ele></trkpt><trkpt lat="62.487924" lon="9.070594"><ele>689</ele></trkpt><trkpt lat="62.487478" lon="9.070683"><ele>698</ele></trkpt><trkpt lat="62.486991" lon="9.069807"><ele>693</ele></trkpt><trkpt lat="62.486511" lon="9.069124"><ele>692</ele></trkpt><trkpt lat="62.486024" lon="9.068248"><ele>692</ele></trkpt><trkpt lat="62.485544" lon="9.067565"><ele>693</ele></trkpt><trkpt lat="62.485065" lon="9.066882"><ele>693</ele></trkpt><trkpt lat="62.484602" lon="9.066585"><ele>696</ele></trkpt><trkpt lat="62.484131" lon="9.066095"><ele>698</ele></trkpt><trkpt lat="62.483685" lon="9.066184"><ele>708</ele></trkpt><trkpt lat="62.483238" lon="9.066273"><ele>714</ele></trkpt><trkpt lat="62.482792" lon="9.066362"><ele>729</ele></trkpt><trkpt lat="62.482321" lon="9.065872"><ele>750</ele></trkpt><trkpt lat="62.481858" lon="9.065575"><ele>769</ele></trkpt><trkpt lat="62.481403" lon="9.065471"><ele>792</ele></trkpt><trkpt lat="62.480957" lon="9.065560"><ele>795</ele></trkpt><trkpt lat="62.480511" lon="9.065649"><ele>802</ele></trkpt><trkpt lat="62.480064" lon="9.065738"><ele>816</ele></trkpt><trkpt lat="62.479618" lon="9.065827"><ele>833</ele></trkpt><trkpt lat="62.479155" lon="9.065530"><ele>850</ele></trkpt><trkpt lat="62.478709" lon="9.065619"><ele>851</ele></trkpt><trkpt lat="62.478262" lon="9.065708"><ele>864</ele></trkpt><trkpt lat="62.477816" lon="9.065797"><ele>880</ele></trkpt><trkpt lat="62.477369" lon="9.065886"><ele>896</ele></trkpt><trkpt lat="62.476907" lon="9.065589"><ele>917</ele></trkpt><trkpt lat="62.476460" lon="9.065678"><ele>931</ele></trkpt><trkpt lat="62.476014" lon="9.065766"><ele>945</ele></trkpt><trkpt lat="62.475559" lon="9.065662"><ele>960</ele></trkpt><trkpt lat="62.475072" lon="9.064787"><ele>982</ele></trkpt><trkpt lat="62.474617" lon="9.064683"><ele>1004</ele></trkpt><trkpt lat="62.474171" lon="9.064772"><ele>1018</ele></trkpt><trkpt lat="62.473700" lon="9.064282"><ele>1045</ele></trkpt><trkpt lat="62.473253" lon="9.064371"><ele>1065</ele></trkpt><trkpt lat="62.472782" lon="9.063881"><ele>1091</ele></trkpt><trkpt lat="62.472303" lon="9.063199"><ele>1126</ele></trkpt><trkpt lat="62.472172" lon="9.062252"><ele>1140</ele></trkpt><trkpt lat="62.471685" lon="9.061376"><ele>1168</ele></trkpt><trkpt lat="62.471214" lon="9.060887"><ele>1190</ele></trkpt><trkpt lat="62.470767" lon="9.060976"><ele>1210</ele></trkpt><trkpt lat="62.470346" lon="9.061643"><ele>1229</ele></trkpt><trkpt lat="62.469899" lon="9.061732"><ele>1255</ele></trkpt><trkpt lat="62.469436" lon="9.061435"><ele>1285</ele></trkpt><trkpt lat="62.469023" lon="9.062296"><ele>1308</ele></trkpt><trkpt lat="62.468618" lon="9.063349"><ele>1323</ele></trkpt><trkpt lat="62.468212" lon="9.064402"><ele>1331</ele></trkpt><trkpt lat="62.467807" lon="9.065456"><ele>1338</ele></trkpt><trkpt lat="62.467402" lon="9.066509"><ele>1350</ele></trkpt><trkpt lat="62.466972" lon="9.066983"><ele>1372</ele></trkpt><trkpt lat="62.466526" lon="9.067072"><ele>1385</ele></trkpt><trkpt lat="62.466104" lon="9.067740"><ele>1395</ele></trkpt><trkpt lat="62.465666" lon="9.068021"><ele>1408</ele></trkpt><trkpt lat="62.465244" lon="9.068689"><ele>1410</ele></trkpt><trkpt lat="62.464822" lon="9.069356"><ele>1419</ele></trkpt><trkpt lat="62.464384" lon="9.069638"><ele>1425</ele></trkpt><trkpt lat="62.463971" lon="9.070498"><ele>1425</ele></trkpt><trkpt lat="62.463532" lon="9.070780"><ele>1427</ele></trkpt><trkpt lat="62.463086" lon="9.070868"><ele>1429</ele></trkpt><trkpt lat="62.462640" lon="9.070957"><ele>1431</ele></trkpt><trkpt lat="62.462193" lon="9.071046"><ele>1430</ele></trkpt><trkpt lat="62.461747" lon="9.071135"><ele>1429</ele></trkpt><trkpt lat="62.461300" lon="9.071223"><ele>1434</ele></trkpt><trkpt lat="62.460854" lon="9.071312"><ele>1435</ele></trkpt><trkpt lat="62.460424" lon="9.071787"><ele>1436</ele></trkpt><trkpt lat="62.460002" lon="9.072454"><ele>1437</ele></trkpt><trkpt lat="62.459556" lon="9.072543"><ele>1443</ele></trkpt><trkpt lat="62.459110" lon="9.072631"><ele>1446</ele></trkpt><trkpt lat="62.458663" lon="9.072720"><ele>1450</ele></trkpt><trkpt lat="62.458217" lon="9.072809"><ele>1447</ele></trkpt><trkpt lat="62.457770" lon="9.072898"><ele>1448</ele></trkpt><trkpt lat="62.457324" lon="9.072986"><ele>1449</ele></trkpt><trkpt lat="62.456878" lon="9.073075"><ele>1450</ele></trkpt><trkpt lat="62.456431" lon="9.073164"><ele>1451</ele></trkpt><trkpt lat="62.455985" lon="9.073252"><ele>1456</ele></trkpt><trkpt lat="62.455538" lon="9.073341"><ele>1456</ele></trkpt><trkpt lat="62.455092" lon="9.073430"><ele>1462</ele></trkpt><trkpt lat="62.454646" lon="9.073519"><ele>1464</ele></trkpt><trkpt lat="62.454199" lon="9.073607"><ele>1473</ele></trkpt><trkpt lat="62.453753" lon="9.073696"><ele>1477</ele></trkpt><trkpt lat="62.453306" lon="9.073785"><ele>1487</ele></trkpt><trkpt lat="62.452860" lon="9.073874"><ele>1494</ele></trkpt><trkpt lat="62.452414" lon="9.073962"><ele>1499</ele></trkpt><trkpt lat="62.451967" lon="9.074051"><ele>1505</ele></trkpt><trkpt lat="62.451521" lon="9.074140"><ele>1510</ele></trkpt><trkpt lat="62.451074" lon="9.074228"><ele>1517</ele></trkpt><trkpt lat="62.450628" lon="9.074317"><ele>1524</ele></trkpt><trkpt lat="62.450182" lon="9.074406"><ele>1530</ele></trkpt><trkpt lat="62.449735" lon="9.074494"><ele>1539</ele></trkpt><trkpt lat="62.449289" lon="9.074583"><ele>1546</ele></trkpt><trkpt lat="62.448842" lon="9.074672"><ele>1555</ele></trkpt><trkpt lat="62.448396" lon="9.074760"><ele>1555</ele></trkpt><trkpt lat="62.447950" lon="9.074849"><ele>1561</ele></trkpt><trkpt lat="62.447503" lon="9.074938"><ele>1565</ele></trkpt><trkpt lat="62.447057" lon="9.075026"><ele>1565</ele></trkpt><trkpt lat="62.446610" lon="9.075115"><ele>1568</ele></trkpt><trkpt lat="62.446164" lon="9.075204"><ele>1573</ele></trkpt><trkpt lat="62.445718" lon="9.075292"><ele>1585</ele></trkpt><trkpt lat="62.445288" lon="9.075767"><ele>1598</ele></trkpt><trkpt lat="62.444874" lon="9.076626"><ele>1615</ele></trkpt><trkpt lat="62.444460" lon="9.077486"><ele>1633</ele></trkpt><trkpt lat="62.444030" lon="9.077960"><ele>1651</ele></trkpt><trkpt lat="62.443625" lon="9.079012"><ele>1670</ele></trkpt><trkpt lat="62.443203" lon="9.079678"><ele>1690</ele></trkpt><trkpt lat="62.442757" lon="9.079767"><ele>1705</ele></trkpt><trkpt lat="62.442310" lon="9.079856"><ele>1719</ele></trkpt><trkpt lat="62.441864" lon="9.079944"><ele>1732</ele></trkpt><trkpt lat="62.441418" lon="9.080033"><ele>1737</ele></trkpt><trkpt lat="62.440971" lon="9.080121"><ele>1736</ele></trkpt><trkpt lat="62.440525" lon="9.080210"><ele>1743</ele></trkpt><trkpt lat="62.440078" lon="9.080298"><ele>1752</ele></trkpt><trkpt lat="62.439632" lon="9.080387"><ele>1758</ele></trkpt><trkpt lat="62.439186" lon="9.080476"><ele>1764</ele></trkpt><trkpt lat="62.438739" lon="9.080564"><ele>1775</ele></trkpt><trkpt lat="62.438301" lon="9.080845"><ele>1787</ele></trkpt><trkpt lat="62.437896" lon="9.081897"><ele>1802</ele></trkpt><trkpt lat="62.437652" lon="9.082528"><ele>1804</ele></trkpt></trkseg></trk><wpt lat="62.448865" lon="9.087885"><ele>1499</ele><name>Run end · Høgtangan 1804 m</name></wpt><trk><name>Down · Høgtangan 1804 m</name><desc>fall-line run: 485 m of 20–30°, 215 m drop, aspect 6°, max 31°, 3.8% ≥30°; ends 5.58 km from the car.</desc><trkseg><trkpt lat="62.437652" lon="9.082528"><ele>1804</ele></trkpt><trkpt lat="62.444278" lon="9.088016"><ele>1714</ele></trkpt><trkpt lat="62.444546" lon="9.087963"><ele>1701</ele></trkpt><trkpt lat="62.444814" lon="9.087910"><ele>1689</ele></trkpt><trkpt lat="62.445082" lon="9.087857"><ele>1677</ele></trkpt><trkpt lat="62.445350" lon="9.087804"><ele>1665</ele></trkpt><trkpt lat="62.445618" lon="9.087751"><ele>1652</ele></trkpt><trkpt lat="62.445886" lon="9.087698"><ele>1637</ele></trkpt><trkpt lat="62.446153" lon="9.087645"><ele>1620</ele></trkpt><trkpt lat="62.446421" lon="9.087592"><ele>1603</ele></trkpt><trkpt lat="62.446689" lon="9.087538"><ele>1589</ele></trkpt><trkpt lat="62.446957" lon="9.087485"><ele>1578</ele></trkpt><trkpt lat="62.447225" lon="9.087432"><ele>1563</ele></trkpt><trkpt lat="62.447493" lon="9.087379"><ele>1552</ele></trkpt><trkpt lat="62.447760" lon="9.087326"><ele>1543</ele></trkpt><trkpt lat="62.448028" lon="9.087273"><ele>1531</ele></trkpt><trkpt lat="62.448313" lon="9.087605"><ele>1517</ele></trkpt><trkpt lat="62.448580" lon="9.087552"><ele>1510</ele></trkpt><trkpt lat="62.448865" lon="9.087885"><ele>1499</ele></trkpt><trkpt lat="62.448865" lon="9.087885"><ele>1499</ele></trkpt></trkseg></trk></gpx>