<?xml version="1.0" encoding="UTF-8"?>
<gpx version="1.1" creator="Rando toppturs" xmlns="http://www.topografix.com/GPX/1/1"><metadata><name>067 Litlskrymten 1958 m</name><desc>Generated 2026-09-13 17:42 from Kartverket 10 m terrain. Ascent lines are least-cost terrain paths under 35°, not verified routes. Not a snow-stability assessment.</desc></metadata><wpt lat="62.498907" lon="9.087487"><ele>751</ele><name>Car · Litlskrymten 1958 m</name></wpt><wpt lat="62.377635" lon="9.085482"><ele>1958</ele><name>Litlskrymten 1958 m</name></wpt><trk><name>Up · Litlskrymten 1958 m</name><desc>least-cost ascent: +1607 m over 14688 m, max 34°, 0.3% on 30–35°, ≈7.69 h at 4 km/h + 400 m/h. Terrain possibility, not a checked route.</desc><trkseg><trkpt lat="62.498907" lon="9.087487"><ele>751</ele></trkpt><trkpt lat="62.498428" lon="9.086804"><ele>752</ele></trkpt><trkpt lat="62.497965" lon="9.086506"><ele>762</ele></trkpt><trkpt lat="62.497519" lon="9.086595"><ele>763</ele></trkpt><trkpt lat="62.497072" lon="9.086684"><ele>763</ele></trkpt><trkpt lat="62.496593" lon="9.086000"><ele>763</ele></trkpt><trkpt lat="62.496147" lon="9.086089"><ele>775</ele></trkpt><trkpt lat="62.495659" lon="9.085212"><ele>774</ele></trkpt><trkpt lat="62.495172" lon="9.084336"><ele>773</ele></trkpt><trkpt lat="62.494684" lon="9.083459"><ele>773</ele></trkpt><trkpt lat="62.494197" lon="9.082583"><ele>772</ele></trkpt><trkpt lat="62.493710" lon="9.081706"><ele>771</ele></trkpt><trkpt lat="62.493222" lon="9.080830"><ele>771</ele></trkpt><trkpt lat="62.492735" lon="9.079953"><ele>777</ele></trkpt><trkpt lat="62.492247" lon="9.079077"><ele>773</ele></trkpt><trkpt lat="62.491760" lon="9.078201"><ele>771</ele></trkpt><trkpt lat="62.491289" lon="9.077710"><ele>756</ele></trkpt><trkpt lat="62.490826" lon="9.077413"><ele>738</ele></trkpt><trkpt lat="62.490606" lon="9.076484"><ele>722</ele></trkpt><trkpt lat="62.490565" lon="9.075519"><ele>708</ele></trkpt><trkpt lat="62.490345" lon="9.074589"><ele>694</ele></trkpt><trkpt lat="62.489858" lon="9.073713"><ele>690</ele></trkpt><trkpt lat="62.489371" lon="9.072837"><ele>690</ele></trkpt><trkpt lat="62.488883" lon="9.071961"><ele>684</ele></trkpt><trkpt lat="62.488395" lon="9.071084"><ele>683</ele></trkpt><trkpt lat="62.487924" lon="9.070594"><ele>689</ele></trkpt><trkpt lat="62.487478" lon="9.070683"><ele>698</ele></trkpt><trkpt lat="62.486991" lon="9.069807"><ele>693</ele></trkpt><trkpt lat="62.486511" lon="9.069124"><ele>692</ele></trkpt><trkpt lat="62.486024" lon="9.068248"><ele>692</ele></trkpt><trkpt lat="62.485544" lon="9.067565"><ele>693</ele></trkpt><trkpt lat="62.485065" lon="9.066882"><ele>693</ele></trkpt><trkpt lat="62.484602" lon="9.066585"><ele>696</ele></trkpt><trkpt lat="62.484131" lon="9.066095"><ele>698</ele></trkpt><trkpt lat="62.483685" lon="9.066184"><ele>708</ele></trkpt><trkpt lat="62.483238" lon="9.066273"><ele>714</ele></trkpt><trkpt lat="62.482792" lon="9.066362"><ele>729</ele></trkpt><trkpt lat="62.482321" lon="9.065872"><ele>750</ele></trkpt><trkpt lat="62.481858" lon="9.065575"><ele>769</ele></trkpt><trkpt lat="62.481403" lon="9.065471"><ele>792</ele></trkpt><trkpt lat="62.480957" lon="9.065560"><ele>795</ele></trkpt><trkpt lat="62.480511" lon="9.065649"><ele>802</ele></trkpt><trkpt lat="62.480064" lon="9.065738"><ele>816</ele></trkpt><trkpt lat="62.479618" lon="9.065827"><ele>833</ele></trkpt><trkpt lat="62.479155" lon="9.065530"><ele>850</ele></trkpt><trkpt lat="62.478709" lon="9.065619"><ele>851</ele></trkpt><trkpt lat="62.478262" lon="9.065708"><ele>864</ele></trkpt><trkpt lat="62.477816" lon="9.065797"><ele>880</ele></trkpt><trkpt lat="62.477369" lon="9.065886"><ele>896</ele></trkpt><trkpt lat="62.476907" lon="9.065589"><ele>917</ele></trkpt><trkpt lat="62.476460" lon="9.065678"><ele>931</ele></trkpt><trkpt lat="62.476014" lon="9.065766"><ele>945</ele></trkpt><trkpt lat="62.475559" lon="9.065662"><ele>960</ele></trkpt><trkpt lat="62.475072" lon="9.064787"><ele>982</ele></trkpt><trkpt lat="62.474617" lon="9.064683"><ele>1004</ele></trkpt><trkpt lat="62.474171" lon="9.064772"><ele>1018</ele></trkpt><trkpt lat="62.473700" lon="9.064282"><ele>1045</ele></trkpt><trkpt lat="62.473253" lon="9.064371"><ele>1065</ele></trkpt><trkpt lat="62.472782" lon="9.063881"><ele>1091</ele></trkpt><trkpt lat="62.472303" lon="9.063199"><ele>1126</ele></trkpt><trkpt lat="62.472172" lon="9.062252"><ele>1140</ele></trkpt><trkpt lat="62.471685" lon="9.061376"><ele>1168</ele></trkpt><trkpt lat="62.471214" lon="9.060887"><ele>1190</ele></trkpt><trkpt lat="62.470767" lon="9.060976"><ele>1210</ele></trkpt><trkpt lat="62.470346" lon="9.061643"><ele>1229</ele></trkpt><trkpt lat="62.469899" lon="9.061732"><ele>1255</ele></trkpt><trkpt lat="62.469436" lon="9.061435"><ele>1285</ele></trkpt><trkpt lat="62.469023" lon="9.062296"><ele>1308</ele></trkpt><trkpt lat="62.468618" lon="9.063349"><ele>1323</ele></trkpt><trkpt lat="62.468212" lon="9.064402"><ele>1331</ele></trkpt><trkpt lat="62.467807" lon="9.065456"><ele>1338</ele></trkpt><trkpt lat="62.467402" lon="9.066509"><ele>1350</ele></trkpt><trkpt lat="62.466972" lon="9.066983"><ele>1372</ele></trkpt><trkpt lat="62.466526" lon="9.067072"><ele>1385</ele></trkpt><trkpt lat="62.466096" lon="9.067547"><ele>1397</ele></trkpt><trkpt lat="62.465641" lon="9.067443"><ele>1414</ele></trkpt><trkpt lat="62.465195" lon="9.067532"><ele>1427</ele></trkpt><trkpt lat="62.464748" lon="9.067620"><ele>1436</ele></trkpt><trkpt lat="62.464302" lon="9.067709"><ele>1439</ele></trkpt><trkpt lat="62.463855" lon="9.067798"><ele>1440</ele></trkpt><trkpt lat="62.463409" lon="9.067887"><ele>1441</ele></trkpt><trkpt lat="62.462963" lon="9.067976"><ele>1440</ele></trkpt><trkpt lat="62.462516" lon="9.068065"><ele>1440</ele></trkpt><trkpt lat="62.462070" lon="9.068153"><ele>1439</ele></trkpt><trkpt lat="62.461623" lon="9.068242"><ele>1440</ele></trkpt><trkpt lat="62.461177" lon="9.068331"><ele>1446</ele></trkpt><trkpt lat="62.460731" lon="9.068420"><ele>1448</ele></trkpt><trkpt lat="62.460284" lon="9.068509"><ele>1450</ele></trkpt><trkpt lat="62.459838" lon="9.068598"><ele>1455</ele></trkpt><trkpt lat="62.459391" lon="9.068686"><ele>1458</ele></trkpt><trkpt lat="62.458945" lon="9.068775"><ele>1458</ele></trkpt><trkpt lat="62.458499" lon="9.068864"><ele>1458</ele></trkpt><trkpt lat="62.458052" lon="9.068953"><ele>1458</ele></trkpt><trkpt lat="62.457606" lon="9.069042"><ele>1455</ele></trkpt><trkpt lat="62.457160" lon="9.069130"><ele>1455</ele></trkpt><trkpt lat="62.456713" lon="9.069219"><ele>1461</ele></trkpt><trkpt lat="62.456267" lon="9.069308"><ele>1467</ele></trkpt><trkpt lat="62.455820" lon="9.069397"><ele>1469</ele></trkpt><trkpt lat="62.455374" lon="9.069486"><ele>1474</ele></trkpt><trkpt lat="62.454928" lon="9.069574"><ele>1479</ele></trkpt><trkpt lat="62.454481" lon="9.069663"><ele>1485</ele></trkpt><trkpt lat="62.454035" lon="9.069752"><ele>1495</ele></trkpt><trkpt lat="62.453588" lon="9.069841"><ele>1503</ele></trkpt><trkpt lat="62.453142" lon="9.069929"><ele>1508</ele></trkpt><trkpt lat="62.452696" lon="9.070018"><ele>1514</ele></trkpt><trkpt lat="62.452249" lon="9.070107"><ele>1523</ele></trkpt><trkpt lat="62.451803" lon="9.070196"><ele>1531</ele></trkpt><trkpt lat="62.451356" lon="9.070284"><ele>1538</ele></trkpt><trkpt lat="62.450910" lon="9.070373"><ele>1544</ele></trkpt><trkpt lat="62.450464" lon="9.070462"><ele>1548</ele></trkpt><trkpt lat="62.450017" lon="9.070551"><ele>1554</ele></trkpt><trkpt lat="62.449571" lon="9.070639"><ele>1558</ele></trkpt><trkpt lat="62.449124" lon="9.070728"><ele>1561</ele></trkpt><trkpt lat="62.448678" lon="9.070817"><ele>1561</ele></trkpt><trkpt lat="62.448232" lon="9.070906"><ele>1563</ele></trkpt><trkpt lat="62.447785" lon="9.070994"><ele>1565</ele></trkpt><trkpt lat="62.447339" lon="9.071083"><ele>1566</ele></trkpt><trkpt lat="62.446892" lon="9.071172"><ele>1567</ele></trkpt><trkpt lat="62.446446" lon="9.071261"><ele>1568</ele></trkpt><trkpt lat="62.446000" lon="9.071349"><ele>1576</ele></trkpt><trkpt lat="62.445553" lon="9.071438"><ele>1589</ele></trkpt><trkpt lat="62.445107" lon="9.071527"><ele>1600</ele></trkpt><trkpt lat="62.444660" lon="9.071615"><ele>1617</ele></trkpt><trkpt lat="62.444214" lon="9.071704"><ele>1633</ele></trkpt><trkpt lat="62.443768" lon="9.071793"><ele>1651</ele></trkpt><trkpt lat="62.443321" lon="9.071881"><ele>1668</ele></trkpt><trkpt lat="62.442875" lon="9.071970"><ele>1683</ele></trkpt><trkpt lat="62.442428" lon="9.072059"><ele>1695</ele></trkpt><trkpt lat="62.441982" lon="9.072148"><ele>1704</ele></trkpt><trkpt lat="62.441536" lon="9.072236"><ele>1715</ele></trkpt><trkpt lat="62.441089" lon="9.072325"><ele>1728</ele></trkpt><trkpt lat="62.440643" lon="9.072414"><ele>1739</ele></trkpt><trkpt lat="62.440196" lon="9.072502"><ele>1747</ele></trkpt><trkpt lat="62.439750" lon="9.072591"><ele>1754</ele></trkpt><trkpt lat="62.439304" lon="9.072680"><ele>1761</ele></trkpt><trkpt lat="62.438857" lon="9.072768"><ele>1765</ele></trkpt><trkpt lat="62.438411" lon="9.072857"><ele>1764</ele></trkpt><trkpt lat="62.437964" lon="9.072946"><ele>1760</ele></trkpt><trkpt lat="62.437518" lon="9.073034"><ele>1757</ele></trkpt><trkpt lat="62.437072" lon="9.073123"><ele>1753</ele></trkpt><trkpt lat="62.436625" lon="9.073212"><ele>1751</ele></trkpt><trkpt lat="62.436179" lon="9.073300"><ele>1750</ele></trkpt><trkpt lat="62.435732" lon="9.073389"><ele>1751</ele></trkpt><trkpt lat="62.435286" lon="9.073478"><ele>1752</ele></trkpt><trkpt lat="62.434840" lon="9.073566"><ele>1753</ele></trkpt><trkpt lat="62.434393" lon="9.073655"><ele>1754</ele></trkpt><trkpt lat="62.433947" lon="9.073744"><ele>1755</ele></trkpt><trkpt lat="62.433500" lon="9.073832"><ele>1757</ele></trkpt><trkpt lat="62.433054" lon="9.073921"><ele>1760</ele></trkpt><trkpt lat="62.432608" lon="9.074009"><ele>1763</ele></trkpt><trkpt lat="62.432161" lon="9.074098"><ele>1770</ele></trkpt><trkpt lat="62.431715" lon="9.074187"><ele>1776</ele></trkpt><trkpt lat="62.431268" lon="9.074275"><ele>1780</ele></trkpt><trkpt lat="62.430822" lon="9.074364"><ele>1784</ele></trkpt><trkpt lat="62.430376" lon="9.074453"><ele>1786</ele></trkpt><trkpt lat="62.429929" lon="9.074541"><ele>1788</ele></trkpt><trkpt lat="62.429483" lon="9.074630"><ele>1789</ele></trkpt><trkpt lat="62.429036" lon="9.074718"><ele>1788</ele></trkpt><trkpt lat="62.428590" lon="9.074807"><ele>1787</ele></trkpt><trkpt lat="62.428144" lon="9.074896"><ele>1784</ele></trkpt><trkpt lat="62.427697" lon="9.074984"><ele>1781</ele></trkpt><trkpt lat="62.427251" lon="9.075073"><ele>1776</ele></trkpt><trkpt lat="62.426804" lon="9.075161"><ele>1771</ele></trkpt><trkpt lat="62.426358" lon="9.075250"><ele>1766</ele></trkpt><trkpt lat="62.425912" lon="9.075339"><ele>1760</ele></trkpt><trkpt lat="62.425465" lon="9.075427"><ele>1756</ele></trkpt><trkpt lat="62.425019" lon="9.075516"><ele>1751</ele></trkpt><trkpt lat="62.424572" lon="9.075604"><ele>1745</ele></trkpt><trkpt lat="62.424126" lon="9.075693"><ele>1740</ele></trkpt><trkpt lat="62.423680" lon="9.075781"><ele>1734</ele></trkpt><trkpt lat="62.423233" lon="9.075870"><ele>1727</ele></trkpt><trkpt lat="62.422787" lon="9.075959"><ele>1722</ele></trkpt><trkpt lat="62.422340" lon="9.076047"><ele>1713</ele></trkpt><trkpt lat="62.421902" lon="9.076328"><ele>1708</ele></trkpt><trkpt lat="62.421489" lon="9.077187"><ele>1709</ele></trkpt><trkpt lat="62.421059" lon="9.077661"><ele>1708</ele></trkpt><trkpt lat="62.420620" lon="9.077942"><ele>1703</ele></trkpt><trkpt lat="62.420174" lon="9.078030"><ele>1697</ele></trkpt><trkpt lat="62.419728" lon="9.078119"><ele>1697</ele></trkpt><trkpt lat="62.419281" lon="9.078207"><ele>1695</ele></trkpt><trkpt lat="62.418835" lon="9.078296"><ele>1692</ele></trkpt><trkpt lat="62.418388" lon="9.078384"><ele>1687</ele></trkpt><trkpt lat="62.417942" lon="9.078473"><ele>1679</ele></trkpt><trkpt lat="62.417496" lon="9.078561"><ele>1670</ele></trkpt><trkpt lat="62.417049" lon="9.078650"><ele>1659</ele></trkpt><trkpt lat="62.416603" lon="9.078738"><ele>1652</ele></trkpt><trkpt lat="62.416148" lon="9.078634"><ele>1645</ele></trkpt><trkpt lat="62.415677" lon="9.078145"><ele>1626</ele></trkpt><trkpt lat="62.415231" lon="9.078234"><ele>1619</ele></trkpt><trkpt lat="62.414784" lon="9.078322"><ele>1609</ele></trkpt><trkpt lat="62.414338" lon="9.078411"><ele>1602</ele></trkpt><trkpt lat="62.413891" lon="9.078499"><ele>1594</ele></trkpt><trkpt lat="62.413437" lon="9.078395"><ele>1589</ele></trkpt><trkpt lat="62.412974" lon="9.078099"><ele>1605</ele></trkpt><trkpt lat="62.412528" lon="9.078187"><ele>1604</ele></trkpt><trkpt lat="62.412081" lon="9.078276"><ele>1616</ele></trkpt><trkpt lat="62.411635" lon="9.078364"><ele>1628</ele></trkpt><trkpt lat="62.411197" lon="9.078645"><ele>1643</ele></trkpt><trkpt lat="62.410750" lon="9.078734"><ele>1650</ele></trkpt><trkpt lat="62.410312" lon="9.079015"><ele>1662</ele></trkpt><trkpt lat="62.409866" lon="9.079103"><ele>1667</ele></trkpt><trkpt lat="62.409419" lon="9.079191"><ele>1678</ele></trkpt><trkpt lat="62.408973" lon="9.079280"><ele>1687</ele></trkpt><trkpt lat="62.408526" lon="9.079368"><ele>1695</ele></trkpt><trkpt lat="62.408080" lon="9.079457"><ele>1697</ele></trkpt><trkpt lat="62.407634" lon="9.079545"><ele>1700</ele></trkpt><trkpt lat="62.407187" lon="9.079634"><ele>1703</ele></trkpt><trkpt lat="62.406741" lon="9.079722"><ele>1707</ele></trkpt><trkpt lat="62.406294" lon="9.079811"><ele>1709</ele></trkpt><trkpt lat="62.405848" lon="9.079899"><ele>1708</ele></trkpt><trkpt lat="62.405401" lon="9.079988"><ele>1707</ele></trkpt><trkpt lat="62.404955" lon="9.080076"><ele>1707</ele></trkpt><trkpt lat="62.404509" lon="9.080164"><ele>1705</ele></trkpt><trkpt lat="62.404062" lon="9.080253"><ele>1704</ele></trkpt><trkpt lat="62.403616" lon="9.080341"><ele>1705</ele></trkpt><trkpt lat="62.403169" lon="9.080430"><ele>1708</ele></trkpt><trkpt lat="62.402723" lon="9.080518"><ele>1712</ele></trkpt><trkpt lat="62.402277" lon="9.080607"><ele>1716</ele></trkpt><trkpt lat="62.401830" lon="9.080695"><ele>1718</ele></trkpt><trkpt lat="62.401384" lon="9.080783"><ele>1720</ele></trkpt><trkpt lat="62.400937" lon="9.080872"><ele>1721</ele></trkpt><trkpt lat="62.400491" lon="9.080960"><ele>1726</ele></trkpt><trkpt lat="62.400045" lon="9.081049"><ele>1727</ele></trkpt><trkpt lat="62.399598" lon="9.081137"><ele>1726</ele></trkpt><trkpt lat="62.399152" lon="9.081225"><ele>1726</ele></trkpt><trkpt lat="62.398705" lon="9.081314"><ele>1728</ele></trkpt><trkpt lat="62.398259" lon="9.081402"><ele>1729</ele></trkpt><trkpt lat="62.397813" lon="9.081491"><ele>1728</ele></trkpt><trkpt lat="62.397366" lon="9.081579"><ele>1728</ele></trkpt><trkpt lat="62.396920" lon="9.081667"><ele>1728</ele></trkpt><trkpt lat="62.396473" lon="9.081756"><ele>1728</ele></trkpt><trkpt lat="62.396027" lon="9.081844"><ele>1729</ele></trkpt><trkpt lat="62.395580" lon="9.081932"><ele>1732</ele></trkpt><trkpt lat="62.395134" lon="9.082021"><ele>1735</ele></trkpt><trkpt lat="62.394688" lon="9.082109"><ele>1736</ele></trkpt><trkpt lat="62.394241" lon="9.082197"><ele>1738</ele></trkpt><trkpt lat="62.393795" lon="9.082286"><ele>1738</ele></trkpt><trkpt lat="62.393348" lon="9.082374"><ele>1737</ele></trkpt><trkpt lat="62.392902" lon="9.082463"><ele>1735</ele></trkpt><trkpt lat="62.392456" lon="9.082551"><ele>1732</ele></trkpt><trkpt lat="62.392009" lon="9.082639"><ele>1730</ele></trkpt><trkpt lat="62.391563" lon="9.082728"><ele>1728</ele></trkpt><trkpt lat="62.391116" lon="9.082816"><ele>1725</ele></trkpt><trkpt lat="62.390670" lon="9.082904"><ele>1723</ele></trkpt><trkpt lat="62.390224" lon="9.082993"><ele>1723</ele></trkpt><trkpt lat="62.389777" lon="9.083081"><ele>1724</ele></trkpt><trkpt lat="62.389331" lon="9.083169"><ele>1725</ele></trkpt><trkpt lat="62.388884" lon="9.083258"><ele>1729</ele></trkpt><trkpt lat="62.388438" lon="9.083346"><ele>1735</ele></trkpt><trkpt lat="62.387991" lon="9.083434"><ele>1740</ele></trkpt><trkpt lat="62.387545" lon="9.083523"><ele>1748</ele></trkpt><trkpt lat="62.387099" lon="9.083611"><ele>1757</ele></trkpt><trkpt lat="62.386652" lon="9.083699"><ele>1766</ele></trkpt><trkpt lat="62.386206" lon="9.083788"><ele>1774</ele></trkpt><trkpt lat="62.385759" lon="9.083876"><ele>1783</ele></trkpt><trkpt lat="62.385313" lon="9.083964"><ele>1791</ele></trkpt><trkpt lat="62.384867" lon="9.084052"><ele>1802</ele></trkpt><trkpt lat="62.384420" lon="9.084141"><ele>1815</ele></trkpt><trkpt lat="62.383974" lon="9.084229"><ele>1828</ele></trkpt><trkpt lat="62.383527" lon="9.084317"><ele>1841</ele></trkpt><trkpt lat="62.383081" lon="9.084406"><ele>1854</ele></trkpt><trkpt lat="62.382635" lon="9.084494"><ele>1865</ele></trkpt><trkpt lat="62.382188" lon="9.084582"><ele>1879</ele></trkpt><trkpt lat="62.381742" lon="9.084670"><ele>1892</ele></trkpt><trkpt lat="62.381295" lon="9.084759"><ele>1906</ele></trkpt><trkpt lat="62.380849" lon="9.084847"><ele>1921</ele></trkpt><trkpt lat="62.380402" lon="9.084935"><ele>1933</ele></trkpt><trkpt lat="62.379956" lon="9.085024"><ele>1939</ele></trkpt><trkpt lat="62.379510" lon="9.085112"><ele>1943</ele></trkpt><trkpt lat="62.379063" lon="9.085200"><ele>1947</ele></trkpt><trkpt lat="62.378617" lon="9.085288"><ele>1951</ele></trkpt><trkpt lat="62.378170" lon="9.085377"><ele>1954</ele></trkpt><trkpt lat="62.377724" lon="9.085465"><ele>1958</ele></trkpt><trkpt lat="62.377635" lon="9.085482"><ele>1958</ele></trkpt></trkseg></trk><wpt lat="62.377892" lon="9.102108"><ele>1577</ele><name>Run end · Litlskrymten 1958 m</name></wpt><trk><name>Down · Litlskrymten 1958 m</name><desc>fall-line run: 482 m of 20–30°, 269 m drop, aspect 135°, max 30°, 1.4% ≥30°; ends 13.52 km from the car.</desc><trkseg><trkpt lat="62.377635" lon="9.085482"><ele>1958</ele></trkpt><trkpt lat="62.381632" lon="9.094777"><ele>1846</ele></trkpt><trkpt lat="62.381656" lon="9.095354"><ele>1834</ele></trkpt><trkpt lat="62.381681" lon="9.095931"><ele>1818</ele></trkpt><trkpt lat="62.381705" lon="9.096508"><ele>1805</ele></trkpt><trkpt lat="62.381730" lon="9.097085"><ele>1791</ele></trkpt><trkpt lat="62.381755" lon="9.097662"><ele>1774</ele></trkpt><trkpt lat="62.381779" lon="9.098239"><ele>1757</ele></trkpt><trkpt lat="62.381804" lon="9.098816"><ele>1741</ele></trkpt><trkpt lat="62.381828" lon="9.099392"><ele>1728</ele></trkpt><trkpt lat="62.381763" lon="9.099987"><ele>1712</ele></trkpt><trkpt lat="62.381504" lon="9.100232"><ele>1707</ele></trkpt><trkpt lat="62.381252" lon="9.100670"><ele>1701</ele></trkpt><trkpt lat="62.381001" lon="9.101107"><ele>1686</ele></trkpt><trkpt lat="62.380733" lon="9.101160"><ele>1677</ele></trkpt><trkpt lat="62.380465" lon="9.101213"><ele>1672</ele></trkpt><trkpt lat="62.380205" lon="9.101458"><ele>1671</ele></trkpt><trkpt lat="62.379954" lon="9.101895"><ele>1657</ele></trkpt><trkpt lat="62.379702" lon="9.102333"><ele>1642</ele></trkpt><trkpt lat="62.379434" lon="9.102386"><ele>1633</ele></trkpt><trkpt lat="62.379167" lon="9.102438"><ele>1624</ele></trkpt><trkpt lat="62.378907" lon="9.102683"><ele>1617</ele></trkpt><trkpt lat="62.378639" lon="9.102736"><ele>1608</ele></trkpt><trkpt lat="62.378363" lon="9.102597"><ele>1598</ele></trkpt><trkpt lat="62.378079" lon="9.102265"><ele>1586</ele></trkpt><trkpt lat="62.377892" lon="9.102108"><ele>1577</ele></trkpt></trkseg></trk></gpx>