<?xml version="1.0" encoding="UTF-8"?>
<gpx version="1.1" creator="Rando toppturs" xmlns="http://www.topografix.com/GPX/1/1"><metadata><name>070 Østre Somrungnebba 1693 m</name><desc>Generated 2026-09-13 17:42 from Kartverket 10 m terrain. Ascent lines are least-cost terrain paths under 35°, not verified routes. Not a snow-stability assessment.</desc></metadata><wpt lat="62.699926" lon="8.989611"><ele>758</ele><name>Car · Østre Somrungnebba 1693 m</name></wpt><wpt lat="62.662978" lon="8.926440"><ele>1693</ele><name>Østre Somrungnebba 1693 m</name></wpt><trk><name>Up · Østre Somrungnebba 1693 m</name><desc>least-cost ascent: +1043 m over 6965 m, max 31°, 0.2% on 30–35°, ≈4.35 h at 4 km/h + 400 m/h. Terrain possibility, not a checked route.</desc><trkseg><trkpt lat="62.699926" lon="8.989611"><ele>758</ele></trkpt><trkpt lat="62.699706" lon="8.988675"><ele>756</ele></trkpt><trkpt lat="62.699218" lon="8.987795"><ele>756</ele></trkpt><trkpt lat="62.698729" lon="8.986914"><ele>756</ele></trkpt><trkpt lat="62.698241" lon="8.986033"><ele>756</ele></trkpt><trkpt lat="62.697753" lon="8.985152"><ele>756</ele></trkpt><trkpt lat="62.697265" lon="8.984272"><ele>756</ele></trkpt><trkpt lat="62.696777" lon="8.983391"><ele>756</ele></trkpt><trkpt lat="62.696289" lon="8.982510"><ele>756</ele></trkpt><trkpt lat="62.695801" lon="8.981630"><ele>758</ele></trkpt><trkpt lat="62.695313" lon="8.980749"><ele>760</ele></trkpt><trkpt lat="62.694825" lon="8.979869"><ele>763</ele></trkpt><trkpt lat="62.694336" lon="8.978988"><ele>774</ele></trkpt><trkpt lat="62.693848" lon="8.978108"><ele>788</ele></trkpt><trkpt lat="62.693360" lon="8.977227"><ele>794</ele></trkpt><trkpt lat="62.692872" lon="8.976347"><ele>806</ele></trkpt><trkpt lat="62.692384" lon="8.975467"><ele>823</ele></trkpt><trkpt lat="62.691896" lon="8.974586"><ele>828</ele></trkpt><trkpt lat="62.691408" lon="8.973706"><ele>834</ele></trkpt><trkpt lat="62.691276" lon="8.972753"><ele>839</ele></trkpt><trkpt lat="62.690878" lon="8.971854"><ele>851</ele></trkpt><trkpt lat="62.690389" lon="8.970974"><ele>859</ele></trkpt><trkpt lat="62.689901" lon="8.970094"><ele>868</ele></trkpt><trkpt lat="62.689413" lon="8.969214"><ele>883</ele></trkpt><trkpt lat="62.688925" lon="8.968334"><ele>893</ele></trkpt><trkpt lat="62.688437" lon="8.967453"><ele>901</ele></trkpt><trkpt lat="62.687948" lon="8.966573"><ele>910</ele></trkpt><trkpt lat="62.687460" lon="8.965693"><ele>922</ele></trkpt><trkpt lat="62.686972" lon="8.964813"><ele>929</ele></trkpt><trkpt lat="62.686484" lon="8.963933"><ele>938</ele></trkpt><trkpt lat="62.686263" lon="8.962999"><ele>949</ele></trkpt><trkpt lat="62.685864" lon="8.962100"><ele>955</ele></trkpt><trkpt lat="62.685376" lon="8.961220"><ele>958</ele></trkpt><trkpt lat="62.684888" lon="8.960340"><ele>959</ele></trkpt><trkpt lat="62.684400" lon="8.959461"><ele>961</ele></trkpt><trkpt lat="62.683911" lon="8.958581"><ele>962</ele></trkpt><trkpt lat="62.683423" lon="8.957701"><ele>956</ele></trkpt><trkpt lat="62.682935" lon="8.956821"><ele>952</ele></trkpt><trkpt lat="62.682446" lon="8.955941"><ele>946</ele></trkpt><trkpt lat="62.681958" lon="8.955062"><ele>941</ele></trkpt><trkpt lat="62.681470" lon="8.954182"><ele>944</ele></trkpt><trkpt lat="62.680982" lon="8.953302"><ele>938</ele></trkpt><trkpt lat="62.680493" lon="8.952423"><ele>937</ele></trkpt><trkpt lat="62.680005" lon="8.951543"><ele>931</ele></trkpt><trkpt lat="62.679517" lon="8.950663"><ele>921</ele></trkpt><trkpt lat="62.679028" lon="8.949784"><ele>921</ele></trkpt><trkpt lat="62.678540" lon="8.948904"><ele>926</ele></trkpt><trkpt lat="62.678052" lon="8.948025"><ele>941</ele></trkpt><trkpt lat="62.677563" lon="8.947145"><ele>954</ele></trkpt><trkpt lat="62.677075" lon="8.946266"><ele>968</ele></trkpt><trkpt lat="62.676587" lon="8.945387"><ele>981</ele></trkpt><trkpt lat="62.676098" lon="8.944507"><ele>999</ele></trkpt><trkpt lat="62.675699" lon="8.943610"><ele>1020</ele></trkpt><trkpt lat="62.675211" lon="8.942730"><ele>1040</ele></trkpt><trkpt lat="62.674723" lon="8.941851"><ele>1052</ele></trkpt><trkpt lat="62.674234" lon="8.940972"><ele>1063</ele></trkpt><trkpt lat="62.673746" lon="8.940092"><ele>1080</ele></trkpt><trkpt lat="62.673615" lon="8.939140"><ele>1096</ele></trkpt><trkpt lat="62.673573" lon="8.938169"><ele>1106</ele></trkpt><trkpt lat="62.673530" lon="8.937198"><ele>1115</ele></trkpt><trkpt lat="62.673488" lon="8.936228"><ele>1122</ele></trkpt><trkpt lat="62.673446" lon="8.935257"><ele>1132</ele></trkpt><trkpt lat="62.673404" lon="8.934286"><ele>1141</ele></trkpt><trkpt lat="62.673273" lon="8.933334"><ele>1155</ele></trkpt><trkpt lat="62.672963" lon="8.932418"><ele>1174</ele></trkpt><trkpt lat="62.672742" lon="8.931484"><ele>1185</ele></trkpt><trkpt lat="62.672254" lon="8.930605"><ele>1199</ele></trkpt><trkpt lat="62.671765" lon="8.929726"><ele>1218</ele></trkpt><trkpt lat="62.671545" lon="8.928792"><ele>1225</ele></trkpt><trkpt lat="62.671235" lon="8.927876"><ele>1225</ele></trkpt><trkpt lat="62.670746" lon="8.926997"><ele>1216</ele></trkpt><trkpt lat="62.670258" lon="8.926118"><ele>1204</ele></trkpt><trkpt lat="62.669769" lon="8.925240"><ele>1188</ele></trkpt><trkpt lat="62.669306" lon="8.924943"><ele>1192</ele></trkpt><trkpt lat="62.668860" lon="8.925035"><ele>1209</ele></trkpt><trkpt lat="62.668414" lon="8.925127"><ele>1227</ele></trkpt><trkpt lat="62.667984" lon="8.925607"><ele>1254</ele></trkpt><trkpt lat="62.667555" lon="8.926087"><ele>1284</ele></trkpt><trkpt lat="62.667151" lon="8.927149"><ele>1313</ele></trkpt><trkpt lat="62.666747" lon="8.928211"><ele>1332</ele></trkpt><trkpt lat="62.666326" lon="8.928885"><ele>1351</ele></trkpt><trkpt lat="62.665879" lon="8.928977"><ele>1367</ele></trkpt><trkpt lat="62.665450" lon="8.929457"><ele>1381</ele></trkpt><trkpt lat="62.665029" lon="8.930131"><ele>1397</ele></trkpt><trkpt lat="62.664617" lon="8.930999"><ele>1404</ele></trkpt><trkpt lat="62.664187" lon="8.931479"><ele>1413</ele></trkpt><trkpt lat="62.663783" lon="8.932541"><ele>1424</ele></trkpt><trkpt lat="62.663370" lon="8.933409"><ele>1433</ele></trkpt><trkpt lat="62.662941" lon="8.933888"><ele>1439</ele></trkpt><trkpt lat="62.662503" lon="8.934174"><ele>1443</ele></trkpt><trkpt lat="62.662057" lon="8.934266"><ele>1447</ele></trkpt><trkpt lat="62.661611" lon="8.934357"><ele>1450</ele></trkpt><trkpt lat="62.661164" lon="8.934449"><ele>1454</ele></trkpt><trkpt lat="62.660718" lon="8.934540"><ele>1457</ele></trkpt><trkpt lat="62.660238" lon="8.933856"><ele>1466</ele></trkpt><trkpt lat="62.659750" lon="8.932977"><ele>1479</ele></trkpt><trkpt lat="62.659529" lon="8.932043"><ele>1497</ele></trkpt><trkpt lat="62.659576" lon="8.931055"><ele>1520</ele></trkpt><trkpt lat="62.659980" lon="8.929993"><ele>1552</ele></trkpt><trkpt lat="62.660401" lon="8.929319"><ele>1580</ele></trkpt><trkpt lat="62.660831" lon="8.928839"><ele>1604</ele></trkpt><trkpt lat="62.661277" lon="8.928748"><ele>1626</ele></trkpt><trkpt lat="62.661706" lon="8.928268"><ele>1647</ele></trkpt><trkpt lat="62.662119" lon="8.927400"><ele>1671</ele></trkpt><trkpt lat="62.662557" lon="8.927114"><ele>1683</ele></trkpt><trkpt lat="62.662978" lon="8.926440"><ele>1693</ele></trkpt><trkpt lat="62.662978" lon="8.926440"><ele>1693</ele></trkpt></trkseg></trk><wpt lat="62.656238" lon="8.924692"><ele>1405</ele><name>Run end · Østre Somrungnebba 1693 m</name></wpt><trk><name>Down · Østre Somrungnebba 1693 m</name><desc>fall-line run: 447 m of 20–30°, 243 m drop, aspect 200°, max 30°, 1.6% ≥30°; ends 5.9 km from the car.</desc><trkseg><trkpt lat="62.662978" lon="8.926440"><ele>1693</ele></trkpt><trkpt lat="62.661698" lon="8.928074"><ele>1649</ele></trkpt><trkpt lat="62.661430" lon="8.928129"><ele>1636</ele></trkpt><trkpt lat="62.661162" lon="8.928184"><ele>1622</ele></trkpt><trkpt lat="62.660895" lon="8.928239"><ele>1606</ele></trkpt><trkpt lat="62.660627" lon="8.928294"><ele>1592</ele></trkpt><trkpt lat="62.660359" lon="8.928349"><ele>1579</ele></trkpt><trkpt lat="62.660091" lon="8.928404"><ele>1565</ele></trkpt><trkpt lat="62.659824" lon="8.928459"><ele>1550</ele></trkpt><trkpt lat="62.659556" lon="8.928514"><ele>1535</ele></trkpt><trkpt lat="62.659288" lon="8.928569"><ele>1523</ele></trkpt><trkpt lat="62.659020" lon="8.928624"><ele>1515</ele></trkpt><trkpt lat="62.658744" lon="8.928485"><ele>1507</ele></trkpt><trkpt lat="62.658459" lon="8.928152"><ele>1500</ele></trkpt><trkpt lat="62.658175" lon="8.927818"><ele>1493</ele></trkpt><trkpt lat="62.657890" lon="8.927485"><ele>1486</ele></trkpt><trkpt lat="62.657614" lon="8.927346"><ele>1481</ele></trkpt><trkpt lat="62.657321" lon="8.926819"><ele>1474</ele></trkpt><trkpt lat="62.657028" lon="8.926292"><ele>1459</ele></trkpt><trkpt lat="62.656735" lon="8.925765"><ele>1440</ele></trkpt><trkpt lat="62.656442" lon="8.925238"><ele>1422</ele></trkpt><trkpt lat="62.656238" lon="8.924692"><ele>1405</ele></trkpt><trkpt lat="62.656238" lon="8.924692"><ele>1405</ele></trkpt></trkseg></trk></gpx>