<?xml version="1.0" encoding="UTF-8"?>
<gpx version="1.1" creator="Rando toppturs" xmlns="http://www.topografix.com/GPX/1/1"><metadata><name>074 Svarthaugen 953 m</name><desc>Generated 2026-09-13 17:42 from Kartverket 10 m terrain. Ascent lines are least-cost terrain paths under 35°, not verified routes. Not a snow-stability assessment.</desc></metadata><wpt lat="62.581426" lon="9.562158"><ele>729</ele><name>Car · Svarthaugen 953 m</name></wpt><wpt lat="62.582935" lon="9.591741"><ele>953</ele><name>Svarthaugen 953 m</name></wpt><trk><name>Up · Svarthaugen 953 m</name><desc>least-cost ascent: +269 m over 1632 m, max 29°, 0.0% on 30–35°, ≈1.08 h at 4 km/h + 400 m/h. Terrain possibility, not a checked route.</desc><trkseg><trkpt lat="62.581426" lon="9.562158"><ele>729</ele></trkpt><trkpt lat="62.581821" lon="9.563062"><ele>743</ele></trkpt><trkpt lat="62.581948" lon="9.564014"><ele>763</ele></trkpt><trkpt lat="62.582164" lon="9.564950"><ele>781</ele></trkpt><trkpt lat="62.582291" lon="9.565903"><ele>799</ele></trkpt><trkpt lat="62.582329" lon="9.566872"><ele>815</ele></trkpt><trkpt lat="62.582367" lon="9.567841"><ele>832</ele></trkpt><trkpt lat="62.582405" lon="9.568809"><ele>842</ele></trkpt><trkpt lat="62.582442" lon="9.569778"><ele>846</ele></trkpt><trkpt lat="62.582480" lon="9.570747"><ele>860</ele></trkpt><trkpt lat="62.582428" lon="9.571732"><ele>874</ele></trkpt><trkpt lat="62.582287" lon="9.572734"><ele>890</ele></trkpt><trkpt lat="62.582325" lon="9.573703"><ele>894</ele></trkpt><trkpt lat="62.582273" lon="9.574688"><ele>885</ele></trkpt><trkpt lat="62.582222" lon="9.575673"><ele>872</ele></trkpt><trkpt lat="62.582259" lon="9.576642"><ele>872</ele></trkpt><trkpt lat="62.582297" lon="9.577611"><ele>871</ele></trkpt><trkpt lat="62.582335" lon="9.578580"><ele>866</ele></trkpt><trkpt lat="62.582372" lon="9.579549"><ele>878</ele></trkpt><trkpt lat="62.582410" lon="9.580518"><ele>885</ele></trkpt><trkpt lat="62.582447" lon="9.581487"><ele>886</ele></trkpt><trkpt lat="62.582485" lon="9.582455"><ele>887</ele></trkpt><trkpt lat="62.582523" lon="9.583424"><ele>891</ele></trkpt><trkpt lat="62.582560" lon="9.584393"><ele>895</ele></trkpt><trkpt lat="62.582598" lon="9.585362"><ele>890</ele></trkpt><trkpt lat="62.582635" lon="9.586331"><ele>899</ele></trkpt><trkpt lat="62.582673" lon="9.587300"><ele>904</ele></trkpt><trkpt lat="62.582711" lon="9.588269"><ele>901</ele></trkpt><trkpt lat="62.582748" lon="9.589238"><ele>911</ele></trkpt><trkpt lat="62.582786" lon="9.590207"><ele>927</ele></trkpt><trkpt lat="62.582913" lon="9.591159"><ele>944</ele></trkpt><trkpt lat="62.582935" lon="9.591741"><ele>953</ele></trkpt></trkseg></trk><wpt lat="62.587648" lon="9.587954"><ele>727</ele><name>Run end · Svarthaugen 953 m</name></wpt><trk><name>Down · Svarthaugen 953 m</name><desc>fall-line run: 435 m of 20–30°, 186 m drop, aspect 349°, max 33°, 7.3% ≥30°; ends 1.5 km from the car.</desc><trkseg><trkpt lat="62.582935" lon="9.591741"><ele>953</ele></trkpt><trkpt lat="62.584149" lon="9.590544"><ele>913</ele></trkpt><trkpt lat="62.584409" lon="9.590301"><ele>895</ele></trkpt><trkpt lat="62.584677" lon="9.590252"><ele>883</ele></trkpt><trkpt lat="62.584945" lon="9.590203"><ele>865</ele></trkpt><trkpt lat="62.585198" lon="9.589767"><ele>848</ele></trkpt><trkpt lat="62.585444" lon="9.589137"><ele>833</ele></trkpt><trkpt lat="62.585712" lon="9.589088"><ele>826</ele></trkpt><trkpt lat="62.585965" lon="9.588651"><ele>813</ele></trkpt><trkpt lat="62.586233" lon="9.588602"><ele>800</ele></trkpt><trkpt lat="62.586494" lon="9.588360"><ele>787</ele></trkpt><trkpt lat="62.586754" lon="9.588117"><ele>773</ele></trkpt><trkpt lat="62.587022" lon="9.588068"><ele>760</ele></trkpt><trkpt lat="62.587290" lon="9.588019"><ele>746</ele></trkpt><trkpt lat="62.587558" lon="9.587970"><ele>731</ele></trkpt><trkpt lat="62.587648" lon="9.587954"><ele>727</ele></trkpt></trkseg></trk></gpx>