<?xml version="1.0" encoding="UTF-8"?>
<gpx version="1.1" creator="Rando toppturs" xmlns="http://www.topografix.com/GPX/1/1"><metadata><name>075 Brattskarven 1195 m</name><desc>Generated 2026-09-13 17:42 from Kartverket 10 m terrain. Ascent lines are least-cost terrain paths under 35°, not verified routes. Not a snow-stability assessment.</desc></metadata><wpt lat="62.775292" lon="9.711006"><ele>742</ele><name>Car · Brattskarven 1195 m</name></wpt><wpt lat="62.784264" lon="9.741417"><ele>1195</ele><name>Brattskarven 1195 m</name></wpt><trk><name>Up · Brattskarven 1195 m</name><desc>least-cost ascent: +480 m over 2432 m, max 29°, 0.0% on 30–35°, ≈1.81 h at 4 km/h + 400 m/h. Terrain possibility, not a checked route.</desc><trkseg><trkpt lat="62.775292" lon="9.711006"><ele>742</ele></trkpt><trkpt lat="62.775329" lon="9.711982"><ele>751</ele></trkpt><trkpt lat="62.775366" lon="9.712957"><ele>761</ele></trkpt><trkpt lat="62.775403" lon="9.713933"><ele>770</ele></trkpt><trkpt lat="62.775439" lon="9.714908"><ele>778</ele></trkpt><trkpt lat="62.775476" lon="9.715884"><ele>784</ele></trkpt><trkpt lat="62.775513" lon="9.716859"><ele>789</ele></trkpt><trkpt lat="62.775550" lon="9.717834"><ele>795</ele></trkpt><trkpt lat="62.775586" lon="9.718810"><ele>801</ele></trkpt><trkpt lat="62.775623" lon="9.719785"><ele>809</ele></trkpt><trkpt lat="62.775660" lon="9.720761"><ele>813</ele></trkpt><trkpt lat="62.775697" lon="9.721736"><ele>818</ele></trkpt><trkpt lat="62.775733" lon="9.722712"><ele>822</ele></trkpt><trkpt lat="62.775770" lon="9.723687"><ele>829</ele></trkpt><trkpt lat="62.775807" lon="9.724663"><ele>832</ele></trkpt><trkpt lat="62.775843" lon="9.725638"><ele>837</ele></trkpt><trkpt lat="62.775880" lon="9.726614"><ele>845</ele></trkpt><trkpt lat="62.775827" lon="9.727605"><ele>858</ele></trkpt><trkpt lat="62.775864" lon="9.728581"><ele>877</ele></trkpt><trkpt lat="62.775901" lon="9.729556"><ele>897</ele></trkpt><trkpt lat="62.775937" lon="9.730531"><ele>910</ele></trkpt><trkpt lat="62.775974" lon="9.731507"><ele>919</ele></trkpt><trkpt lat="62.776011" lon="9.732482"><ele>931</ele></trkpt><trkpt lat="62.776047" lon="9.733458"><ele>947</ele></trkpt><trkpt lat="62.776084" lon="9.734433"><ele>963</ele></trkpt><trkpt lat="62.776120" lon="9.735409"><ele>985</ele></trkpt><trkpt lat="62.776157" lon="9.736384"><ele>1005</ele></trkpt><trkpt lat="62.776551" lon="9.737296"><ele>1030</ele></trkpt><trkpt lat="62.776856" lon="9.738224"><ele>1051</ele></trkpt><trkpt lat="62.777250" lon="9.739135"><ele>1076</ele></trkpt><trkpt lat="62.777726" lon="9.739836"><ele>1096</ele></trkpt><trkpt lat="62.778210" lon="9.740731"><ele>1113</ele></trkpt><trkpt lat="62.778671" lon="9.741042"><ele>1127</ele></trkpt><trkpt lat="62.779118" lon="9.740962"><ele>1134</ele></trkpt><trkpt lat="62.779594" lon="9.741663"><ele>1141</ele></trkpt><trkpt lat="62.780048" lon="9.741778"><ele>1149</ele></trkpt><trkpt lat="62.780510" lon="9.742088"><ele>1160</ele></trkpt><trkpt lat="62.780971" lon="9.742399"><ele>1147</ele></trkpt><trkpt lat="62.781418" lon="9.742319"><ele>1144</ele></trkpt><trkpt lat="62.781865" lon="9.742239"><ele>1137</ele></trkpt><trkpt lat="62.782312" lon="9.742159"><ele>1140</ele></trkpt><trkpt lat="62.782759" lon="9.742079"><ele>1150</ele></trkpt><trkpt lat="62.783206" lon="9.741999"><ele>1166</ele></trkpt><trkpt lat="62.783653" lon="9.741920"><ele>1178</ele></trkpt><trkpt lat="62.784100" lon="9.741840"><ele>1189</ele></trkpt><trkpt lat="62.784264" lon="9.741417"><ele>1195</ele></trkpt></trkseg></trk><wpt lat="62.777433" lon="9.732031"><ele>901</ele><name>Run end · Brattskarven 1195 m</name></wpt><trk><name>Down · Brattskarven 1195 m</name><desc>fall-line run: 434 m of 20–30°, 199 m drop, aspect 276°, max 32°, 4.7% ≥30°; ends 1.1 km from the car.</desc><trkseg><trkpt lat="62.784264" lon="9.741417"><ele>1195</ele></trkpt><trkpt lat="62.777473" lon="9.740274"><ele>1100</ele></trkpt><trkpt lat="62.777272" lon="9.739720"><ele>1086</ele></trkpt><trkpt lat="62.776982" lon="9.739183"><ele>1070</ele></trkpt><trkpt lat="62.776960" lon="9.738598"><ele>1058</ele></trkpt><trkpt lat="62.776938" lon="9.738012"><ele>1047</ele></trkpt><trkpt lat="62.776916" lon="9.737427"><ele>1034</ele></trkpt><trkpt lat="62.776894" lon="9.736842"><ele>1018</ele></trkpt><trkpt lat="62.777140" lon="9.736209"><ele>998</ele></trkpt><trkpt lat="62.777118" lon="9.735623"><ele>985</ele></trkpt><trkpt lat="62.777096" lon="9.735038"><ele>975</ele></trkpt><trkpt lat="62.777164" lon="9.734437"><ele>965</ele></trkpt><trkpt lat="62.777142" lon="9.733851"><ele>952</ele></trkpt><trkpt lat="62.777120" lon="9.733266"><ele>936</ele></trkpt><trkpt lat="62.777187" lon="9.732665"><ele>923</ele></trkpt><trkpt lat="62.777433" lon="9.732031"><ele>901</ele></trkpt><trkpt lat="62.777433" lon="9.732031"><ele>901</ele></trkpt></trkseg></trk></gpx>