<?xml version="1.0" encoding="UTF-8"?>
<gpx version="1.1" creator="Rando toppturs" xmlns="http://www.topografix.com/GPX/1/1"><metadata><name>077 Ottdalskammen 1568 m</name><desc>Generated 2026-09-13 17:42 from Kartverket 10 m terrain. Ascent lines are least-cost terrain paths under 35°, not verified routes. Not a snow-stability assessment.</desc></metadata><wpt lat="62.694435" lon="9.000137"><ele>759</ele><name>Car · Ottdalskammen 1568 m</name></wpt><wpt lat="62.662188" lon="8.981036"><ele>1568</ele><name>Ottdalskammen 1568 m</name></wpt><trk><name>Up · Ottdalskammen 1568 m</name><desc>least-cost ascent: +873 m over 5644 m, max 30°, 0.0% on 30–35°, ≈3.59 h at 4 km/h + 400 m/h. Terrain possibility, not a checked route.</desc><trkseg><trkpt lat="62.694435" lon="9.000137"><ele>759</ele></trkpt><trkpt lat="62.693947" lon="8.999257"><ele>756</ele></trkpt><trkpt lat="62.693459" lon="8.998376"><ele>756</ele></trkpt><trkpt lat="62.692971" lon="8.997495"><ele>756</ele></trkpt><trkpt lat="62.692483" lon="8.996614"><ele>756</ele></trkpt><trkpt lat="62.691995" lon="8.995734"><ele>756</ele></trkpt><trkpt lat="62.691507" lon="8.994853"><ele>756</ele></trkpt><trkpt lat="62.691019" lon="8.993972"><ele>756</ele></trkpt><trkpt lat="62.690531" lon="8.993092"><ele>759</ele></trkpt><trkpt lat="62.690043" lon="8.992211"><ele>759</ele></trkpt><trkpt lat="62.689555" lon="8.991330"><ele>760</ele></trkpt><trkpt lat="62.689067" lon="8.990450"><ele>759</ele></trkpt><trkpt lat="62.688579" lon="8.989569"><ele>759</ele></trkpt><trkpt lat="62.688090" lon="8.988689"><ele>761</ele></trkpt><trkpt lat="62.687602" lon="8.987809"><ele>761</ele></trkpt><trkpt lat="62.687114" lon="8.986928"><ele>765</ele></trkpt><trkpt lat="62.686626" lon="8.986048"><ele>778</ele></trkpt><trkpt lat="62.686146" lon="8.985362"><ele>792</ele></trkpt><trkpt lat="62.685658" lon="8.984481"><ele>806</ele></trkpt><trkpt lat="62.685170" lon="8.983601"><ele>817</ele></trkpt><trkpt lat="62.684682" lon="8.982721"><ele>830</ele></trkpt><trkpt lat="62.684194" lon="8.981841"><ele>842</ele></trkpt><trkpt lat="62.683706" lon="8.980960"><ele>854</ele></trkpt><trkpt lat="62.683218" lon="8.980080"><ele>864</ele></trkpt><trkpt lat="62.682730" lon="8.979200"><ele>873</ele></trkpt><trkpt lat="62.682242" lon="8.978320"><ele>884</ele></trkpt><trkpt lat="62.681753" lon="8.977440"><ele>899</ele></trkpt><trkpt lat="62.681265" lon="8.976560"><ele>916</ele></trkpt><trkpt lat="62.680777" lon="8.975680"><ele>933</ele></trkpt><trkpt lat="62.680289" lon="8.974800"><ele>956</ele></trkpt><trkpt lat="62.679826" lon="8.974502"><ele>974</ele></trkpt><trkpt lat="62.679380" lon="8.974593"><ele>988</ele></trkpt><trkpt lat="62.678933" lon="8.974684"><ele>999</ele></trkpt><trkpt lat="62.678479" lon="8.974581"><ele>1009</ele></trkpt><trkpt lat="62.677990" lon="8.973701"><ele>1020</ele></trkpt><trkpt lat="62.677502" lon="8.972821"><ele>1018</ele></trkpt><trkpt lat="62.677014" lon="8.971942"><ele>1012</ele></trkpt><trkpt lat="62.676526" lon="8.971062"><ele>1016</ele></trkpt><trkpt lat="62.676038" lon="8.970182"><ele>1030</ele></trkpt><trkpt lat="62.675550" lon="8.969302"><ele>1026</ele></trkpt><trkpt lat="62.675061" lon="8.968422"><ele>1021</ele></trkpt><trkpt lat="62.674573" lon="8.967543"><ele>1020</ele></trkpt><trkpt lat="62.674085" lon="8.966663"><ele>1029</ele></trkpt><trkpt lat="62.673597" lon="8.965783"><ele>1031</ele></trkpt><trkpt lat="62.673109" lon="8.964904"><ele>1038</ele></trkpt><trkpt lat="62.672620" lon="8.964024"><ele>1046</ele></trkpt><trkpt lat="62.672149" lon="8.963533"><ele>1063</ele></trkpt><trkpt lat="62.671703" lon="8.963624"><ele>1075</ele></trkpt><trkpt lat="62.671256" lon="8.963715"><ele>1086</ele></trkpt><trkpt lat="62.670810" lon="8.963806"><ele>1095</ele></trkpt><trkpt lat="62.670364" lon="8.963898"><ele>1107</ele></trkpt><trkpt lat="62.669917" lon="8.963989"><ele>1117</ele></trkpt><trkpt lat="62.669471" lon="8.964080"><ele>1129</ele></trkpt><trkpt lat="62.669025" lon="8.964171"><ele>1139</ele></trkpt><trkpt lat="62.668553" lon="8.963680"><ele>1146</ele></trkpt><trkpt lat="62.668074" lon="8.962995"><ele>1147</ele></trkpt><trkpt lat="62.667619" lon="8.962892"><ele>1146</ele></trkpt><trkpt lat="62.667156" lon="8.962595"><ele>1140</ele></trkpt><trkpt lat="62.666684" lon="8.962103"><ele>1135</ele></trkpt><trkpt lat="62.666196" lon="8.961224"><ele>1130</ele></trkpt><trkpt lat="62.665708" lon="8.960345"><ele>1123</ele></trkpt><trkpt lat="62.665220" lon="8.959465"><ele>1118</ele></trkpt><trkpt lat="62.664731" lon="8.958586"><ele>1123</ele></trkpt><trkpt lat="62.664252" lon="8.957901"><ele>1138</ele></trkpt><trkpt lat="62.663830" lon="8.958574"><ele>1161</ele></trkpt><trkpt lat="62.663426" lon="8.959636"><ele>1182</ele></trkpt><trkpt lat="62.663022" lon="8.960698"><ele>1203</ele></trkpt><trkpt lat="62.662617" lon="8.961760"><ele>1221</ele></trkpt><trkpt lat="62.662570" lon="8.962748"><ele>1242</ele></trkpt><trkpt lat="62.662523" lon="8.963737"><ele>1260</ele></trkpt><trkpt lat="62.662565" lon="8.964707"><ele>1285</ele></trkpt><trkpt lat="62.662696" lon="8.965660"><ele>1310</ele></trkpt><trkpt lat="62.662916" lon="8.966594"><ele>1336</ele></trkpt><trkpt lat="62.662690" lon="8.967619"><ele>1363</ele></trkpt><trkpt lat="62.662464" lon="8.968644"><ele>1391</ele></trkpt><trkpt lat="62.662239" lon="8.969669"><ele>1416</ele></trkpt><trkpt lat="62.662102" lon="8.970676"><ele>1443</ele></trkpt><trkpt lat="62.661876" lon="8.971701"><ele>1465</ele></trkpt><trkpt lat="62.661918" lon="8.972671"><ele>1485</ele></trkpt><trkpt lat="62.661960" lon="8.973642"><ele>1500</ele></trkpt><trkpt lat="62.662002" lon="8.974612"><ele>1509</ele></trkpt><trkpt lat="62.662043" lon="8.975583"><ele>1520</ele></trkpt><trkpt lat="62.662085" lon="8.976553"><ele>1532</ele></trkpt><trkpt lat="62.662127" lon="8.977524"><ele>1539</ele></trkpt><trkpt lat="62.662169" lon="8.978494"><ele>1547</ele></trkpt><trkpt lat="62.662211" lon="8.979465"><ele>1557</ele></trkpt><trkpt lat="62.662253" lon="8.980435"><ele>1564</ele></trkpt><trkpt lat="62.662188" lon="8.981036"><ele>1568</ele></trkpt></trkseg></trk><wpt lat="62.660180" lon="8.965782"><ele>1313</ele><name>Run end · Ottdalskammen 1568 m</name></wpt><trk><name>Down · Ottdalskammen 1568 m</name><desc>fall-line run: 421 m of 20–30°, 157 m drop, aspect 258°, max 29°, 0.0% ≥30°; ends 4.21 km from the car.</desc><trkseg><trkpt lat="62.662188" lon="8.981036"><ele>1568</ele></trkpt><trkpt lat="62.661608" lon="8.971756"><ele>1470</ele></trkpt><trkpt lat="62.661583" lon="8.971173"><ele>1458</ele></trkpt><trkpt lat="62.661558" lon="8.970591"><ele>1446</ele></trkpt><trkpt lat="62.661533" lon="8.970009"><ele>1434</ele></trkpt><trkpt lat="62.661508" lon="8.969427"><ele>1423</ele></trkpt><trkpt lat="62.661483" lon="8.968844"><ele>1410</ele></trkpt><trkpt lat="62.661457" lon="8.968262"><ele>1394</ele></trkpt><trkpt lat="62.661254" lon="8.967716"><ele>1380</ele></trkpt><trkpt lat="62.660961" lon="8.967189"><ele>1360</ele></trkpt><trkpt lat="62.660668" lon="8.966661"><ele>1343</ele></trkpt><trkpt lat="62.660375" lon="8.966133"><ele>1325</ele></trkpt><trkpt lat="62.660180" lon="8.965782"><ele>1313</ele></trkpt></trkseg></trk></gpx>