<?xml version="1.0" encoding="UTF-8"?>
<gpx version="1.1" creator="Rando toppturs" xmlns="http://www.topografix.com/GPX/1/1"><metadata><name>078 Reinskinnhegninga 1190 m</name><desc>Generated 2026-09-13 17:42 from Kartverket 10 m terrain. Ascent lines are least-cost terrain paths under 35°, not verified routes. Not a snow-stability assessment.</desc></metadata><wpt lat="62.772662" lon="9.622904"><ele>768</ele><name>Car · Reinskinnhegninga 1190 m</name></wpt><wpt lat="62.759750" lon="9.645286"><ele>1190</ele><name>Reinskinnhegninga 1190 m</name></wpt><trk><name>Up · Reinskinnhegninga 1190 m</name><desc>least-cost ascent: +423 m over 2034 m, max 29°, 0.0% on 30–35°, ≈1.56 h at 4 km/h + 400 m/h. Terrain possibility, not a checked route.</desc><trkseg><trkpt lat="62.772662" lon="9.622904"><ele>768</ele></trkpt><trkpt lat="62.772520" lon="9.623912"><ele>777</ele></trkpt><trkpt lat="62.772200" lon="9.624952"><ele>792</ele></trkpt><trkpt lat="62.771791" lon="9.626009"><ele>815</ele></trkpt><trkpt lat="62.771381" lon="9.627066"><ele>839</ele></trkpt><trkpt lat="62.770972" lon="9.628122"><ele>871</ele></trkpt><trkpt lat="62.770555" lon="9.628984"><ele>896</ele></trkpt><trkpt lat="62.770146" lon="9.630041"><ele>929</ele></trkpt><trkpt lat="62.769729" lon="9.630902"><ele>949</ele></trkpt><trkpt lat="62.769289" lon="9.631179"><ele>963</ele></trkpt><trkpt lat="62.768842" lon="9.631260"><ele>971</ele></trkpt><trkpt lat="62.768396" lon="9.631342"><ele>975</ele></trkpt><trkpt lat="62.767964" lon="9.631813"><ele>985</ele></trkpt><trkpt lat="62.767539" lon="9.632480"><ele>996</ele></trkpt><trkpt lat="62.767130" lon="9.633536"><ele>1004</ele></trkpt><trkpt lat="62.766698" lon="9.634008"><ele>1020</ele></trkpt><trkpt lat="62.766289" lon="9.635064"><ele>1032</ele></trkpt><trkpt lat="62.765879" lon="9.636121"><ele>1050</ele></trkpt><trkpt lat="62.765470" lon="9.637177"><ele>1067</ele></trkpt><trkpt lat="62.765045" lon="9.637843"><ele>1083</ele></trkpt><trkpt lat="62.764636" lon="9.638900"><ele>1095</ele></trkpt><trkpt lat="62.764211" lon="9.639566"><ele>1109</ele></trkpt><trkpt lat="62.763764" lon="9.639647"><ele>1115</ele></trkpt><trkpt lat="62.763317" lon="9.639729"><ele>1123</ele></trkpt><trkpt lat="62.762871" lon="9.639810"><ele>1128</ele></trkpt><trkpt lat="62.762424" lon="9.639891"><ele>1133</ele></trkpt><trkpt lat="62.761977" lon="9.639973"><ele>1143</ele></trkpt><trkpt lat="62.761553" lon="9.640639"><ele>1146</ele></trkpt><trkpt lat="62.761143" lon="9.641695"><ele>1152</ele></trkpt><trkpt lat="62.760733" lon="9.642751"><ele>1166</ele></trkpt><trkpt lat="62.760324" lon="9.643807"><ele>1182</ele></trkpt><trkpt lat="62.759914" lon="9.644863"><ele>1187</ele></trkpt><trkpt lat="62.759750" lon="9.645286"><ele>1190</ele></trkpt></trkseg></trk><wpt lat="62.770241" lon="9.623150"><ele>805</ele><name>Run end · Reinskinnhegninga 1190 m</name></wpt><trk><name>Down · Reinskinnhegninga 1190 m</name><desc>fall-line run: 406 m of 20–30°, 317 m drop, aspect 322°, max 30°, 1.1% ≥30°; ends 0.27 km from the car.</desc><trkseg><trkpt lat="62.759750" lon="9.645286"><ele>1190</ele></trkpt><trkpt lat="62.763809" lon="9.636105"><ele>1122</ele></trkpt><trkpt lat="62.764054" lon="9.635471"><ele>1102</ele></trkpt><trkpt lat="62.764300" lon="9.634837"><ele>1086</ele></trkpt><trkpt lat="62.764561" lon="9.634594"><ele>1082</ele></trkpt><trkpt lat="62.764806" lon="9.633960"><ele>1069</ele></trkpt><trkpt lat="62.765052" lon="9.633326"><ele>1055</ele></trkpt><trkpt lat="62.765320" lon="9.633277"><ele>1052</ele></trkpt><trkpt lat="62.765596" lon="9.633423"><ele>1045</ele></trkpt><trkpt lat="62.765864" lon="9.633374"><ele>1037</ele></trkpt><trkpt lat="62.766125" lon="9.633130"><ele>1032</ele></trkpt><trkpt lat="62.766393" lon="9.633082"><ele>1028</ele></trkpt><trkpt lat="62.766661" lon="9.633033"><ele>1021</ele></trkpt><trkpt lat="62.766929" lon="9.632984"><ele>1008</ele></trkpt><trkpt lat="62.767197" lon="9.632935"><ele>1000</ele></trkpt><trkpt lat="62.767465" lon="9.632886"><ele>997</ele></trkpt><trkpt lat="62.767726" lon="9.632642"><ele>993</ele></trkpt><trkpt lat="62.767994" lon="9.632593"><ele>987</ele></trkpt><trkpt lat="62.768239" lon="9.631959"><ele>981</ele></trkpt><trkpt lat="62.768485" lon="9.631326"><ele>974</ele></trkpt><trkpt lat="62.768552" lon="9.630724"><ele>969</ele></trkpt><trkpt lat="62.768530" lon="9.630139"><ele>962</ele></trkpt><trkpt lat="62.768507" lon="9.629554"><ele>953</ele></trkpt><trkpt lat="62.768574" lon="9.628953"><ele>943</ele></trkpt><trkpt lat="62.768820" lon="9.628319"><ele>928</ele></trkpt><trkpt lat="62.769065" lon="9.627685"><ele>910</ele></trkpt><trkpt lat="62.769311" lon="9.627051"><ele>893</ele></trkpt><trkpt lat="62.769557" lon="9.626417"><ele>873</ele></trkpt><trkpt lat="62.769713" lon="9.625799"><ele>855</ele></trkpt><trkpt lat="62.769691" lon="9.625214"><ele>848</ele></trkpt><trkpt lat="62.769668" lon="9.624629"><ele>845</ele></trkpt><trkpt lat="62.769914" lon="9.623995"><ele>833</ele></trkpt><trkpt lat="62.770160" lon="9.623361"><ele>812</ele></trkpt><trkpt lat="62.770241" lon="9.623150"><ele>805</ele></trkpt></trkseg></trk></gpx>