<?xml version="1.0" encoding="UTF-8"?>
<gpx version="1.1" creator="Rando toppturs" xmlns="http://www.topografix.com/GPX/1/1"><metadata><name>079 Unnamed 1347 m</name><desc>Generated 2026-09-13 17:42 from Kartverket 10 m terrain. Ascent lines are least-cost terrain paths under 35°, not verified routes. Not a snow-stability assessment.</desc></metadata><wpt lat="62.780286" lon="9.561590"><ele>825</ele><name>Car · Unnamed summit 1347 m</name></wpt><wpt lat="62.819826" lon="9.334888"><ele>1347</ele><name>Unnamed summit 1347 m</name></wpt><trk><name>Up · Unnamed summit 1347 m</name><desc>least-cost ascent: +1220 m over 13996 m, max 30°, 0.0% on 30–35°, ≈6.55 h at 4 km/h + 400 m/h. Terrain possibility, not a checked route.</desc><trkseg><trkpt lat="62.780286" lon="9.561590"><ele>825</ele></trkpt><trkpt lat="62.780427" lon="9.560581"><ele>816</ele></trkpt><trkpt lat="62.780478" lon="9.559590"><ele>809</ele></trkpt><trkpt lat="62.780887" lon="9.558532"><ele>805</ele></trkpt><trkpt lat="62.781296" lon="9.557474"><ele>800</ele></trkpt><trkpt lat="62.781705" lon="9.556416"><ele>795</ele></trkpt><trkpt lat="62.782114" lon="9.555357"><ele>795</ele></trkpt><trkpt lat="62.782523" lon="9.554299"><ele>794</ele></trkpt><trkpt lat="62.782932" lon="9.553241"><ele>794</ele></trkpt><trkpt lat="62.783341" lon="9.552183"><ele>794</ele></trkpt><trkpt lat="62.783750" lon="9.551125"><ele>794</ele></trkpt><trkpt lat="62.784158" lon="9.550067"><ele>793</ele></trkpt><trkpt lat="62.784567" lon="9.549008"><ele>794</ele></trkpt><trkpt lat="62.784976" lon="9.547950"><ele>793</ele></trkpt><trkpt lat="62.785385" lon="9.546892"><ele>795</ele></trkpt><trkpt lat="62.785794" lon="9.545834"><ele>794</ele></trkpt><trkpt lat="62.786202" lon="9.544775"><ele>795</ele></trkpt><trkpt lat="62.786611" lon="9.543717"><ele>795</ele></trkpt><trkpt lat="62.787020" lon="9.542658"><ele>796</ele></trkpt><trkpt lat="62.787250" lon="9.541633"><ele>796</ele></trkpt><trkpt lat="62.787212" lon="9.540658"><ele>797</ele></trkpt><trkpt lat="62.787174" lon="9.539682"><ele>798</ele></trkpt><trkpt lat="62.787226" lon="9.538690"><ele>805</ele></trkpt><trkpt lat="62.787188" lon="9.537714"><ele>812</ele></trkpt><trkpt lat="62.787150" lon="9.536739"><ele>817</ele></trkpt><trkpt lat="62.787112" lon="9.535763"><ele>824</ele></trkpt><trkpt lat="62.787074" lon="9.534788"><ele>830</ele></trkpt><trkpt lat="62.787036" lon="9.533812"><ele>829</ele></trkpt><trkpt lat="62.786998" lon="9.532837"><ele>834</ele></trkpt><trkpt lat="62.786960" lon="9.531861"><ele>845</ele></trkpt><trkpt lat="62.786921" lon="9.530886"><ele>857</ele></trkpt><trkpt lat="62.786883" lon="9.529910"><ele>862</ele></trkpt><trkpt lat="62.786845" lon="9.528935"><ele>863</ele></trkpt><trkpt lat="62.786807" lon="9.527959"><ele>864</ele></trkpt><trkpt lat="62.786769" lon="9.526984"><ele>869</ele></trkpt><trkpt lat="62.786731" lon="9.526008"><ele>872</ele></trkpt><trkpt lat="62.786693" lon="9.525033"><ele>882</ele></trkpt><trkpt lat="62.786655" lon="9.524057"><ele>876</ele></trkpt><trkpt lat="62.786617" lon="9.523082"><ele>870</ele></trkpt><trkpt lat="62.786579" lon="9.522106"><ele>866</ele></trkpt><trkpt lat="62.786541" lon="9.521131"><ele>865</ele></trkpt><trkpt lat="62.786503" lon="9.520155"><ele>865</ele></trkpt><trkpt lat="62.786465" lon="9.519180"><ele>867</ele></trkpt><trkpt lat="62.786426" lon="9.518204"><ele>870</ele></trkpt><trkpt lat="62.786478" lon="9.517212"><ele>874</ele></trkpt><trkpt lat="62.786529" lon="9.516220"><ele>887</ele></trkpt><trkpt lat="62.786491" lon="9.515244"><ele>893</ele></trkpt><trkpt lat="62.786453" lon="9.514269"><ele>899</ele></trkpt><trkpt lat="62.786414" lon="9.513294"><ele>908</ele></trkpt><trkpt lat="62.786376" lon="9.512318"><ele>919</ele></trkpt><trkpt lat="62.786338" lon="9.511343"><ele>929</ele></trkpt><trkpt lat="62.786300" lon="9.510367"><ele>923</ele></trkpt><trkpt lat="62.786262" lon="9.509392"><ele>920</ele></trkpt><trkpt lat="62.786224" lon="9.508416"><ele>914</ele></trkpt><trkpt lat="62.786185" lon="9.507441"><ele>906</ele></trkpt><trkpt lat="62.786147" lon="9.506465"><ele>905</ele></trkpt><trkpt lat="62.786109" lon="9.505490"><ele>900</ele></trkpt><trkpt lat="62.786071" lon="9.504514"><ele>884</ele></trkpt><trkpt lat="62.786032" lon="9.503539"><ele>878</ele></trkpt><trkpt lat="62.785994" lon="9.502563"><ele>878</ele></trkpt><trkpt lat="62.785956" lon="9.501588"><ele>870</ele></trkpt><trkpt lat="62.785918" lon="9.500613"><ele>861</ele></trkpt><trkpt lat="62.785879" lon="9.499637"><ele>857</ele></trkpt><trkpt lat="62.785841" lon="9.498662"><ele>852</ele></trkpt><trkpt lat="62.785803" lon="9.497686"><ele>852</ele></trkpt><trkpt lat="62.785765" lon="9.496711"><ele>853</ele></trkpt><trkpt lat="62.785726" lon="9.495735"><ele>861</ele></trkpt><trkpt lat="62.785688" lon="9.494760"><ele>867</ele></trkpt><trkpt lat="62.785650" lon="9.493785"><ele>869</ele></trkpt><trkpt lat="62.785612" lon="9.492809"><ele>878</ele></trkpt><trkpt lat="62.785573" lon="9.491834"><ele>890</ele></trkpt><trkpt lat="62.785535" lon="9.490858"><ele>895</ele></trkpt><trkpt lat="62.785497" lon="9.489883"><ele>898</ele></trkpt><trkpt lat="62.785458" lon="9.488908"><ele>901</ele></trkpt><trkpt lat="62.785420" lon="9.487932"><ele>905</ele></trkpt><trkpt lat="62.785382" lon="9.486957"><ele>903</ele></trkpt><trkpt lat="62.785343" lon="9.485981"><ele>902</ele></trkpt><trkpt lat="62.785305" lon="9.485006"><ele>901</ele></trkpt><trkpt lat="62.785267" lon="9.484031"><ele>899</ele></trkpt><trkpt lat="62.785228" lon="9.483055"><ele>901</ele></trkpt><trkpt lat="62.785190" lon="9.482080"><ele>899</ele></trkpt><trkpt lat="62.785151" lon="9.481104"><ele>898</ele></trkpt><trkpt lat="62.785113" lon="9.480129"><ele>900</ele></trkpt><trkpt lat="62.785075" lon="9.479154"><ele>902</ele></trkpt><trkpt lat="62.785036" lon="9.478178"><ele>902</ele></trkpt><trkpt lat="62.784998" lon="9.477203"><ele>901</ele></trkpt><trkpt lat="62.784959" lon="9.476228"><ele>900</ele></trkpt><trkpt lat="62.784921" lon="9.475252"><ele>902</ele></trkpt><trkpt lat="62.784972" lon="9.474260"><ele>902</ele></trkpt><trkpt lat="62.785380" lon="9.473201"><ele>903</ele></trkpt><trkpt lat="62.785788" lon="9.472141"><ele>898</ele></trkpt><trkpt lat="62.786197" lon="9.471082"><ele>903</ele></trkpt><trkpt lat="62.786605" lon="9.470023"><ele>909</ele></trkpt><trkpt lat="62.787013" lon="9.468963"><ele>919</ele></trkpt><trkpt lat="62.787421" lon="9.467904"><ele>925</ele></trkpt><trkpt lat="62.787830" lon="9.466844"><ele>930</ele></trkpt><trkpt lat="62.788238" lon="9.465785"><ele>936</ele></trkpt><trkpt lat="62.788646" lon="9.464725"><ele>941</ele></trkpt><trkpt lat="62.789054" lon="9.463666"><ele>946</ele></trkpt><trkpt lat="62.789462" lon="9.462606"><ele>953</ele></trkpt><trkpt lat="62.789870" lon="9.461547"><ele>960</ele></trkpt><trkpt lat="62.790279" lon="9.460487"><ele>970</ele></trkpt><trkpt lat="62.790687" lon="9.459427"><ele>979</ele></trkpt><trkpt lat="62.791095" lon="9.458368"><ele>991</ele></trkpt><trkpt lat="62.791503" lon="9.457308"><ele>1002</ele></trkpt><trkpt lat="62.791911" lon="9.456248"><ele>1012</ele></trkpt><trkpt lat="62.792319" lon="9.455188"><ele>1023</ele></trkpt><trkpt lat="62.792727" lon="9.454129"><ele>1035</ele></trkpt><trkpt lat="62.793135" lon="9.453069"><ele>1047</ele></trkpt><trkpt lat="62.793544" lon="9.452009"><ele>1061</ele></trkpt><trkpt lat="62.793952" lon="9.450949"><ele>1075</ele></trkpt><trkpt lat="62.794360" lon="9.449889"><ele>1090</ele></trkpt><trkpt lat="62.794768" lon="9.448829"><ele>1104</ele></trkpt><trkpt lat="62.795176" lon="9.447769"><ele>1114</ele></trkpt><trkpt lat="62.795584" lon="9.446709"><ele>1124</ele></trkpt><trkpt lat="62.795992" lon="9.445649"><ele>1131</ele></trkpt><trkpt lat="62.796400" lon="9.444589"><ele>1141</ele></trkpt><trkpt lat="62.796808" lon="9.443529"><ele>1152</ele></trkpt><trkpt lat="62.797216" lon="9.442469"><ele>1158</ele></trkpt><trkpt lat="62.797624" lon="9.441409"><ele>1162</ele></trkpt><trkpt lat="62.798032" lon="9.440348"><ele>1163</ele></trkpt><trkpt lat="62.798440" lon="9.439288"><ele>1164</ele></trkpt><trkpt lat="62.798848" lon="9.438228"><ele>1162</ele></trkpt><trkpt lat="62.799256" lon="9.437168"><ele>1159</ele></trkpt><trkpt lat="62.799664" lon="9.436107"><ele>1156</ele></trkpt><trkpt lat="62.800072" lon="9.435047"><ele>1153</ele></trkpt><trkpt lat="62.800480" lon="9.433987"><ele>1150</ele></trkpt><trkpt lat="62.800888" lon="9.432926"><ele>1146</ele></trkpt><trkpt lat="62.801296" lon="9.431866"><ele>1141</ele></trkpt><trkpt lat="62.801704" lon="9.430805"><ele>1141</ele></trkpt><trkpt lat="62.802112" lon="9.429745"><ele>1141</ele></trkpt><trkpt lat="62.802519" lon="9.428684"><ele>1145</ele></trkpt><trkpt lat="62.802927" lon="9.427624"><ele>1144</ele></trkpt><trkpt lat="62.803335" lon="9.426563"><ele>1139</ele></trkpt><trkpt lat="62.803743" lon="9.425502"><ele>1139</ele></trkpt><trkpt lat="62.804151" lon="9.424442"><ele>1146</ele></trkpt><trkpt lat="62.804470" lon="9.423398"><ele>1165</ele></trkpt><trkpt lat="62.804609" lon="9.422388"><ele>1175</ele></trkpt><trkpt lat="62.804660" lon="9.421395"><ele>1184</ele></trkpt><trkpt lat="62.804621" lon="9.420419"><ele>1196</ele></trkpt><trkpt lat="62.804582" lon="9.419444"><ele>1203</ele></trkpt><trkpt lat="62.804544" lon="9.418468"><ele>1210</ele></trkpt><trkpt lat="62.804505" lon="9.417492"><ele>1221</ele></trkpt><trkpt lat="62.804466" lon="9.416516"><ele>1232</ele></trkpt><trkpt lat="62.804516" lon="9.415523"><ele>1247</ele></trkpt><trkpt lat="62.804567" lon="9.414530"><ele>1261</ele></trkpt><trkpt lat="62.804617" lon="9.413537"><ele>1278</ele></trkpt><trkpt lat="62.804578" lon="9.412561"><ele>1293</ele></trkpt><trkpt lat="62.804629" lon="9.411568"><ele>1309</ele></trkpt><trkpt lat="62.804679" lon="9.410575"><ele>1324</ele></trkpt><trkpt lat="62.804730" lon="9.409583"><ele>1339</ele></trkpt><trkpt lat="62.804691" lon="9.408607"><ele>1352</ele></trkpt><trkpt lat="62.804920" lon="9.407580"><ele>1357</ele></trkpt><trkpt lat="62.805328" lon="9.406519"><ele>1354</ele></trkpt><trkpt lat="62.805735" lon="9.405458"><ele>1349</ele></trkpt><trkpt lat="62.806054" lon="9.404414"><ele>1359</ele></trkpt><trkpt lat="62.806372" lon="9.403370"><ele>1357</ele></trkpt><trkpt lat="62.806780" lon="9.402309"><ele>1358</ele></trkpt><trkpt lat="62.806920" lon="9.401299"><ele>1341</ele></trkpt><trkpt lat="62.807059" lon="9.400289"><ele>1326</ele></trkpt><trkpt lat="62.807199" lon="9.399279"><ele>1330</ele></trkpt><trkpt lat="62.807249" lon="9.398286"><ele>1323</ele></trkpt><trkpt lat="62.807210" lon="9.397310"><ele>1316</ele></trkpt><trkpt lat="62.807172" lon="9.396334"><ele>1315</ele></trkpt><trkpt lat="62.807133" lon="9.395358"><ele>1304</ele></trkpt><trkpt lat="62.807094" lon="9.394382"><ele>1294</ele></trkpt><trkpt lat="62.807055" lon="9.393406"><ele>1288</ele></trkpt><trkpt lat="62.807373" lon="9.392362"><ele>1279</ele></trkpt><trkpt lat="62.807423" lon="9.391369"><ele>1263</ele></trkpt><trkpt lat="62.807384" lon="9.390393"><ele>1253</ele></trkpt><trkpt lat="62.807345" lon="9.389417"><ele>1240</ele></trkpt><trkpt lat="62.807485" lon="9.388407"><ele>1227</ele></trkpt><trkpt lat="62.807892" lon="9.387346"><ele>1204</ele></trkpt><trkpt lat="62.807943" lon="9.386353"><ele>1200</ele></trkpt><trkpt lat="62.808261" lon="9.385308"><ele>1180</ele></trkpt><trkpt lat="62.808400" lon="9.384298"><ele>1163</ele></trkpt><trkpt lat="62.808451" lon="9.383305"><ele>1147</ele></trkpt><trkpt lat="62.808412" lon="9.382329"><ele>1135</ele></trkpt><trkpt lat="62.808819" lon="9.381268"><ele>1115</ele></trkpt><trkpt lat="62.809227" lon="9.380206"><ele>1094</ele></trkpt><trkpt lat="62.809634" lon="9.379145"><ele>1074</ele></trkpt><trkpt lat="62.809863" lon="9.378118"><ele>1057</ele></trkpt><trkpt lat="62.810092" lon="9.377090"><ele>1039</ele></trkpt><trkpt lat="62.810142" lon="9.376097"><ele>1025</ele></trkpt><trkpt lat="62.810282" lon="9.375087"><ele>1010</ele></trkpt><trkpt lat="62.810421" lon="9.374077"><ele>990</ele></trkpt><trkpt lat="62.810561" lon="9.373066"><ele>974</ele></trkpt><trkpt lat="62.810522" lon="9.372090"><ele>964</ele></trkpt><trkpt lat="62.810482" lon="9.371114"><ele>955</ele></trkpt><trkpt lat="62.810443" lon="9.370138"><ele>946</ele></trkpt><trkpt lat="62.810404" lon="9.369162"><ele>941</ele></trkpt><trkpt lat="62.810365" lon="9.368186"><ele>935</ele></trkpt><trkpt lat="62.810326" lon="9.367210"><ele>928</ele></trkpt><trkpt lat="62.810287" lon="9.366234"><ele>922</ele></trkpt><trkpt lat="62.810247" lon="9.365258"><ele>915</ele></trkpt><trkpt lat="62.810208" lon="9.364282"><ele>909</ele></trkpt><trkpt lat="62.810169" lon="9.363306"><ele>905</ele></trkpt><trkpt lat="62.810130" lon="9.362330"><ele>897</ele></trkpt><trkpt lat="62.810091" lon="9.361354"><ele>893</ele></trkpt><trkpt lat="62.810051" lon="9.360378"><ele>888</ele></trkpt><trkpt lat="62.810012" lon="9.359402"><ele>882</ele></trkpt><trkpt lat="62.809973" lon="9.358426"><ele>876</ele></trkpt><trkpt lat="62.809934" lon="9.357450"><ele>872</ele></trkpt><trkpt lat="62.809894" lon="9.356474"><ele>869</ele></trkpt><trkpt lat="62.809855" lon="9.355498"><ele>872</ele></trkpt><trkpt lat="62.809816" lon="9.354522"><ele>876</ele></trkpt><trkpt lat="62.809777" lon="9.353546"><ele>877</ele></trkpt><trkpt lat="62.809737" lon="9.352570"><ele>879</ele></trkpt><trkpt lat="62.809787" lon="9.351577"><ele>883</ele></trkpt><trkpt lat="62.810195" lon="9.350515"><ele>885</ele></trkpt><trkpt lat="62.810602" lon="9.349453"><ele>888</ele></trkpt><trkpt lat="62.811009" lon="9.348391"><ele>900</ele></trkpt><trkpt lat="62.811416" lon="9.347330"><ele>916</ele></trkpt><trkpt lat="62.811824" lon="9.346268"><ele>938</ele></trkpt><trkpt lat="62.812231" lon="9.345206"><ele>966</ele></trkpt><trkpt lat="62.812638" lon="9.344144"><ele>995</ele></trkpt><trkpt lat="62.812688" lon="9.343150"><ele>1016</ele></trkpt><trkpt lat="62.813103" lon="9.342283"><ele>1051</ele></trkpt><trkpt lat="62.813574" lon="9.342783"><ele>1062</ele></trkpt><trkpt lat="62.813810" lon="9.341951"><ele>1087</ele></trkpt><trkpt lat="62.814039" lon="9.340923"><ele>1111</ele></trkpt><trkpt lat="62.814357" lon="9.339878"><ele>1132</ele></trkpt><trkpt lat="62.814803" lon="9.339792"><ele>1149</ele></trkpt><trkpt lat="62.815265" lon="9.340096"><ele>1168</ele></trkpt><trkpt lat="62.815704" lon="9.339815"><ele>1184</ele></trkpt><trkpt lat="62.816151" lon="9.339729"><ele>1197</ele></trkpt><trkpt lat="62.816605" lon="9.339838"><ele>1215</ele></trkpt><trkpt lat="62.817052" lon="9.339752"><ele>1227</ele></trkpt><trkpt lat="62.817498" lon="9.339666"><ele>1237</ele></trkpt><trkpt lat="62.817937" lon="9.339385"><ele>1254</ele></trkpt><trkpt lat="62.818384" lon="9.339299"><ele>1265</ele></trkpt><trkpt lat="62.818620" lon="9.338466"><ele>1287</ele></trkpt><trkpt lat="62.818849" lon="9.337438"><ele>1308</ele></trkpt><trkpt lat="62.819256" lon="9.336376"><ele>1331</ele></trkpt><trkpt lat="62.819663" lon="9.335313"><ele>1344</ele></trkpt><trkpt lat="62.819826" lon="9.334888"><ele>1347</ele></trkpt></trkseg></trk><wpt lat="62.824964" lon="9.348461"><ele>1024</ele><name>Run end · Unnamed summit 1347 m</name></wpt><trk><name>Down · Unnamed summit 1347 m</name><desc>fall-line run: 406 m of 20–30°, 245 m drop, aspect 73°, max 32°, 1.7% ≥30°; ends 11.97 km from the car.</desc><trkseg><trkpt lat="62.819826" lon="9.334888"><ele>1347</ele></trkpt><trkpt lat="62.821552" lon="9.330816"><ele>1269</ele></trkpt><trkpt lat="62.821820" lon="9.330765"><ele>1256</ele></trkpt><trkpt lat="62.822088" lon="9.330713"><ele>1240</ele></trkpt><trkpt lat="62.822348" lon="9.330466"><ele>1232</ele></trkpt><trkpt lat="62.822608" lon="9.330219"><ele>1223</ele></trkpt><trkpt lat="62.822868" lon="9.329972"><ele>1218</ele></trkpt><trkpt lat="62.823112" lon="9.329334"><ele>1209</ele></trkpt><trkpt lat="62.823396" lon="9.329673"><ele>1203</ele></trkpt><trkpt lat="62.823598" lon="9.330224"><ele>1201</ele></trkpt><trkpt lat="62.823890" lon="9.330758"><ele>1200</ele></trkpt><trkpt lat="62.823913" lon="9.331344"><ele>1197</ele></trkpt><trkpt lat="62.823937" lon="9.331930"><ele>1196</ele></trkpt><trkpt lat="62.823961" lon="9.332516"><ele>1190</ele></trkpt><trkpt lat="62.824163" lon="9.333067"><ele>1185</ele></trkpt><trkpt lat="62.824365" lon="9.333619"><ele>1184</ele></trkpt><trkpt lat="62.824478" lon="9.334187"><ele>1182</ele></trkpt><trkpt lat="62.824591" lon="9.334756"><ele>1177</ele></trkpt><trkpt lat="62.824883" lon="9.335290"><ele>1168</ele></trkpt><trkpt lat="62.825174" lon="9.335824"><ele>1154</ele></trkpt><trkpt lat="62.825198" lon="9.336410"><ele>1147</ele></trkpt><trkpt lat="62.825132" lon="9.337013"><ele>1144</ele></trkpt><trkpt lat="62.825067" lon="9.337616"><ele>1142</ele></trkpt><trkpt lat="62.825090" lon="9.338202"><ele>1137</ele></trkpt><trkpt lat="62.825114" lon="9.338788"><ele>1132</ele></trkpt><trkpt lat="62.825138" lon="9.339374"><ele>1127</ele></trkpt><trkpt lat="62.825161" lon="9.339960"><ele>1121</ele></trkpt><trkpt lat="62.825185" lon="9.340546"><ele>1115</ele></trkpt><trkpt lat="62.825208" lon="9.341132"><ele>1110</ele></trkpt><trkpt lat="62.825143" lon="9.341735"><ele>1106</ele></trkpt><trkpt lat="62.825166" lon="9.342321"><ele>1097</ele></trkpt><trkpt lat="62.825101" lon="9.342924"><ele>1088</ele></trkpt><trkpt lat="62.825124" lon="9.343510"><ele>1080</ele></trkpt><trkpt lat="62.825148" lon="9.344096"><ele>1074</ele></trkpt><trkpt lat="62.825082" lon="9.344699"><ele>1067</ele></trkpt><trkpt lat="62.825106" lon="9.345284"><ele>1060</ele></trkpt><trkpt lat="62.825129" lon="9.345870"><ele>1053</ele></trkpt><trkpt lat="62.824974" lon="9.346491"><ele>1045</ele></trkpt><trkpt lat="62.824998" lon="9.347077"><ele>1039</ele></trkpt><trkpt lat="62.824932" lon="9.347680"><ele>1031</ele></trkpt><trkpt lat="62.824956" lon="9.348266"><ele>1025</ele></trkpt><trkpt lat="62.824964" lon="9.348461"><ele>1024</ele></trkpt></trkseg></trk></gpx>