<?xml version="1.0" encoding="UTF-8"?>
<gpx version="1.1" creator="Rando toppturs" xmlns="http://www.topografix.com/GPX/1/1"><metadata><name>084 Mellomfjellet 1319 m</name><desc>Generated 2026-09-13 17:42 from Kartverket 10 m terrain. Ascent lines are least-cost terrain paths under 35°, not verified routes. Not a snow-stability assessment.</desc></metadata><wpt lat="62.700470" lon="9.363883"><ele>673</ele><name>Car · Mellomfjellet 1319 m</name></wpt><wpt lat="62.781977" lon="9.262977"><ele>1319</ele><name>Mellomfjellet 1319 m</name></wpt><trk><name>Up · Mellomfjellet 1319 m</name><desc>least-cost ascent: +890 m over 11470 m, max 31°, 0.1% on 30–35°, ≈5.09 h at 4 km/h + 400 m/h. Terrain possibility, not a checked route.</desc><trkseg><trkpt lat="62.700470" lon="9.363883"><ele>673</ele></trkpt><trkpt lat="62.700917" lon="9.363798"><ele>681</ele></trkpt><trkpt lat="62.701364" lon="9.363712"><ele>689</ele></trkpt><trkpt lat="62.701810" lon="9.363627"><ele>696</ele></trkpt><trkpt lat="62.702257" lon="9.363542"><ele>706</ele></trkpt><trkpt lat="62.702704" lon="9.363456"><ele>716</ele></trkpt><trkpt lat="62.703150" lon="9.363371"><ele>730</ele></trkpt><trkpt lat="62.703565" lon="9.362508"><ele>743</ele></trkpt><trkpt lat="62.703973" lon="9.361450"><ele>759</ele></trkpt><trkpt lat="62.704380" lon="9.360392"><ele>778</ele></trkpt><trkpt lat="62.704788" lon="9.359334"><ele>790</ele></trkpt><trkpt lat="62.705195" lon="9.358276"><ele>805</ele></trkpt><trkpt lat="62.705626" lon="9.357802"><ele>820</ele></trkpt><trkpt lat="62.706065" lon="9.357522"><ele>836</ele></trkpt><trkpt lat="62.706472" lon="9.356464"><ele>848</ele></trkpt><trkpt lat="62.706880" lon="9.355406"><ele>862</ele></trkpt><trkpt lat="62.707287" lon="9.354348"><ele>876</ele></trkpt><trkpt lat="62.707694" lon="9.353290"><ele>885</ele></trkpt><trkpt lat="62.708102" lon="9.352232"><ele>895</ele></trkpt><trkpt lat="62.708509" lon="9.351174"><ele>906</ele></trkpt><trkpt lat="62.708916" lon="9.350116"><ele>916</ele></trkpt><trkpt lat="62.709355" lon="9.349836"><ele>928</ele></trkpt><trkpt lat="62.709802" lon="9.349750"><ele>937</ele></trkpt><trkpt lat="62.710248" lon="9.349665"><ele>948</ele></trkpt><trkpt lat="62.710695" lon="9.349579"><ele>956</ele></trkpt><trkpt lat="62.711142" lon="9.349494"><ele>960</ele></trkpt><trkpt lat="62.711588" lon="9.349408"><ele>963</ele></trkpt><trkpt lat="62.712035" lon="9.349322"><ele>964</ele></trkpt><trkpt lat="62.712481" lon="9.349237"><ele>966</ele></trkpt><trkpt lat="62.712928" lon="9.349151"><ele>970</ele></trkpt><trkpt lat="62.713375" lon="9.349066"><ele>973</ele></trkpt><trkpt lat="62.713821" lon="9.348980"><ele>974</ele></trkpt><trkpt lat="62.714268" lon="9.348895"><ele>976</ele></trkpt><trkpt lat="62.714714" lon="9.348809"><ele>976</ele></trkpt><trkpt lat="62.715161" lon="9.348724"><ele>977</ele></trkpt><trkpt lat="62.715608" lon="9.348638"><ele>979</ele></trkpt><trkpt lat="62.716054" lon="9.348553"><ele>979</ele></trkpt><trkpt lat="62.716493" lon="9.348272"><ele>979</ele></trkpt><trkpt lat="62.716932" lon="9.347992"><ele>984</ele></trkpt><trkpt lat="62.717378" lon="9.347907"><ele>984</ele></trkpt><trkpt lat="62.717825" lon="9.347821"><ele>984</ele></trkpt><trkpt lat="62.718271" lon="9.347735"><ele>986</ele></trkpt><trkpt lat="62.718718" lon="9.347650"><ele>989</ele></trkpt><trkpt lat="62.719133" lon="9.346786"><ele>992</ele></trkpt><trkpt lat="62.719572" lon="9.346506"><ele>987</ele></trkpt><trkpt lat="62.720003" lon="9.346031"><ele>991</ele></trkpt><trkpt lat="62.720442" lon="9.345751"><ele>993</ele></trkpt><trkpt lat="62.720888" lon="9.345665"><ele>1000</ele></trkpt><trkpt lat="62.721335" lon="9.345579"><ele>1001</ele></trkpt><trkpt lat="62.721781" lon="9.345494"><ele>1001</ele></trkpt><trkpt lat="62.722228" lon="9.345408"><ele>1007</ele></trkpt><trkpt lat="62.722675" lon="9.345323"><ele>1010</ele></trkpt><trkpt lat="62.723090" lon="9.344458"><ele>1022</ele></trkpt><trkpt lat="62.723497" lon="9.343400"><ele>1026</ele></trkpt><trkpt lat="62.723904" lon="9.342341"><ele>1032</ele></trkpt><trkpt lat="62.724312" lon="9.341282"><ele>1035</ele></trkpt><trkpt lat="62.724719" lon="9.340223"><ele>1040</ele></trkpt><trkpt lat="62.725126" lon="9.339164"><ele>1047</ele></trkpt><trkpt lat="62.725533" lon="9.338105"><ele>1052</ele></trkpt><trkpt lat="62.725940" lon="9.337046"><ele>1057</ele></trkpt><trkpt lat="62.726348" lon="9.335987"><ele>1061</ele></trkpt><trkpt lat="62.726755" lon="9.334928"><ele>1065</ele></trkpt><trkpt lat="62.727162" lon="9.333869"><ele>1069</ele></trkpt><trkpt lat="62.727569" lon="9.332810"><ele>1076</ele></trkpt><trkpt lat="62.727977" lon="9.331751"><ele>1082</ele></trkpt><trkpt lat="62.728384" lon="9.330692"><ele>1085</ele></trkpt><trkpt lat="62.728791" lon="9.329633"><ele>1088</ele></trkpt><trkpt lat="62.729198" lon="9.328574"><ele>1089</ele></trkpt><trkpt lat="62.729605" lon="9.327515"><ele>1089</ele></trkpt><trkpt lat="62.730012" lon="9.326455"><ele>1094</ele></trkpt><trkpt lat="62.730420" lon="9.325396"><ele>1093</ele></trkpt><trkpt lat="62.730827" lon="9.324337"><ele>1094</ele></trkpt><trkpt lat="62.731234" lon="9.323277"><ele>1096</ele></trkpt><trkpt lat="62.731641" lon="9.322218"><ele>1096</ele></trkpt><trkpt lat="62.732048" lon="9.321159"><ele>1092</ele></trkpt><trkpt lat="62.732455" lon="9.320099"><ele>1088</ele></trkpt><trkpt lat="62.732862" lon="9.319040"><ele>1083</ele></trkpt><trkpt lat="62.733269" lon="9.317980"><ele>1079</ele></trkpt><trkpt lat="62.733676" lon="9.316921"><ele>1075</ele></trkpt><trkpt lat="62.734083" lon="9.315861"><ele>1073</ele></trkpt><trkpt lat="62.734490" lon="9.314802"><ele>1073</ele></trkpt><trkpt lat="62.734898" lon="9.313742"><ele>1073</ele></trkpt><trkpt lat="62.735305" lon="9.312683"><ele>1073</ele></trkpt><trkpt lat="62.735712" lon="9.311623"><ele>1073</ele></trkpt><trkpt lat="62.736119" lon="9.310563"><ele>1075</ele></trkpt><trkpt lat="62.736526" lon="9.309504"><ele>1077</ele></trkpt><trkpt lat="62.736933" lon="9.308444"><ele>1081</ele></trkpt><trkpt lat="62.737340" lon="9.307384"><ele>1087</ele></trkpt><trkpt lat="62.737747" lon="9.306324"><ele>1091</ele></trkpt><trkpt lat="62.738154" lon="9.305265"><ele>1096</ele></trkpt><trkpt lat="62.738561" lon="9.304205"><ele>1103</ele></trkpt><trkpt lat="62.738968" lon="9.303145"><ele>1110</ele></trkpt><trkpt lat="62.739196" lon="9.302119"><ele>1120</ele></trkpt><trkpt lat="62.739424" lon="9.301094"><ele>1133</ele></trkpt><trkpt lat="62.739831" lon="9.300034"><ele>1145</ele></trkpt><trkpt lat="62.740278" lon="9.299948"><ele>1146</ele></trkpt><trkpt lat="62.740724" lon="9.299861"><ele>1146</ele></trkpt><trkpt lat="62.741171" lon="9.299775"><ele>1146</ele></trkpt><trkpt lat="62.741617" lon="9.299689"><ele>1146</ele></trkpt><trkpt lat="62.742064" lon="9.299602"><ele>1146</ele></trkpt><trkpt lat="62.742511" lon="9.299516"><ele>1146</ele></trkpt><trkpt lat="62.742957" lon="9.299429"><ele>1146</ele></trkpt><trkpt lat="62.743380" lon="9.298759"><ele>1147</ele></trkpt><trkpt lat="62.743787" lon="9.297699"><ele>1157</ele></trkpt><trkpt lat="62.744210" lon="9.297028"><ele>1179</ele></trkpt><trkpt lat="62.744624" lon="9.296163"><ele>1193</ele></trkpt><trkpt lat="62.745063" lon="9.295881"><ele>1205</ele></trkpt><trkpt lat="62.745510" lon="9.295795"><ele>1211</ele></trkpt><trkpt lat="62.745956" lon="9.295708"><ele>1214</ele></trkpt><trkpt lat="62.746403" lon="9.295622"><ele>1217</ele></trkpt><trkpt lat="62.746849" lon="9.295535"><ele>1220</ele></trkpt><trkpt lat="62.747296" lon="9.295449"><ele>1223</ele></trkpt><trkpt lat="62.747711" lon="9.294583"><ele>1212</ele></trkpt><trkpt lat="62.748118" lon="9.293523"><ele>1211</ele></trkpt><trkpt lat="62.748524" lon="9.292463"><ele>1212</ele></trkpt><trkpt lat="62.748931" lon="9.291402"><ele>1212</ele></trkpt><trkpt lat="62.749346" lon="9.290537"><ele>1207</ele></trkpt><trkpt lat="62.749777" lon="9.290061"><ele>1207</ele></trkpt><trkpt lat="62.750215" lon="9.289779"><ele>1212</ele></trkpt><trkpt lat="62.750662" lon="9.289693"><ele>1215</ele></trkpt><trkpt lat="62.751101" lon="9.289411"><ele>1215</ele></trkpt><trkpt lat="62.751507" lon="9.288351"><ele>1208</ele></trkpt><trkpt lat="62.751954" lon="9.288264"><ele>1215</ele></trkpt><trkpt lat="62.752393" lon="9.287983"><ele>1219</ele></trkpt><trkpt lat="62.752799" lon="9.286922"><ele>1215</ele></trkpt><trkpt lat="62.753206" lon="9.285861"><ele>1212</ele></trkpt><trkpt lat="62.753613" lon="9.284801"><ele>1202</ele></trkpt><trkpt lat="62.754020" lon="9.283740"><ele>1202</ele></trkpt><trkpt lat="62.754427" lon="9.282679"><ele>1200</ele></trkpt><trkpt lat="62.754833" lon="9.281619"><ele>1202</ele></trkpt><trkpt lat="62.755272" lon="9.281337"><ele>1221</ele></trkpt><trkpt lat="62.755711" lon="9.281056"><ele>1240</ele></trkpt><trkpt lat="62.756149" lon="9.280774"><ele>1261</ele></trkpt><trkpt lat="62.756596" lon="9.280687"><ele>1287</ele></trkpt><trkpt lat="62.757034" lon="9.280406"><ele>1311</ele></trkpt><trkpt lat="62.757481" lon="9.280319"><ele>1312</ele></trkpt><trkpt lat="62.757928" lon="9.280232"><ele>1291</ele></trkpt><trkpt lat="62.758358" lon="9.279756"><ele>1264</ele></trkpt><trkpt lat="62.758781" lon="9.279085"><ele>1235</ele></trkpt><trkpt lat="62.759196" lon="9.278218"><ele>1204</ele></trkpt><trkpt lat="62.759642" lon="9.278132"><ele>1186</ele></trkpt><trkpt lat="62.760089" lon="9.278045"><ele>1184</ele></trkpt><trkpt lat="62.760535" lon="9.277958"><ele>1184</ele></trkpt><trkpt lat="62.760982" lon="9.277871"><ele>1184</ele></trkpt><trkpt lat="62.761428" lon="9.277784"><ele>1184</ele></trkpt><trkpt lat="62.761875" lon="9.277698"><ele>1184</ele></trkpt><trkpt lat="62.762321" lon="9.277611"><ele>1184</ele></trkpt><trkpt lat="62.762768" lon="9.277524"><ele>1184</ele></trkpt><trkpt lat="62.763214" lon="9.277437"><ele>1184</ele></trkpt><trkpt lat="62.763661" lon="9.277350"><ele>1184</ele></trkpt><trkpt lat="62.764108" lon="9.277264"><ele>1184</ele></trkpt><trkpt lat="62.764554" lon="9.277177"><ele>1184</ele></trkpt><trkpt lat="62.765001" lon="9.277090"><ele>1184</ele></trkpt><trkpt lat="62.765447" lon="9.277003"><ele>1184</ele></trkpt><trkpt lat="62.765894" lon="9.276916"><ele>1184</ele></trkpt><trkpt lat="62.766340" lon="9.276830"><ele>1184</ele></trkpt><trkpt lat="62.766787" lon="9.276743"><ele>1184</ele></trkpt><trkpt lat="62.767233" lon="9.276656"><ele>1184</ele></trkpt><trkpt lat="62.767680" lon="9.276569"><ele>1184</ele></trkpt><trkpt lat="62.768126" lon="9.276482"><ele>1184</ele></trkpt><trkpt lat="62.768573" lon="9.276395"><ele>1184</ele></trkpt><trkpt lat="62.769019" lon="9.276308"><ele>1184</ele></trkpt><trkpt lat="62.769466" lon="9.276222"><ele>1184</ele></trkpt><trkpt lat="62.769913" lon="9.276135"><ele>1185</ele></trkpt><trkpt lat="62.770359" lon="9.276048"><ele>1186</ele></trkpt><trkpt lat="62.770806" lon="9.275961"><ele>1189</ele></trkpt><trkpt lat="62.771252" lon="9.275874"><ele>1191</ele></trkpt><trkpt lat="62.771699" lon="9.275787"><ele>1193</ele></trkpt><trkpt lat="62.772145" lon="9.275700"><ele>1194</ele></trkpt><trkpt lat="62.772592" lon="9.275614"><ele>1194</ele></trkpt><trkpt lat="62.773038" lon="9.275527"><ele>1195</ele></trkpt><trkpt lat="62.773485" lon="9.275440"><ele>1196</ele></trkpt><trkpt lat="62.773931" lon="9.275353"><ele>1199</ele></trkpt><trkpt lat="62.774378" lon="9.275266"><ele>1200</ele></trkpt><trkpt lat="62.774824" lon="9.275179"><ele>1205</ele></trkpt><trkpt lat="62.775271" lon="9.275092"><ele>1210</ele></trkpt><trkpt lat="62.775718" lon="9.275005"><ele>1215</ele></trkpt><trkpt lat="62.776164" lon="9.274918"><ele>1219</ele></trkpt><trkpt lat="62.776587" lon="9.274247"><ele>1225</ele></trkpt><trkpt lat="62.777025" lon="9.273965"><ele>1239</ele></trkpt><trkpt lat="62.777472" lon="9.273878"><ele>1253</ele></trkpt><trkpt lat="62.777910" lon="9.273596"><ele>1264</ele></trkpt><trkpt lat="62.778317" lon="9.272534"><ele>1266</ele></trkpt><trkpt lat="62.778724" lon="9.271473"><ele>1269</ele></trkpt><trkpt lat="62.779131" lon="9.270411"><ele>1269</ele></trkpt><trkpt lat="62.779537" lon="9.269349"><ele>1269</ele></trkpt><trkpt lat="62.779944" lon="9.268287"><ele>1270</ele></trkpt><trkpt lat="62.780359" lon="9.267420"><ele>1286</ele></trkpt><trkpt lat="62.780676" lon="9.266376"><ele>1309</ele></trkpt><trkpt lat="62.781083" lon="9.265314"><ele>1314</ele></trkpt><trkpt lat="62.781489" lon="9.264252"><ele>1312</ele></trkpt><trkpt lat="62.781896" lon="9.263190"><ele>1318</ele></trkpt><trkpt lat="62.781977" lon="9.262977"><ele>1319</ele></trkpt></trkseg></trk><wpt lat="62.776474" lon="9.262675"><ele>1117</ele><name>Run end · Mellomfjellet 1319 m</name></wpt><trk><name>Down · Mellomfjellet 1319 m</name><desc>fall-line run: 390 m of 20–30°, 177 m drop, aspect 194°, max 29°, 0.0% ≥30°; ends 9.93 km from the car.</desc><trkseg><trkpt lat="62.781977" lon="9.262977"><ele>1319</ele></trkpt><trkpt lat="62.780068" lon="9.264725"><ele>1294</ele></trkpt><trkpt lat="62.779800" lon="9.264778"><ele>1281</ele></trkpt><trkpt lat="62.779533" lon="9.264830"><ele>1267</ele></trkpt><trkpt lat="62.779265" lon="9.264882"><ele>1254</ele></trkpt><trkpt lat="62.778997" lon="9.264934"><ele>1243</ele></trkpt><trkpt lat="62.778729" lon="9.264987"><ele>1229</ele></trkpt><trkpt lat="62.778461" lon="9.265039"><ele>1218</ele></trkpt><trkpt lat="62.778193" lon="9.265091"><ele>1208</ele></trkpt><trkpt lat="62.777925" lon="9.265143"><ele>1197</ele></trkpt><trkpt lat="62.777641" lon="9.264806"><ele>1184</ele></trkpt><trkpt lat="62.777349" lon="9.264273"><ele>1169</ele></trkpt><trkpt lat="62.777057" lon="9.263740"><ele>1154</ele></trkpt><trkpt lat="62.776766" lon="9.263208"><ele>1135</ele></trkpt><trkpt lat="62.776474" lon="9.262675"><ele>1117</ele></trkpt><trkpt lat="62.776474" lon="9.262675"><ele>1117</ele></trkpt></trkseg></trk></gpx>