<?xml version="1.0" encoding="UTF-8"?>
<gpx version="1.1" creator="Rando toppturs" xmlns="http://www.topografix.com/GPX/1/1"><metadata><name>086 Lorthøa 1342 m</name><desc>Generated 2026-09-13 17:42 from Kartverket 10 m terrain. Ascent lines are least-cost terrain paths under 35°, not verified routes. Not a snow-stability assessment.</desc></metadata><wpt lat="62.678647" lon="9.154570"><ele>613</ele><name>Car · Lorthøa 1342 m</name></wpt><wpt lat="62.651792" lon="9.100386"><ele>1342</ele><name>Lorthøa 1342 m</name></wpt><trk><name>Up · Lorthøa 1342 m</name><desc>least-cost ascent: +767 m over 4336 m, max 30°, 0.0% on 30–35°, ≈3.0 h at 4 km/h + 400 m/h. Terrain possibility, not a checked route.</desc><trkseg><trkpt lat="62.678647" lon="9.154570"><ele>613</ele></trkpt><trkpt lat="62.678160" lon="9.153687"><ele>601</ele></trkpt><trkpt lat="62.677673" lon="9.152804"><ele>591</ele></trkpt><trkpt lat="62.677186" lon="9.151921"><ele>586</ele></trkpt><trkpt lat="62.676699" lon="9.151038"><ele>582</ele></trkpt><trkpt lat="62.676212" lon="9.150155"><ele>582</ele></trkpt><trkpt lat="62.675725" lon="9.149272"><ele>582</ele></trkpt><trkpt lat="62.675237" lon="9.148390"><ele>582</ele></trkpt><trkpt lat="62.674750" lon="9.147507"><ele>582</ele></trkpt><trkpt lat="62.674263" lon="9.146624"><ele>582</ele></trkpt><trkpt lat="62.673776" lon="9.145741"><ele>582</ele></trkpt><trkpt lat="62.673289" lon="9.144859"><ele>582</ele></trkpt><trkpt lat="62.672802" lon="9.143976"><ele>582</ele></trkpt><trkpt lat="62.672315" lon="9.143094"><ele>582</ele></trkpt><trkpt lat="62.671828" lon="9.142211"><ele>582</ele></trkpt><trkpt lat="62.671341" lon="9.141328"><ele>584</ele></trkpt><trkpt lat="62.670853" lon="9.140446"><ele>590</ele></trkpt><trkpt lat="62.670366" lon="9.139563"><ele>596</ele></trkpt><trkpt lat="62.669879" lon="9.138681"><ele>603</ele></trkpt><trkpt lat="62.669392" lon="9.137799"><ele>609</ele></trkpt><trkpt lat="62.668905" lon="9.136916"><ele>617</ele></trkpt><trkpt lat="62.668418" lon="9.136034"><ele>628</ele></trkpt><trkpt lat="62.667930" lon="9.135151"><ele>643</ele></trkpt><trkpt lat="62.667443" lon="9.134269"><ele>663</ele></trkpt><trkpt lat="62.666956" lon="9.133387"><ele>685</ele></trkpt><trkpt lat="62.666469" lon="9.132505"><ele>712</ele></trkpt><trkpt lat="62.665982" lon="9.131622"><ele>737</ele></trkpt><trkpt lat="62.665494" lon="9.130740"><ele>763</ele></trkpt><trkpt lat="62.665007" lon="9.129858"><ele>791</ele></trkpt><trkpt lat="62.664528" lon="9.129170"><ele>813</ele></trkpt><trkpt lat="62.664041" lon="9.128288"><ele>849</ele></trkpt><trkpt lat="62.663570" lon="9.127794"><ele>878</ele></trkpt><trkpt lat="62.663083" lon="9.126912"><ele>907</ele></trkpt><trkpt lat="62.662596" lon="9.126030"><ele>934</ele></trkpt><trkpt lat="62.662108" lon="9.125148"><ele>966</ele></trkpt><trkpt lat="62.661621" lon="9.124266"><ele>995</ele></trkpt><trkpt lat="62.661134" lon="9.123384"><ele>1018</ele></trkpt><trkpt lat="62.660915" lon="9.122449"><ele>1037</ele></trkpt><trkpt lat="62.660874" lon="9.121478"><ele>1052</ele></trkpt><trkpt lat="62.660833" lon="9.120507"><ele>1066</ele></trkpt><trkpt lat="62.660614" lon="9.119572"><ele>1075</ele></trkpt><trkpt lat="62.660126" lon="9.118690"><ele>1080</ele></trkpt><trkpt lat="62.659639" lon="9.117809"><ele>1081</ele></trkpt><trkpt lat="62.659152" lon="9.116927"><ele>1088</ele></trkpt><trkpt lat="62.658664" lon="9.116045"><ele>1106</ele></trkpt><trkpt lat="62.658445" lon="9.115110"><ele>1122</ele></trkpt><trkpt lat="62.657958" lon="9.114228"><ele>1130</ele></trkpt><trkpt lat="62.657470" lon="9.113347"><ele>1137</ele></trkpt><trkpt lat="62.656983" lon="9.112465"><ele>1157</ele></trkpt><trkpt lat="62.656496" lon="9.111583"><ele>1164</ele></trkpt><trkpt lat="62.656008" lon="9.110702"><ele>1173</ele></trkpt><trkpt lat="62.655521" lon="9.109820"><ele>1184</ele></trkpt><trkpt lat="62.655123" lon="9.108921"><ele>1205</ele></trkpt><trkpt lat="62.654814" lon="9.108004"><ele>1224</ele></trkpt><trkpt lat="62.654327" lon="9.107122"><ele>1236</ele></trkpt><trkpt lat="62.653848" lon="9.106435"><ele>1257</ele></trkpt><trkpt lat="62.653377" lon="9.105942"><ele>1280</ele></trkpt><trkpt lat="62.653076" lon="9.105219"><ele>1295</ele></trkpt><trkpt lat="62.652678" lon="9.104319"><ele>1313</ele></trkpt><trkpt lat="62.652637" lon="9.103349"><ele>1326</ele></trkpt><trkpt lat="62.652328" lon="9.102432"><ele>1334</ele></trkpt><trkpt lat="62.652109" lon="9.101497"><ele>1333</ele></trkpt><trkpt lat="62.651800" lon="9.100580"><ele>1341</ele></trkpt><trkpt lat="62.651792" lon="9.100386"><ele>1342</ele></trkpt></trkseg></trk><wpt lat="62.659831" lon="9.161031"><ele>791</ele><name>Run end · Lorthøa 1342 m</name></wpt><trk><name>Down · Lorthøa 1342 m</name><desc>fall-line run: 386 m of 20–30°, 533 m drop, aspect 84°, max 29°, 0.0% ≥30°; ends 2.12 km from the car.</desc><trkseg><trkpt lat="62.651792" lon="9.100386"><ele>1342</ele></trkpt><trkpt lat="62.651142" lon="9.099929"><ele>1324</ele></trkpt><trkpt lat="62.650899" lon="9.100564"><ele>1306</ele></trkpt><trkpt lat="62.650631" lon="9.100618"><ele>1295</ele></trkpt><trkpt lat="62.650363" lon="9.100671"><ele>1289</ele></trkpt><trkpt lat="62.650095" lon="9.100725"><ele>1282</ele></trkpt><trkpt lat="62.649828" lon="9.100778"><ele>1275</ele></trkpt><trkpt lat="62.649560" lon="9.100832"><ele>1268</ele></trkpt><trkpt lat="62.649292" lon="9.100885"><ele>1256</ele></trkpt><trkpt lat="62.649024" lon="9.100939"><ele>1240</ele></trkpt><trkpt lat="62.648756" lon="9.100992"><ele>1228</ele></trkpt><trkpt lat="62.648488" lon="9.101045"><ele>1216</ele></trkpt><trkpt lat="62.648221" lon="9.101099"><ele>1203</ele></trkpt><trkpt lat="62.647945" lon="9.100958"><ele>1191</ele></trkpt><trkpt lat="62.647652" lon="9.100429"><ele>1180</ele></trkpt><trkpt lat="62.647384" lon="9.100483"><ele>1168</ele></trkpt><trkpt lat="62.647116" lon="9.100536"><ele>1157</ele></trkpt><trkpt lat="62.646849" lon="9.100590"><ele>1151</ele></trkpt><trkpt lat="62.646581" lon="9.100643"><ele>1145</ele></trkpt><trkpt lat="62.646313" lon="9.100697"><ele>1140</ele></trkpt><trkpt lat="62.646045" lon="9.100750"><ele>1137</ele></trkpt><trkpt lat="62.645777" lon="9.100803"><ele>1135</ele></trkpt><trkpt lat="62.645518" lon="9.101051"><ele>1132</ele></trkpt><trkpt lat="62.645364" lon="9.101669"><ele>1131</ele></trkpt><trkpt lat="62.645477" lon="9.102233"><ele>1129</ele></trkpt><trkpt lat="62.645502" lon="9.102815"><ele>1127</ele></trkpt><trkpt lat="62.645348" lon="9.103433"><ele>1126</ele></trkpt><trkpt lat="62.645283" lon="9.104032"><ele>1124</ele></trkpt><trkpt lat="62.645219" lon="9.104632"><ele>1123</ele></trkpt><trkpt lat="62.645065" lon="9.105250"><ele>1121</ele></trkpt><trkpt lat="62.645000" lon="9.105850"><ele>1119</ele></trkpt><trkpt lat="62.644935" lon="9.106450"><ele>1117</ele></trkpt><trkpt lat="62.644781" lon="9.107067"><ele>1115</ele></trkpt><trkpt lat="62.644806" lon="9.107650"><ele>1112</ele></trkpt><trkpt lat="62.644652" lon="9.108267"><ele>1109</ele></trkpt><trkpt lat="62.644587" lon="9.108867"><ele>1107</ele></trkpt><trkpt lat="62.644611" lon="9.109449"><ele>1104</ele></trkpt><trkpt lat="62.644547" lon="9.110049"><ele>1101</ele></trkpt><trkpt lat="62.644571" lon="9.110631"><ele>1099</ele></trkpt><trkpt lat="62.644507" lon="9.111231"><ele>1096</ele></trkpt><trkpt lat="62.644442" lon="9.111831"><ele>1092</ele></trkpt><trkpt lat="62.644377" lon="9.112431"><ele>1089</ele></trkpt><trkpt lat="62.644402" lon="9.113013"><ele>1086</ele></trkpt><trkpt lat="62.644426" lon="9.113595"><ele>1083</ele></trkpt><trkpt lat="62.644540" lon="9.114159"><ele>1080</ele></trkpt><trkpt lat="62.644564" lon="9.114741"><ele>1077</ele></trkpt><trkpt lat="62.644678" lon="9.115305"><ele>1074</ele></trkpt><trkpt lat="62.644703" lon="9.115888"><ele>1070</ele></trkpt><trkpt lat="62.644727" lon="9.116470"><ele>1068</ele></trkpt><trkpt lat="62.644841" lon="9.117034"><ele>1065</ele></trkpt><trkpt lat="62.644955" lon="9.117598"><ele>1062</ele></trkpt><trkpt lat="62.644979" lon="9.118180"><ele>1059</ele></trkpt><trkpt lat="62.645182" lon="9.118727"><ele>1056</ele></trkpt><trkpt lat="62.645207" lon="9.119309"><ele>1052</ele></trkpt><trkpt lat="62.645231" lon="9.119891"><ele>1048</ele></trkpt><trkpt lat="62.645167" lon="9.120491"><ele>1043</ele></trkpt><trkpt lat="62.645191" lon="9.121073"><ele>1040</ele></trkpt><trkpt lat="62.645305" lon="9.121637"><ele>1036</ele></trkpt><trkpt lat="62.645240" lon="9.122237"><ele>1031</ele></trkpt><trkpt lat="62.645265" lon="9.122819"><ele>1028</ele></trkpt><trkpt lat="62.645378" lon="9.123384"><ele>1025</ele></trkpt><trkpt lat="62.645403" lon="9.123966"><ele>1022</ele></trkpt><trkpt lat="62.645517" lon="9.124530"><ele>1019</ele></trkpt><trkpt lat="62.645720" lon="9.125077"><ele>1016</ele></trkpt><trkpt lat="62.646012" lon="9.125606"><ele>1012</ele></trkpt><trkpt lat="62.646296" lon="9.125941"><ele>1009</ele></trkpt><trkpt lat="62.646499" lon="9.126487"><ele>1007</ele></trkpt><trkpt lat="62.646792" lon="9.127016"><ele>1005</ele></trkpt><trkpt lat="62.647084" lon="9.127545"><ele>1001</ele></trkpt><trkpt lat="62.647376" lon="9.128074"><ele>999</ele></trkpt><trkpt lat="62.647660" lon="9.128409"><ele>996</ele></trkpt><trkpt lat="62.647945" lon="9.128744"><ele>994</ele></trkpt><trkpt lat="62.648221" lon="9.128885"><ele>992</ele></trkpt><trkpt lat="62.648505" lon="9.129220"><ele>989</ele></trkpt><trkpt lat="62.648789" lon="9.129555"><ele>987</ele></trkpt><trkpt lat="62.649073" lon="9.129890"><ele>985</ele></trkpt><trkpt lat="62.649357" lon="9.130225"><ele>983</ele></trkpt><trkpt lat="62.649641" lon="9.130560"><ele>981</ele></trkpt><trkpt lat="62.649926" lon="9.130895"><ele>979</ele></trkpt><trkpt lat="62.650210" lon="9.131230"><ele>976</ele></trkpt><trkpt lat="62.650502" lon="9.131759"><ele>973</ele></trkpt><trkpt lat="62.650786" lon="9.132094"><ele>970</ele></trkpt><trkpt lat="62.651070" lon="9.132429"><ele>968</ele></trkpt><trkpt lat="62.651363" lon="9.132958"><ele>964</ele></trkpt><trkpt lat="62.651655" lon="9.133487"><ele>963</ele></trkpt><trkpt lat="62.651858" lon="9.134034"><ele>961</ele></trkpt><trkpt lat="62.652061" lon="9.134581"><ele>958</ele></trkpt><trkpt lat="62.652353" lon="9.135110"><ele>951</ele></trkpt><trkpt lat="62.652646" lon="9.135639"><ele>945</ele></trkpt><trkpt lat="62.652930" lon="9.135974"><ele>942</ele></trkpt><trkpt lat="62.653222" lon="9.136503"><ele>937</ele></trkpt><trkpt lat="62.653506" lon="9.136838"><ele>932</ele></trkpt><trkpt lat="62.653790" lon="9.137173"><ele>930</ele></trkpt><trkpt lat="62.654075" lon="9.137508"><ele>927</ele></trkpt><trkpt lat="62.654188" lon="9.138073"><ele>923</ele></trkpt><trkpt lat="62.654391" lon="9.138620"><ele>919</ele></trkpt><trkpt lat="62.654675" lon="9.138955"><ele>916</ele></trkpt><trkpt lat="62.654960" lon="9.139290"><ele>914</ele></trkpt><trkpt lat="62.655252" lon="9.139819"><ele>911</ele></trkpt><trkpt lat="62.655366" lon="9.140384"><ele>908</ele></trkpt><trkpt lat="62.655390" lon="9.140966"><ele>905</ele></trkpt><trkpt lat="62.655593" lon="9.141513"><ele>902</ele></trkpt><trkpt lat="62.655796" lon="9.142060"><ele>901</ele></trkpt><trkpt lat="62.656088" lon="9.142589"><ele>898</ele></trkpt><trkpt lat="62.656381" lon="9.143119"><ele>894</ele></trkpt><trkpt lat="62.656494" lon="9.143683"><ele>892</ele></trkpt><trkpt lat="62.656519" lon="9.144266"><ele>889</ele></trkpt><trkpt lat="62.656543" lon="9.144848"><ele>886</ele></trkpt><trkpt lat="62.656567" lon="9.145430"><ele>883</ele></trkpt><trkpt lat="62.656681" lon="9.145995"><ele>880</ele></trkpt><trkpt lat="62.656795" lon="9.146560"><ele>877</ele></trkpt><trkpt lat="62.656819" lon="9.147142"><ele>876</ele></trkpt><trkpt lat="62.656844" lon="9.147724"><ele>873</ele></trkpt><trkpt lat="62.656779" lon="9.148324"><ele>871</ele></trkpt><trkpt lat="62.656624" lon="9.148942"><ele>868</ele></trkpt><trkpt lat="62.656649" lon="9.149524"><ele>866</ele></trkpt><trkpt lat="62.656852" lon="9.150072"><ele>864</ele></trkpt><trkpt lat="62.657055" lon="9.150619"><ele>861</ele></trkpt><trkpt lat="62.657079" lon="9.151201"><ele>859</ele></trkpt><trkpt lat="62.657014" lon="9.151801"><ele>857</ele></trkpt><trkpt lat="62.657039" lon="9.152383"><ele>854</ele></trkpt><trkpt lat="62.657152" lon="9.152948"><ele>851</ele></trkpt><trkpt lat="62.657177" lon="9.153530"><ele>849</ele></trkpt><trkpt lat="62.657290" lon="9.154095"><ele>847</ele></trkpt><trkpt lat="62.657493" lon="9.154642"><ele>845</ele></trkpt><trkpt lat="62.657777" lon="9.154977"><ele>842</ele></trkpt><trkpt lat="62.657980" lon="9.155525"><ele>840</ele></trkpt><trkpt lat="62.657915" lon="9.156125"><ele>836</ele></trkpt><trkpt lat="62.657940" lon="9.156707"><ele>833</ele></trkpt><trkpt lat="62.658224" lon="9.157042"><ele>830</ele></trkpt><trkpt lat="62.658508" lon="9.157378"><ele>827</ele></trkpt><trkpt lat="62.658711" lon="9.157925"><ele>824</ele></trkpt><trkpt lat="62.658995" lon="9.158260"><ele>820</ele></trkpt><trkpt lat="62.659287" lon="9.158790"><ele>815</ele></trkpt><trkpt lat="62.659579" lon="9.159319"><ele>810</ele></trkpt><trkpt lat="62.659693" lon="9.159884"><ele>797</ele></trkpt><trkpt lat="62.659807" lon="9.160449"><ele>794</ele></trkpt><trkpt lat="62.659831" lon="9.161031"><ele>791</ele></trkpt><trkpt lat="62.659831" lon="9.161031"><ele>791</ele></trkpt></trkseg></trk></gpx>