<?xml version="1.0" encoding="UTF-8"?>
<gpx version="1.1" creator="Rando toppturs" xmlns="http://www.topografix.com/GPX/1/1"><metadata><name>087 Sandåfjellet 1634 m</name><desc>Generated 2026-09-13 17:42 from Kartverket 10 m terrain. Ascent lines are least-cost terrain paths under 35°, not verified routes. Not a snow-stability assessment.</desc></metadata><wpt lat="62.661678" lon="9.231528"><ele>594</ele><name>Car · Sandåfjellet 1634 m</name></wpt><wpt lat="62.627856" lon="9.173596"><ele>1634</ele><name>Sandåfjellet 1634 m</name></wpt><trk><name>Up · Sandåfjellet 1634 m</name><desc>least-cost ascent: +1117 m over 5365 m, max 35°, 1.7% on 30–35°, ≈4.13 h at 4 km/h + 400 m/h. Terrain possibility, not a checked route.</desc><trkseg><trkpt lat="62.661678" lon="9.231528"><ele>594</ele></trkpt><trkpt lat="62.661232" lon="9.231615"><ele>604</ele></trkpt><trkpt lat="62.660769" lon="9.231314"><ele>614</ele></trkpt><trkpt lat="62.660322" lon="9.231401"><ele>616</ele></trkpt><trkpt lat="62.659868" lon="9.231294"><ele>619</ele></trkpt><trkpt lat="62.659421" lon="9.231381"><ele>624</ele></trkpt><trkpt lat="62.658943" lon="9.230691"><ele>633</ele></trkpt><trkpt lat="62.658464" lon="9.230002"><ele>650</ele></trkpt><trkpt lat="62.657994" lon="9.229507"><ele>660</ele></trkpt><trkpt lat="62.657547" lon="9.229594"><ele>678</ele></trkpt><trkpt lat="62.657069" lon="9.228904"><ele>700</ele></trkpt><trkpt lat="62.656582" lon="9.228021"><ele>732</ele></trkpt><trkpt lat="62.656185" lon="9.227120"><ele>767</ele></trkpt><trkpt lat="62.655698" lon="9.226236"><ele>790</ele></trkpt><trkpt lat="62.655236" lon="9.225935"><ele>811</ele></trkpt><trkpt lat="62.654749" lon="9.225052"><ele>844</ele></trkpt><trkpt lat="62.654441" lon="9.224133"><ele>870</ele></trkpt><trkpt lat="62.654401" lon="9.223163"><ele>894</ele></trkpt><trkpt lat="62.654012" lon="9.222456"><ele>925</ele></trkpt><trkpt lat="62.653622" lon="9.221749"><ele>957</ele></trkpt><trkpt lat="62.653493" lon="9.220796"><ele>985</ele></trkpt><trkpt lat="62.653631" lon="9.219791"><ele>1010</ele></trkpt><trkpt lat="62.653502" lon="9.218837"><ele>1036</ele></trkpt><trkpt lat="62.653015" lon="9.217954"><ele>1060</ele></trkpt><trkpt lat="62.652528" lon="9.217071"><ele>1084</ele></trkpt><trkpt lat="62.652042" lon="9.216188"><ele>1111</ele></trkpt><trkpt lat="62.651555" lon="9.215304"><ele>1133</ele></trkpt><trkpt lat="62.651068" lon="9.214421"><ele>1153</ele></trkpt><trkpt lat="62.650582" lon="9.213538"><ele>1169</ele></trkpt><trkpt lat="62.650095" lon="9.212655"><ele>1178</ele></trkpt><trkpt lat="62.649608" lon="9.211772"><ele>1189</ele></trkpt><trkpt lat="62.649122" lon="9.210889"><ele>1196</ele></trkpt><trkpt lat="62.648635" lon="9.210006"><ele>1196</ele></trkpt><trkpt lat="62.648238" lon="9.209105"><ele>1213</ele></trkpt><trkpt lat="62.647929" lon="9.208187"><ele>1223</ele></trkpt><trkpt lat="62.647443" lon="9.207304"><ele>1242</ele></trkpt><trkpt lat="62.646956" lon="9.206421"><ele>1259</ele></trkpt><trkpt lat="62.646559" lon="9.205521"><ele>1276</ele></trkpt><trkpt lat="62.646072" lon="9.204638"><ele>1297</ele></trkpt><trkpt lat="62.645585" lon="9.203755"><ele>1313</ele></trkpt><trkpt lat="62.645188" lon="9.202855"><ele>1315</ele></trkpt><trkpt lat="62.644701" lon="9.201972"><ele>1318</ele></trkpt><trkpt lat="62.644214" lon="9.201089"><ele>1329</ele></trkpt><trkpt lat="62.643817" lon="9.200189"><ele>1350</ele></trkpt><trkpt lat="62.643330" lon="9.199306"><ele>1367</ele></trkpt><trkpt lat="62.643111" lon="9.198371"><ele>1386</ele></trkpt><trkpt lat="62.642892" lon="9.197436"><ele>1399</ele></trkpt><trkpt lat="62.642852" lon="9.196466"><ele>1401</ele></trkpt><trkpt lat="62.642633" lon="9.195530"><ele>1423</ele></trkpt><trkpt lat="62.642414" lon="9.194595"><ele>1445</ele></trkpt><trkpt lat="62.642016" lon="9.193695"><ele>1468</ele></trkpt><trkpt lat="62.641619" lon="9.192795"><ele>1493</ele></trkpt><trkpt lat="62.641229" lon="9.192089"><ele>1515</ele></trkpt><trkpt lat="62.640783" lon="9.192177"><ele>1528</ele></trkpt><trkpt lat="62.640337" lon="9.192264"><ele>1537</ele></trkpt><trkpt lat="62.639890" lon="9.192352"><ele>1543</ele></trkpt><trkpt lat="62.639444" lon="9.192440"><ele>1550</ele></trkpt><trkpt lat="62.638973" lon="9.191945"><ele>1558</ele></trkpt><trkpt lat="62.638486" lon="9.191063"><ele>1555</ele></trkpt><trkpt lat="62.637999" lon="9.190180"><ele>1552</ele></trkpt><trkpt lat="62.637512" lon="9.189298"><ele>1551</ele></trkpt><trkpt lat="62.637026" lon="9.188416"><ele>1556</ele></trkpt><trkpt lat="62.636539" lon="9.187533"><ele>1564</ele></trkpt><trkpt lat="62.636052" lon="9.186651"><ele>1572</ele></trkpt><trkpt lat="62.635565" lon="9.185769"><ele>1579</ele></trkpt><trkpt lat="62.635078" lon="9.184886"><ele>1586</ele></trkpt><trkpt lat="62.634591" lon="9.184004"><ele>1582</ele></trkpt><trkpt lat="62.634104" lon="9.183122"><ele>1566</ele></trkpt><trkpt lat="62.633618" lon="9.182240"><ele>1555</ele></trkpt><trkpt lat="62.633131" lon="9.181358"><ele>1544</ele></trkpt><trkpt lat="62.632644" lon="9.180476"><ele>1537</ele></trkpt><trkpt lat="62.632157" lon="9.179594"><ele>1528</ele></trkpt><trkpt lat="62.631670" lon="9.178712"><ele>1532</ele></trkpt><trkpt lat="62.631183" lon="9.177830"><ele>1546</ele></trkpt><trkpt lat="62.630696" lon="9.176948"><ele>1560</ele></trkpt><trkpt lat="62.630209" lon="9.176066"><ele>1578</ele></trkpt><trkpt lat="62.629722" lon="9.175184"><ele>1599</ele></trkpt><trkpt lat="62.629260" lon="9.174884"><ele>1614</ele></trkpt><trkpt lat="62.628813" lon="9.174972"><ele>1620</ele></trkpt><trkpt lat="62.628343" lon="9.174478"><ele>1629</ele></trkpt><trkpt lat="62.627856" lon="9.173596"><ele>1634</ele></trkpt><trkpt lat="62.627856" lon="9.173596"><ele>1634</ele></trkpt></trkseg></trk><wpt lat="62.622613" lon="9.162311"><ele>1385</ele><name>Run end · Sandåfjellet 1634 m</name></wpt><trk><name>Down · Sandåfjellet 1634 m</name><desc>fall-line run: 386 m of 20–30°, 162 m drop, aspect 227°, max 32°, 7.7% ≥30°; ends 5.62 km from the car.</desc><trkseg><trkpt lat="62.627856" lon="9.173596"><ele>1634</ele></trkpt><trkpt lat="62.624958" lon="9.166736"><ele>1547</ele></trkpt><trkpt lat="62.624666" lon="9.166207"><ele>1527</ele></trkpt><trkpt lat="62.624374" lon="9.165679"><ele>1505</ele></trkpt><trkpt lat="62.624082" lon="9.165150"><ele>1483</ele></trkpt><trkpt lat="62.623790" lon="9.164621"><ele>1459</ele></trkpt><trkpt lat="62.623587" lon="9.164074"><ele>1443</ele></trkpt><trkpt lat="62.623295" lon="9.163545"><ele>1426</ele></trkpt><trkpt lat="62.623002" lon="9.163016"><ele>1408</ele></trkpt><trkpt lat="62.622710" lon="9.162487"><ele>1390</ele></trkpt><trkpt lat="62.622613" lon="9.162311"><ele>1385</ele></trkpt></trkseg></trk></gpx>