<?xml version="1.0" encoding="UTF-8"?>
<gpx version="1.1" creator="Rando toppturs" xmlns="http://www.topografix.com/GPX/1/1"><metadata><name>093 Unnamed 1364 m</name><desc>Generated 2026-09-13 17:42 from Kartverket 10 m terrain. Ascent lines are least-cost terrain paths under 35°, not verified routes. Not a snow-stability assessment.</desc></metadata><wpt lat="62.693514" lon="9.101260"><ele>651</ele><name>Car · Unnamed summit 1364 m</name></wpt><wpt lat="62.734533" lon="9.106788"><ele>1364</ele><name>Unnamed summit 1364 m</name></wpt><trk><name>Up · Unnamed summit 1364 m</name><desc>least-cost ascent: +792 m over 5098 m, max 29°, 0.0% on 30–35°, ≈3.25 h at 4 km/h + 400 m/h. Terrain possibility, not a checked route.</desc><trkseg><trkpt lat="62.693514" lon="9.101260"><ele>651</ele></trkpt><trkpt lat="62.693961" lon="9.101171"><ele>648</ele></trkpt><trkpt lat="62.694407" lon="9.101082"><ele>657</ele></trkpt><trkpt lat="62.694854" lon="9.100993"><ele>666</ele></trkpt><trkpt lat="62.695300" lon="9.100903"><ele>691</ele></trkpt><trkpt lat="62.695746" lon="9.100814"><ele>706</ele></trkpt><trkpt lat="62.696193" lon="9.100725"><ele>718</ele></trkpt><trkpt lat="62.696672" lon="9.101413"><ele>734</ele></trkpt><trkpt lat="62.697135" lon="9.101713"><ele>752</ele></trkpt><trkpt lat="62.697614" lon="9.102401"><ele>771</ele></trkpt><trkpt lat="62.698085" lon="9.102895"><ele>783</ele></trkpt><trkpt lat="62.698572" lon="9.103777"><ele>805</ele></trkpt><trkpt lat="62.699027" lon="9.103883"><ele>828</ele></trkpt><trkpt lat="62.699473" lon="9.103793"><ele>843</ele></trkpt><trkpt lat="62.699920" lon="9.103704"><ele>857</ele></trkpt><trkpt lat="62.700391" lon="9.104198"><ele>874</ele></trkpt><trkpt lat="62.700845" lon="9.104303"><ele>892</ele></trkpt><trkpt lat="62.701300" lon="9.104409"><ele>903</ele></trkpt><trkpt lat="62.701763" lon="9.104708"><ele>918</ele></trkpt><trkpt lat="62.702242" lon="9.105397"><ele>937</ele></trkpt><trkpt lat="62.702721" lon="9.106085"><ele>956</ele></trkpt><trkpt lat="62.703192" lon="9.106579"><ele>970</ele></trkpt><trkpt lat="62.703647" lon="9.106684"><ele>981</ele></trkpt><trkpt lat="62.704110" lon="9.106984"><ele>993</ele></trkpt><trkpt lat="62.704597" lon="9.107867"><ele>1015</ele></trkpt><trkpt lat="62.705084" lon="9.108750"><ele>1024</ele></trkpt><trkpt lat="62.705555" lon="9.109244"><ele>1039</ele></trkpt><trkpt lat="62.706002" lon="9.109155"><ele>1052</ele></trkpt><trkpt lat="62.706448" lon="9.109066"><ele>1059</ele></trkpt><trkpt lat="62.706894" lon="9.108977"><ele>1065</ele></trkpt><trkpt lat="62.707341" lon="9.108887"><ele>1068</ele></trkpt><trkpt lat="62.707787" lon="9.108798"><ele>1073</ele></trkpt><trkpt lat="62.708234" lon="9.108709"><ele>1073</ele></trkpt><trkpt lat="62.708680" lon="9.108620"><ele>1074</ele></trkpt><trkpt lat="62.709127" lon="9.108531"><ele>1083</ele></trkpt><trkpt lat="62.709573" lon="9.108442"><ele>1087</ele></trkpt><trkpt lat="62.710019" lon="9.108353"><ele>1094</ele></trkpt><trkpt lat="62.710466" lon="9.108263"><ele>1101</ele></trkpt><trkpt lat="62.710912" lon="9.108174"><ele>1106</ele></trkpt><trkpt lat="62.711359" lon="9.108085"><ele>1107</ele></trkpt><trkpt lat="62.711805" lon="9.107996"><ele>1106</ele></trkpt><trkpt lat="62.712268" lon="9.108296"><ele>1103</ele></trkpt><trkpt lat="62.712755" lon="9.109179"><ele>1106</ele></trkpt><trkpt lat="62.713242" lon="9.110062"><ele>1119</ele></trkpt><trkpt lat="62.713705" lon="9.110362"><ele>1124</ele></trkpt><trkpt lat="62.714152" lon="9.110273"><ele>1123</ele></trkpt><trkpt lat="62.714606" lon="9.110378"><ele>1135</ele></trkpt><trkpt lat="62.715053" lon="9.110289"><ele>1135</ele></trkpt><trkpt lat="62.715499" lon="9.110200"><ele>1132</ele></trkpt><trkpt lat="62.715945" lon="9.110111"><ele>1130</ele></trkpt><trkpt lat="62.716392" lon="9.110021"><ele>1125</ele></trkpt><trkpt lat="62.716838" lon="9.109932"><ele>1120</ele></trkpt><trkpt lat="62.717285" lon="9.109843"><ele>1119</ele></trkpt><trkpt lat="62.717731" lon="9.109754"><ele>1112</ele></trkpt><trkpt lat="62.718178" lon="9.109665"><ele>1108</ele></trkpt><trkpt lat="62.718624" lon="9.109576"><ele>1105</ele></trkpt><trkpt lat="62.719070" lon="9.109486"><ele>1101</ele></trkpt><trkpt lat="62.719517" lon="9.109397"><ele>1100</ele></trkpt><trkpt lat="62.719963" lon="9.109308"><ele>1099</ele></trkpt><trkpt lat="62.720410" lon="9.109219"><ele>1104</ele></trkpt><trkpt lat="62.720881" lon="9.109713"><ele>1125</ele></trkpt><trkpt lat="62.721343" lon="9.110013"><ele>1145</ele></trkpt><trkpt lat="62.721790" lon="9.109924"><ele>1157</ele></trkpt><trkpt lat="62.722236" lon="9.109835"><ele>1164</ele></trkpt><trkpt lat="62.722724" lon="9.110718"><ele>1182</ele></trkpt><trkpt lat="62.723203" lon="9.111407"><ele>1204</ele></trkpt><trkpt lat="62.723690" lon="9.112291"><ele>1224</ele></trkpt><trkpt lat="62.724153" lon="9.112591"><ele>1247</ele></trkpt><trkpt lat="62.724599" lon="9.112502"><ele>1268</ele></trkpt><trkpt lat="62.725029" lon="9.112023"><ele>1282</ele></trkpt><trkpt lat="62.725476" lon="9.111934"><ele>1302</ele></trkpt><trkpt lat="62.725922" lon="9.111845"><ele>1314</ele></trkpt><trkpt lat="62.726328" lon="9.110783"><ele>1327</ele></trkpt><trkpt lat="62.726733" lon="9.109721"><ele>1339</ele></trkpt><trkpt lat="62.727147" lon="9.108853"><ele>1358</ele></trkpt><trkpt lat="62.727577" lon="9.108375"><ele>1364</ele></trkpt><trkpt lat="62.728023" lon="9.108286"><ele>1357</ele></trkpt><trkpt lat="62.728470" lon="9.108197"><ele>1357</ele></trkpt><trkpt lat="62.728916" lon="9.108107"><ele>1352</ele></trkpt><trkpt lat="62.729362" lon="9.108018"><ele>1349</ele></trkpt><trkpt lat="62.729809" lon="9.107929"><ele>1345</ele></trkpt><trkpt lat="62.730255" lon="9.107840"><ele>1344</ele></trkpt><trkpt lat="62.730710" lon="9.107945"><ele>1347</ele></trkpt><trkpt lat="62.731156" lon="9.107856"><ele>1349</ele></trkpt><trkpt lat="62.731603" lon="9.107766"><ele>1350</ele></trkpt><trkpt lat="62.732041" lon="9.107483"><ele>1349</ele></trkpt><trkpt lat="62.732479" lon="9.107199"><ele>1346</ele></trkpt><trkpt lat="62.732925" lon="9.107109"><ele>1347</ele></trkpt><trkpt lat="62.733372" lon="9.107020"><ele>1347</ele></trkpt><trkpt lat="62.733818" lon="9.106931"><ele>1355</ele></trkpt><trkpt lat="62.734265" lon="9.106842"><ele>1362</ele></trkpt><trkpt lat="62.734533" lon="9.106788"><ele>1364</ele></trkpt></trkseg></trk><wpt lat="62.737742" lon="9.116745"><ele>1132</ele><name>Run end · Unnamed summit 1364 m</name></wpt><trk><name>Down · Unnamed summit 1364 m</name><desc>fall-line run: 370 m of 20–30°, 200 m drop, aspect 72°, max 30°, 1.9% ≥30°; ends 5.0 km from the car.</desc><trkseg><trkpt lat="62.734533" lon="9.106788"><ele>1364</ele></trkpt><trkpt lat="62.736424" lon="9.106802"><ele>1331</ele></trkpt><trkpt lat="62.736627" lon="9.107350"><ele>1316</ele></trkpt><trkpt lat="62.736652" lon="9.107934"><ele>1303</ele></trkpt><trkpt lat="62.736676" lon="9.108518"><ele>1287</ele></trkpt><trkpt lat="62.736701" lon="9.109102"><ele>1273</ele></trkpt><trkpt lat="62.736725" lon="9.109686"><ele>1257</ele></trkpt><trkpt lat="62.736750" lon="9.110270"><ele>1245</ele></trkpt><trkpt lat="62.736774" lon="9.110854"><ele>1234</ele></trkpt><trkpt lat="62.736799" lon="9.111438"><ele>1222</ele></trkpt><trkpt lat="62.736913" lon="9.112004"><ele>1213</ele></trkpt><trkpt lat="62.737205" lon="9.112534"><ele>1204</ele></trkpt><trkpt lat="62.737230" lon="9.113118"><ele>1195</ele></trkpt><trkpt lat="62.737254" lon="9.113702"><ele>1187</ele></trkpt><trkpt lat="62.737368" lon="9.114268"><ele>1177</ele></trkpt><trkpt lat="62.737482" lon="9.114834"><ele>1170</ele></trkpt><trkpt lat="62.737506" lon="9.115418"><ele>1162</ele></trkpt><trkpt lat="62.737531" lon="9.116002"><ele>1150</ele></trkpt><trkpt lat="62.737734" lon="9.116550"><ele>1136</ele></trkpt><trkpt lat="62.737742" lon="9.116745"><ele>1132</ele></trkpt></trkseg></trk></gpx>