<?xml version="1.0" encoding="UTF-8"?>
<gpx version="1.1" creator="Rando toppturs" xmlns="http://www.topografix.com/GPX/1/1"><metadata><name>095 Høghøa 1308 m</name><desc>Generated 2026-09-13 17:42 from Kartverket 10 m terrain. Ascent lines are least-cost terrain paths under 35°, not verified routes. Not a snow-stability assessment.</desc></metadata><wpt lat="62.742988" lon="9.500580"><ele>936</ele><name>Car · Høghøa 1308 m</name></wpt><wpt lat="62.758549" lon="9.466064"><ele>1308</ele><name>Høghøa 1308 m</name></wpt><trk><name>Up · Høghøa 1308 m</name><desc>least-cost ascent: +398 m over 2599 m, max 29°, 0.0% on 30–35°, ≈1.64 h at 4 km/h + 400 m/h. Terrain possibility, not a checked route.</desc><trkseg><trkpt lat="62.742988" lon="9.500580"><ele>936</ele></trkpt><trkpt lat="62.743412" lon="9.499912"><ele>928</ele></trkpt><trkpt lat="62.743820" lon="9.498855"><ele>921</ele></trkpt><trkpt lat="62.744228" lon="9.497797"><ele>916</ele></trkpt><trkpt lat="62.744637" lon="9.496740"><ele>916</ele></trkpt><trkpt lat="62.745045" lon="9.495682"><ele>916</ele></trkpt><trkpt lat="62.745454" lon="9.494625"><ele>915</ele></trkpt><trkpt lat="62.745862" lon="9.493567"><ele>917</ele></trkpt><trkpt lat="62.746271" lon="9.492510"><ele>919</ele></trkpt><trkpt lat="62.746679" lon="9.491452"><ele>922</ele></trkpt><trkpt lat="62.747087" lon="9.490394"><ele>930</ele></trkpt><trkpt lat="62.747496" lon="9.489337"><ele>933</ele></trkpt><trkpt lat="62.747904" lon="9.488279"><ele>944</ele></trkpt><trkpt lat="62.748313" lon="9.487221"><ele>951</ele></trkpt><trkpt lat="62.748721" lon="9.486164"><ele>960</ele></trkpt><trkpt lat="62.749129" lon="9.485106"><ele>971</ele></trkpt><trkpt lat="62.749538" lon="9.484048"><ele>983</ele></trkpt><trkpt lat="62.749946" lon="9.482990"><ele>1001</ele></trkpt><trkpt lat="62.750354" lon="9.481932"><ele>1023</ele></trkpt><trkpt lat="62.750763" lon="9.480874"><ele>1042</ele></trkpt><trkpt lat="62.751171" lon="9.479816"><ele>1061</ele></trkpt><trkpt lat="62.751579" lon="9.478758"><ele>1076</ele></trkpt><trkpt lat="62.752003" lon="9.478090"><ele>1102</ele></trkpt><trkpt lat="62.752442" lon="9.477811"><ele>1125</ele></trkpt><trkpt lat="62.752889" lon="9.477728"><ele>1137</ele></trkpt><trkpt lat="62.753312" lon="9.477059"><ele>1159</ele></trkpt><trkpt lat="62.753759" lon="9.476976"><ele>1178</ele></trkpt><trkpt lat="62.754206" lon="9.476892"><ele>1192</ele></trkpt><trkpt lat="62.754614" lon="9.475834"><ele>1209</ele></trkpt><trkpt lat="62.755022" lon="9.474776"><ele>1223</ele></trkpt><trkpt lat="62.755431" lon="9.473717"><ele>1240</ele></trkpt><trkpt lat="62.755839" lon="9.472659"><ele>1243</ele></trkpt><trkpt lat="62.756247" lon="9.471601"><ele>1247</ele></trkpt><trkpt lat="62.756655" lon="9.470543"><ele>1256</ele></trkpt><trkpt lat="62.757064" lon="9.469484"><ele>1264</ele></trkpt><trkpt lat="62.757472" lon="9.468426"><ele>1274</ele></trkpt><trkpt lat="62.757880" lon="9.467368"><ele>1287</ele></trkpt><trkpt lat="62.758304" lon="9.466699"><ele>1300</ele></trkpt><trkpt lat="62.758549" lon="9.466064"><ele>1308</ele></trkpt></trkseg></trk><wpt lat="62.750890" lon="9.474962"><ele>1066</ele><name>Run end · Høghøa 1308 m</name></wpt><trk><name>Down · Høghøa 1308 m</name><desc>fall-line run: 365 m of 20–30°, 159 m drop, aspect 168°, max 25°, 0.0% ≥30°; ends 1.58 km from the car.</desc><trkseg><trkpt lat="62.758549" lon="9.466064"><ele>1308</ele></trkpt><trkpt lat="62.754619" lon="9.473673"><ele>1224</ele></trkpt><trkpt lat="62.754374" lon="9.474308"><ele>1208</ele></trkpt><trkpt lat="62.754114" lon="9.474553"><ele>1195</ele></trkpt><trkpt lat="62.753853" lon="9.474799"><ele>1184</ele></trkpt><trkpt lat="62.753570" lon="9.474459"><ele>1175</ele></trkpt><trkpt lat="62.753302" lon="9.474509"><ele>1170</ele></trkpt><trkpt lat="62.753034" lon="9.474560"><ele>1161</ele></trkpt><trkpt lat="62.752766" lon="9.474610"><ele>1149</ele></trkpt><trkpt lat="62.752498" lon="9.474660"><ele>1138</ele></trkpt><trkpt lat="62.752230" lon="9.474710"><ele>1127</ele></trkpt><trkpt lat="62.751962" lon="9.474761"><ele>1113</ele></trkpt><trkpt lat="62.751694" lon="9.474811"><ele>1100</ele></trkpt><trkpt lat="62.751426" lon="9.474861"><ele>1088</ele></trkpt><trkpt lat="62.751158" lon="9.474912"><ele>1077</ele></trkpt><trkpt lat="62.750890" lon="9.474962"><ele>1066</ele></trkpt><trkpt lat="62.750890" lon="9.474962"><ele>1066</ele></trkpt></trkseg></trk></gpx>