<?xml version="1.0" encoding="UTF-8"?>
<gpx version="1.1" creator="Rando toppturs" xmlns="http://www.topografix.com/GPX/1/1"><metadata><name>107 Brattskarven 1578 m</name><desc>Generated 2026-09-13 17:42 from Kartverket 10 m terrain. Ascent lines are least-cost terrain paths under 35°, not verified routes. Not a snow-stability assessment.</desc></metadata><wpt lat="62.697010" lon="9.565374"><ele>892</ele><name>Car · Brattskarven 1578 m</name></wpt><wpt lat="62.701730" lon="9.652872"><ele>1578</ele><name>Brattskarven 1578 m</name></wpt><trk><name>Up · Brattskarven 1578 m</name><desc>least-cost ascent: +816 m over 4970 m, max 30°, 0.0% on 30–35°, ≈3.28 h at 4 km/h + 400 m/h. Terrain possibility, not a checked route.</desc><trkseg><trkpt lat="62.697010" lon="9.565374"><ele>892</ele></trkpt><trkpt lat="62.697048" lon="9.566346"><ele>902</ele></trkpt><trkpt lat="62.696907" lon="9.567352"><ele>917</ele></trkpt><trkpt lat="62.696945" lon="9.568324"><ele>930</ele></trkpt><trkpt lat="62.696983" lon="9.569297"><ele>942</ele></trkpt><trkpt lat="62.697020" lon="9.570270"><ele>957</ele></trkpt><trkpt lat="62.697058" lon="9.571242"><ele>970</ele></trkpt><trkpt lat="62.696649" lon="9.572297"><ele>991</ele></trkpt><trkpt lat="62.696233" lon="9.573157"><ele>1010</ele></trkpt><trkpt lat="62.695905" lon="9.574001"><ele>1033</ele></trkpt><trkpt lat="62.695496" lon="9.575055"><ele>1057</ele></trkpt><trkpt lat="62.695177" lon="9.576094"><ele>1078</ele></trkpt><trkpt lat="62.695214" lon="9.577066"><ele>1094</ele></trkpt><trkpt lat="62.695252" lon="9.578039"><ele>1109</ele></trkpt><trkpt lat="62.695290" lon="9.579011"><ele>1123</ele></trkpt><trkpt lat="62.695327" lon="9.579984"><ele>1138</ele></trkpt><trkpt lat="62.695276" lon="9.580973"><ele>1155</ele></trkpt><trkpt lat="62.695313" lon="9.581946"><ele>1171</ele></trkpt><trkpt lat="62.695351" lon="9.582918"><ele>1191</ele></trkpt><trkpt lat="62.695299" lon="9.583907"><ele>1215</ele></trkpt><trkpt lat="62.695069" lon="9.584929"><ele>1241</ele></trkpt><trkpt lat="62.695106" lon="9.585901"><ele>1267</ele></trkpt><trkpt lat="62.695144" lon="9.586874"><ele>1285</ele></trkpt><trkpt lat="62.695182" lon="9.587847"><ele>1302</ele></trkpt><trkpt lat="62.695219" lon="9.588819"><ele>1311</ele></trkpt><trkpt lat="62.695257" lon="9.589792"><ele>1314</ele></trkpt><trkpt lat="62.695294" lon="9.590764"><ele>1312</ele></trkpt><trkpt lat="62.695332" lon="9.591737"><ele>1309</ele></trkpt><trkpt lat="62.695370" lon="9.592710"><ele>1303</ele></trkpt><trkpt lat="62.695407" lon="9.593682"><ele>1300</ele></trkpt><trkpt lat="62.695445" lon="9.594655"><ele>1296</ele></trkpt><trkpt lat="62.695482" lon="9.595627"><ele>1285</ele></trkpt><trkpt lat="62.695520" lon="9.596600"><ele>1280</ele></trkpt><trkpt lat="62.695557" lon="9.597573"><ele>1271</ele></trkpt><trkpt lat="62.695595" lon="9.598545"><ele>1263</ele></trkpt><trkpt lat="62.695632" lon="9.599518"><ele>1257</ele></trkpt><trkpt lat="62.695670" lon="9.600491"><ele>1254</ele></trkpt><trkpt lat="62.695707" lon="9.601463"><ele>1253</ele></trkpt><trkpt lat="62.695745" lon="9.602436"><ele>1250</ele></trkpt><trkpt lat="62.695783" lon="9.603408"><ele>1249</ele></trkpt><trkpt lat="62.695820" lon="9.604381"><ele>1253</ele></trkpt><trkpt lat="62.695858" lon="9.605354"><ele>1258</ele></trkpt><trkpt lat="62.695895" lon="9.606326"><ele>1266</ele></trkpt><trkpt lat="62.695932" lon="9.607299"><ele>1273</ele></trkpt><trkpt lat="62.695970" lon="9.608272"><ele>1278</ele></trkpt><trkpt lat="62.696007" lon="9.609244"><ele>1286</ele></trkpt><trkpt lat="62.696045" lon="9.610217"><ele>1294</ele></trkpt><trkpt lat="62.696082" lon="9.611190"><ele>1303</ele></trkpt><trkpt lat="62.696120" lon="9.612162"><ele>1309</ele></trkpt><trkpt lat="62.696157" lon="9.613135"><ele>1319</ele></trkpt><trkpt lat="62.696195" lon="9.614108"><ele>1311</ele></trkpt><trkpt lat="62.696232" lon="9.615080"><ele>1305</ele></trkpt><trkpt lat="62.696270" lon="9.616053"><ele>1303</ele></trkpt><trkpt lat="62.696307" lon="9.617026"><ele>1302</ele></trkpt><trkpt lat="62.696344" lon="9.617998"><ele>1304</ele></trkpt><trkpt lat="62.696382" lon="9.618971"><ele>1305</ele></trkpt><trkpt lat="62.696419" lon="9.619944"><ele>1304</ele></trkpt><trkpt lat="62.696457" lon="9.620916"><ele>1304</ele></trkpt><trkpt lat="62.696494" lon="9.621889"><ele>1304</ele></trkpt><trkpt lat="62.696531" lon="9.622862"><ele>1299</ele></trkpt><trkpt lat="62.696569" lon="9.623834"><ele>1295</ele></trkpt><trkpt lat="62.696963" lon="9.624742"><ele>1286</ele></trkpt><trkpt lat="62.697358" lon="9.625650"><ele>1277</ele></trkpt><trkpt lat="62.697396" lon="9.626622"><ele>1277</ele></trkpt><trkpt lat="62.697344" lon="9.627611"><ele>1283</ele></trkpt><trkpt lat="62.697381" lon="9.628584"><ele>1278</ele></trkpt><trkpt lat="62.697418" lon="9.629557"><ele>1275</ele></trkpt><trkpt lat="62.697456" lon="9.630529"><ele>1278</ele></trkpt><trkpt lat="62.697493" lon="9.631502"><ele>1284</ele></trkpt><trkpt lat="62.697709" lon="9.632442"><ele>1310</ele></trkpt><trkpt lat="62.697836" lon="9.633399"><ele>1325</ele></trkpt><trkpt lat="62.697962" lon="9.634355"><ele>1336</ele></trkpt><trkpt lat="62.698000" lon="9.635328"><ele>1347</ele></trkpt><trkpt lat="62.698126" lon="9.636285"><ele>1360</ele></trkpt><trkpt lat="62.698342" lon="9.637225"><ele>1373</ele></trkpt><trkpt lat="62.698558" lon="9.638165"><ele>1389</ele></trkpt><trkpt lat="62.698595" lon="9.639138"><ele>1408</ele></trkpt><trkpt lat="62.698633" lon="9.640111"><ele>1428</ele></trkpt><trkpt lat="62.698670" lon="9.641084"><ele>1443</ele></trkpt><trkpt lat="62.698707" lon="9.642057"><ele>1454</ele></trkpt><trkpt lat="62.698744" lon="9.643029"><ele>1463</ele></trkpt><trkpt lat="62.698782" lon="9.644002"><ele>1467</ele></trkpt><trkpt lat="62.698819" lon="9.644975"><ele>1470</ele></trkpt><trkpt lat="62.698856" lon="9.645948"><ele>1477</ele></trkpt><trkpt lat="62.698893" lon="9.646921"><ele>1497</ele></trkpt><trkpt lat="62.699377" lon="9.647812"><ele>1513</ele></trkpt><trkpt lat="62.699861" lon="9.648704"><ele>1529</ele></trkpt><trkpt lat="62.700256" lon="9.649612"><ele>1548</ele></trkpt><trkpt lat="62.700472" lon="9.650553"><ele>1567</ele></trkpt><trkpt lat="62.700956" lon="9.651445"><ele>1577</ele></trkpt><trkpt lat="62.701440" lon="9.652337"><ele>1575</ele></trkpt><trkpt lat="62.701730" lon="9.652872"><ele>1578</ele></trkpt></trkseg></trk><wpt lat="62.708470" lon="9.636169"><ele>1198</ele><name>Run end · Brattskarven 1578 m</name></wpt><trk><name>Down · Brattskarven 1578 m</name><desc>fall-line run: 327 m of 20–30°, 277 m drop, aspect 289°, max 29°, 0.0% ≥30°; ends 3.84 km from the car.</desc><trkseg><trkpt lat="62.701730" lon="9.652872"><ele>1578</ele></trkpt><trkpt lat="62.705908" lon="9.653879"><ele>1475</ele></trkpt><trkpt lat="62.706154" lon="9.653246"><ele>1459</ele></trkpt><trkpt lat="62.706310" lon="9.652630"><ele>1452</ele></trkpt><trkpt lat="62.706556" lon="9.651998"><ele>1441</ele></trkpt><trkpt lat="62.706802" lon="9.651365"><ele>1424</ele></trkpt><trkpt lat="62.706958" lon="9.650749"><ele>1407</ele></trkpt><trkpt lat="62.707025" lon="9.650149"><ele>1396</ele></trkpt><trkpt lat="62.707003" lon="9.649565"><ele>1389</ele></trkpt><trkpt lat="62.706981" lon="9.648981"><ele>1381</ele></trkpt><trkpt lat="62.706958" lon="9.648397"><ele>1376</ele></trkpt><trkpt lat="62.706936" lon="9.647814"><ele>1369</ele></trkpt><trkpt lat="62.707092" lon="9.647197"><ele>1357</ele></trkpt><trkpt lat="62.707070" lon="9.646614"><ele>1343</ele></trkpt><trkpt lat="62.707048" lon="9.646030"><ele>1331</ele></trkpt><trkpt lat="62.707025" lon="9.645446"><ele>1317</ele></trkpt><trkpt lat="62.707003" lon="9.644862"><ele>1304</ele></trkpt><trkpt lat="62.706981" lon="9.644278"><ele>1295</ele></trkpt><trkpt lat="62.706958" lon="9.643694"><ele>1289</ele></trkpt><trkpt lat="62.706936" lon="9.643110"><ele>1283</ele></trkpt><trkpt lat="62.706914" lon="9.642527"><ele>1276</ele></trkpt><trkpt lat="62.706891" lon="9.641943"><ele>1271</ele></trkpt><trkpt lat="62.706869" lon="9.641359"><ele>1269</ele></trkpt><trkpt lat="62.706847" lon="9.640775"><ele>1263</ele></trkpt><trkpt lat="62.706824" lon="9.640191"><ele>1259</ele></trkpt><trkpt lat="62.706981" lon="9.639575"><ele>1255</ele></trkpt><trkpt lat="62.707227" lon="9.638943"><ele>1245</ele></trkpt><trkpt lat="62.707472" lon="9.638310"><ele>1234</ele></trkpt><trkpt lat="62.707725" lon="9.637872"><ele>1227</ele></trkpt><trkpt lat="62.707979" lon="9.637434"><ele>1220</ele></trkpt><trkpt lat="62.708224" lon="9.636802"><ele>1213</ele></trkpt><trkpt lat="62.708470" lon="9.636169"><ele>1198</ele></trkpt><trkpt lat="62.708470" lon="9.636169"><ele>1198</ele></trkpt></trkseg></trk></gpx>