<?xml version="1.0" encoding="UTF-8"?>
<gpx version="1.1" creator="Rando toppturs" xmlns="http://www.topografix.com/GPX/1/1"><metadata><name>111 Roksdalskammen 1590 m</name><desc>Generated 2026-09-13 17:42 from Kartverket 10 m terrain. Ascent lines are least-cost terrain paths under 35°, not verified routes. Not a snow-stability assessment.</desc></metadata><wpt lat="62.581212" lon="9.179831"><ele>634</ele><name>Car · Roksdalskammen 1590 m</name></wpt><wpt lat="62.609332" lon="9.167664"><ele>1590</ele><name>Roksdalskammen 1590 m</name></wpt><trk><name>Up · Roksdalskammen 1590 m</name><desc>least-cost ascent: +957 m over 3835 m, max 30°, 0.0% on 30–35°, ≈3.35 h at 4 km/h + 400 m/h. Terrain possibility, not a checked route.</desc><trkseg><trkpt lat="62.581212" lon="9.179831"><ele>634</ele></trkpt><trkpt lat="62.581658" lon="9.179744"><ele>653</ele></trkpt><trkpt lat="62.582097" lon="9.179462"><ele>672</ele></trkpt><trkpt lat="62.582535" lon="9.179181"><ele>690</ele></trkpt><trkpt lat="62.582949" lon="9.178319"><ele>716</ele></trkpt><trkpt lat="62.583371" lon="9.177650"><ele>742</ele></trkpt><trkpt lat="62.583786" lon="9.176788"><ele>764</ele></trkpt><trkpt lat="62.584192" lon="9.175732"><ele>792</ele></trkpt><trkpt lat="62.584598" lon="9.174676"><ele>819</ele></trkpt><trkpt lat="62.585036" lon="9.174395"><ele>842</ele></trkpt><trkpt lat="62.585450" lon="9.173532"><ele>870</ele></trkpt><trkpt lat="62.585856" lon="9.172476"><ele>896</ele></trkpt><trkpt lat="62.586287" lon="9.172001"><ele>918</ele></trkpt><trkpt lat="62.586725" lon="9.171720"><ele>937</ele></trkpt><trkpt lat="62.587163" lon="9.171438"><ele>956</ele></trkpt><trkpt lat="62.587610" lon="9.171351"><ele>980</ele></trkpt><trkpt lat="62.588048" lon="9.171069"><ele>1003</ele></trkpt><trkpt lat="62.588478" lon="9.170594"><ele>1026</ele></trkpt><trkpt lat="62.588893" lon="9.169732"><ele>1050</ele></trkpt><trkpt lat="62.589298" lon="9.168675"><ele>1074</ele></trkpt><trkpt lat="62.589737" lon="9.168394"><ele>1089</ele></trkpt><trkpt lat="62.590143" lon="9.167338"><ele>1103</ele></trkpt><trkpt lat="62.590581" lon="9.167056"><ele>1119</ele></trkpt><trkpt lat="62.591011" lon="9.166581"><ele>1130</ele></trkpt><trkpt lat="62.591417" lon="9.165525"><ele>1139</ele></trkpt><trkpt lat="62.591840" lon="9.164856"><ele>1154</ele></trkpt><trkpt lat="62.592286" lon="9.164768"><ele>1169</ele></trkpt><trkpt lat="62.592733" lon="9.164680"><ele>1184</ele></trkpt><trkpt lat="62.593179" lon="9.164592"><ele>1200</ele></trkpt><trkpt lat="62.593625" lon="9.164504"><ele>1215</ele></trkpt><trkpt lat="62.594064" lon="9.164223"><ele>1239</ele></trkpt><trkpt lat="62.594502" lon="9.163941"><ele>1258</ele></trkpt><trkpt lat="62.594941" lon="9.163659"><ele>1273</ele></trkpt><trkpt lat="62.595379" lon="9.163378"><ele>1290</ele></trkpt><trkpt lat="62.595825" lon="9.163290"><ele>1301</ele></trkpt><trkpt lat="62.596272" lon="9.163202"><ele>1311</ele></trkpt><trkpt lat="62.596718" lon="9.163114"><ele>1319</ele></trkpt><trkpt lat="62.597165" lon="9.163026"><ele>1328</ele></trkpt><trkpt lat="62.597611" lon="9.162938"><ele>1337</ele></trkpt><trkpt lat="62.598058" lon="9.162850"><ele>1350</ele></trkpt><trkpt lat="62.598504" lon="9.162762"><ele>1367</ele></trkpt><trkpt lat="62.598934" lon="9.162287"><ele>1382</ele></trkpt><trkpt lat="62.599373" lon="9.162005"><ele>1400</ele></trkpt><trkpt lat="62.599819" lon="9.161917"><ele>1418</ele></trkpt><trkpt lat="62.600266" lon="9.161829"><ele>1434</ele></trkpt><trkpt lat="62.600712" lon="9.161741"><ele>1449</ele></trkpt><trkpt lat="62.601159" lon="9.161653"><ele>1462</ele></trkpt><trkpt lat="62.601605" lon="9.161566"><ele>1474</ele></trkpt><trkpt lat="62.602043" lon="9.161284"><ele>1484</ele></trkpt><trkpt lat="62.602466" lon="9.160615"><ele>1496</ele></trkpt><trkpt lat="62.602904" lon="9.160333"><ele>1509</ele></trkpt><trkpt lat="62.603350" lon="9.160245"><ele>1519</ele></trkpt><trkpt lat="62.603797" lon="9.160157"><ele>1525</ele></trkpt><trkpt lat="62.604243" lon="9.160069"><ele>1531</ele></trkpt><trkpt lat="62.604690" lon="9.159981"><ele>1536</ele></trkpt><trkpt lat="62.605144" lon="9.160087"><ele>1541</ele></trkpt><trkpt lat="62.605631" lon="9.160968"><ele>1540</ele></trkpt><trkpt lat="62.606118" lon="9.161849"><ele>1542</ele></trkpt><trkpt lat="62.606605" lon="9.162730"><ele>1548</ele></trkpt><trkpt lat="62.607092" lon="9.163611"><ele>1556</ele></trkpt><trkpt lat="62.607579" lon="9.164492"><ele>1563</ele></trkpt><trkpt lat="62.608066" lon="9.165373"><ele>1569</ele></trkpt><trkpt lat="62.608553" lon="9.166254"><ele>1578</ele></trkpt><trkpt lat="62.609040" lon="9.167135"><ele>1586</ele></trkpt><trkpt lat="62.609332" lon="9.167664"><ele>1590</ele></trkpt></trkseg></trk><wpt lat="62.604023" lon="9.174179"><ele>1398</ele><name>Run end · Roksdalskammen 1590 m</name></wpt><trk><name>Down · Roksdalskammen 1590 m</name><desc>fall-line run: 317 m of 20–30°, 127 m drop, aspect 175°, max 27°, 0.0% ≥30°; ends 2.56 km from the car.</desc><trkseg><trkpt lat="62.609332" lon="9.167664"><ele>1590</ele></trkpt><trkpt lat="62.606612" lon="9.173670"><ele>1526</ele></trkpt><trkpt lat="62.606344" lon="9.173723"><ele>1512</ele></trkpt><trkpt lat="62.606077" lon="9.173775"><ele>1497</ele></trkpt><trkpt lat="62.605809" lon="9.173828"><ele>1484</ele></trkpt><trkpt lat="62.605541" lon="9.173881"><ele>1471</ele></trkpt><trkpt lat="62.605273" lon="9.173934"><ele>1459</ele></trkpt><trkpt lat="62.605005" lon="9.173986"><ele>1446</ele></trkpt><trkpt lat="62.604737" lon="9.174039"><ele>1435</ele></trkpt><trkpt lat="62.604469" lon="9.174092"><ele>1421</ele></trkpt><trkpt lat="62.604201" lon="9.174144"><ele>1408</ele></trkpt><trkpt lat="62.604023" lon="9.174179"><ele>1398</ele></trkpt></trkseg></trk></gpx>