<?xml version="1.0" encoding="UTF-8"?>
<gpx version="1.1" creator="Rando toppturs" xmlns="http://www.topografix.com/GPX/1/1"><metadata><name>112 Blåhøa 1671 m</name><desc>Generated 2026-09-13 17:42 from Kartverket 10 m terrain. Ascent lines are least-cost terrain paths under 35°, not verified routes. Not a snow-stability assessment.</desc></metadata><wpt lat="62.700470" lon="9.363883"><ele>673</ele><name>Car · Blåhøa 1671 m</name></wpt><wpt lat="62.754278" lon="9.332187"><ele>1671</ele><name>Blåhøa 1671 m</name></wpt><trk><name>Up · Blåhøa 1671 m</name><desc>least-cost ascent: +1055 m over 8255 m, max 34°, 0.8% on 30–35°, ≈4.7 h at 4 km/h + 400 m/h. Terrain possibility, not a checked route.</desc><trkseg><trkpt lat="62.700470" lon="9.363883"><ele>673</ele></trkpt><trkpt lat="62.700917" lon="9.363798"><ele>681</ele></trkpt><trkpt lat="62.701364" lon="9.363712"><ele>689</ele></trkpt><trkpt lat="62.701810" lon="9.363627"><ele>696</ele></trkpt><trkpt lat="62.702257" lon="9.363542"><ele>706</ele></trkpt><trkpt lat="62.702704" lon="9.363456"><ele>716</ele></trkpt><trkpt lat="62.703150" lon="9.363371"><ele>730</ele></trkpt><trkpt lat="62.703565" lon="9.362508"><ele>743</ele></trkpt><trkpt lat="62.703973" lon="9.361450"><ele>759</ele></trkpt><trkpt lat="62.704380" lon="9.360392"><ele>778</ele></trkpt><trkpt lat="62.704788" lon="9.359334"><ele>790</ele></trkpt><trkpt lat="62.705195" lon="9.358276"><ele>805</ele></trkpt><trkpt lat="62.705626" lon="9.357802"><ele>820</ele></trkpt><trkpt lat="62.706065" lon="9.357522"><ele>836</ele></trkpt><trkpt lat="62.706472" lon="9.356464"><ele>848</ele></trkpt><trkpt lat="62.706880" lon="9.355406"><ele>862</ele></trkpt><trkpt lat="62.707287" lon="9.354348"><ele>876</ele></trkpt><trkpt lat="62.707694" lon="9.353290"><ele>885</ele></trkpt><trkpt lat="62.708102" lon="9.352232"><ele>895</ele></trkpt><trkpt lat="62.708509" lon="9.351174"><ele>906</ele></trkpt><trkpt lat="62.708916" lon="9.350116"><ele>916</ele></trkpt><trkpt lat="62.709355" lon="9.349836"><ele>928</ele></trkpt><trkpt lat="62.709802" lon="9.349750"><ele>937</ele></trkpt><trkpt lat="62.710248" lon="9.349665"><ele>948</ele></trkpt><trkpt lat="62.710695" lon="9.349579"><ele>956</ele></trkpt><trkpt lat="62.711142" lon="9.349494"><ele>960</ele></trkpt><trkpt lat="62.711588" lon="9.349408"><ele>963</ele></trkpt><trkpt lat="62.712035" lon="9.349322"><ele>964</ele></trkpt><trkpt lat="62.712481" lon="9.349237"><ele>966</ele></trkpt><trkpt lat="62.712928" lon="9.349151"><ele>970</ele></trkpt><trkpt lat="62.713375" lon="9.349066"><ele>973</ele></trkpt><trkpt lat="62.713821" lon="9.348980"><ele>974</ele></trkpt><trkpt lat="62.714268" lon="9.348895"><ele>976</ele></trkpt><trkpt lat="62.714714" lon="9.348809"><ele>976</ele></trkpt><trkpt lat="62.715161" lon="9.348724"><ele>977</ele></trkpt><trkpt lat="62.715608" lon="9.348638"><ele>979</ele></trkpt><trkpt lat="62.716054" lon="9.348553"><ele>979</ele></trkpt><trkpt lat="62.716493" lon="9.348272"><ele>979</ele></trkpt><trkpt lat="62.716932" lon="9.347992"><ele>984</ele></trkpt><trkpt lat="62.717378" lon="9.347907"><ele>984</ele></trkpt><trkpt lat="62.717825" lon="9.347821"><ele>984</ele></trkpt><trkpt lat="62.718271" lon="9.347735"><ele>986</ele></trkpt><trkpt lat="62.718718" lon="9.347650"><ele>989</ele></trkpt><trkpt lat="62.719133" lon="9.346786"><ele>992</ele></trkpt><trkpt lat="62.719572" lon="9.346506"><ele>987</ele></trkpt><trkpt lat="62.720003" lon="9.346031"><ele>991</ele></trkpt><trkpt lat="62.720442" lon="9.345751"><ele>993</ele></trkpt><trkpt lat="62.720888" lon="9.345665"><ele>1000</ele></trkpt><trkpt lat="62.721335" lon="9.345579"><ele>1001</ele></trkpt><trkpt lat="62.721781" lon="9.345494"><ele>1001</ele></trkpt><trkpt lat="62.722228" lon="9.345408"><ele>1007</ele></trkpt><trkpt lat="62.722675" lon="9.345323"><ele>1010</ele></trkpt><trkpt lat="62.723090" lon="9.344458"><ele>1022</ele></trkpt><trkpt lat="62.723497" lon="9.343400"><ele>1026</ele></trkpt><trkpt lat="62.723904" lon="9.342341"><ele>1032</ele></trkpt><trkpt lat="62.724312" lon="9.341282"><ele>1035</ele></trkpt><trkpt lat="62.724719" lon="9.340223"><ele>1040</ele></trkpt><trkpt lat="62.725126" lon="9.339164"><ele>1047</ele></trkpt><trkpt lat="62.725533" lon="9.338105"><ele>1052</ele></trkpt><trkpt lat="62.725940" lon="9.337046"><ele>1057</ele></trkpt><trkpt lat="62.726348" lon="9.335987"><ele>1061</ele></trkpt><trkpt lat="62.726755" lon="9.334928"><ele>1065</ele></trkpt><trkpt lat="62.727162" lon="9.333869"><ele>1069</ele></trkpt><trkpt lat="62.727569" lon="9.332810"><ele>1076</ele></trkpt><trkpt lat="62.727977" lon="9.331751"><ele>1082</ele></trkpt><trkpt lat="62.728384" lon="9.330692"><ele>1085</ele></trkpt><trkpt lat="62.728791" lon="9.329633"><ele>1088</ele></trkpt><trkpt lat="62.729198" lon="9.328574"><ele>1089</ele></trkpt><trkpt lat="62.729605" lon="9.327515"><ele>1089</ele></trkpt><trkpt lat="62.730012" lon="9.326455"><ele>1094</ele></trkpt><trkpt lat="62.730420" lon="9.325396"><ele>1093</ele></trkpt><trkpt lat="62.730827" lon="9.324337"><ele>1094</ele></trkpt><trkpt lat="62.731234" lon="9.323277"><ele>1096</ele></trkpt><trkpt lat="62.731641" lon="9.322218"><ele>1096</ele></trkpt><trkpt lat="62.732048" lon="9.321159"><ele>1092</ele></trkpt><trkpt lat="62.732455" lon="9.320099"><ele>1088</ele></trkpt><trkpt lat="62.732862" lon="9.319040"><ele>1083</ele></trkpt><trkpt lat="62.733269" lon="9.317980"><ele>1079</ele></trkpt><trkpt lat="62.733676" lon="9.316921"><ele>1075</ele></trkpt><trkpt lat="62.734083" lon="9.315861"><ele>1073</ele></trkpt><trkpt lat="62.734490" lon="9.314802"><ele>1073</ele></trkpt><trkpt lat="62.734898" lon="9.313742"><ele>1073</ele></trkpt><trkpt lat="62.735305" lon="9.312683"><ele>1073</ele></trkpt><trkpt lat="62.735712" lon="9.311623"><ele>1073</ele></trkpt><trkpt lat="62.736119" lon="9.310563"><ele>1075</ele></trkpt><trkpt lat="62.736526" lon="9.309504"><ele>1077</ele></trkpt><trkpt lat="62.736933" lon="9.308444"><ele>1081</ele></trkpt><trkpt lat="62.737340" lon="9.307384"><ele>1087</ele></trkpt><trkpt lat="62.737747" lon="9.306324"><ele>1091</ele></trkpt><trkpt lat="62.738154" lon="9.305265"><ele>1096</ele></trkpt><trkpt lat="62.738561" lon="9.304205"><ele>1103</ele></trkpt><trkpt lat="62.738968" lon="9.303145"><ele>1110</ele></trkpt><trkpt lat="62.739382" lon="9.302280"><ele>1129</ele></trkpt><trkpt lat="62.739853" lon="9.302777"><ele>1157</ele></trkpt><trkpt lat="62.740071" lon="9.303716"><ele>1171</ele></trkpt><trkpt lat="62.740111" lon="9.304690"><ele>1183</ele></trkpt><trkpt lat="62.740150" lon="9.305664"><ele>1193</ele></trkpt><trkpt lat="62.740190" lon="9.306637"><ele>1202</ele></trkpt><trkpt lat="62.740587" lon="9.307542"><ele>1220</ele></trkpt><trkpt lat="62.740983" lon="9.308446"><ele>1239</ele></trkpt><trkpt lat="62.741291" lon="9.309368"><ele>1270</ele></trkpt><trkpt lat="62.741777" lon="9.310256"><ele>1314</ele></trkpt><trkpt lat="62.741817" lon="9.311229"><ele>1341</ele></trkpt><trkpt lat="62.742213" lon="9.312134"><ele>1366</ele></trkpt><trkpt lat="62.742700" lon="9.313022"><ele>1377</ele></trkpt><trkpt lat="62.743178" lon="9.313714"><ele>1398</ele></trkpt><trkpt lat="62.743664" lon="9.314602"><ele>1428</ele></trkpt><trkpt lat="62.744142" lon="9.315295"><ele>1458</ele></trkpt><trkpt lat="62.744604" lon="9.315598"><ele>1483</ele></trkpt><trkpt lat="62.745051" lon="9.315512"><ele>1504</ele></trkpt><trkpt lat="62.745529" lon="9.316205"><ele>1524</ele></trkpt><trkpt lat="62.746015" lon="9.317092"><ele>1543</ele></trkpt><trkpt lat="62.746501" lon="9.317980"><ele>1562</ele></trkpt><trkpt lat="62.746987" lon="9.318868"><ele>1575</ele></trkpt><trkpt lat="62.747473" lon="9.319756"><ele>1582</ele></trkpt><trkpt lat="62.747959" lon="9.320643"><ele>1583</ele></trkpt><trkpt lat="62.748446" lon="9.321531"><ele>1575</ele></trkpt><trkpt lat="62.748932" lon="9.322419"><ele>1572</ele></trkpt><trkpt lat="62.749418" lon="9.323307"><ele>1586</ele></trkpt><trkpt lat="62.749904" lon="9.324195"><ele>1596</ele></trkpt><trkpt lat="62.750390" lon="9.325083"><ele>1607</ele></trkpt><trkpt lat="62.750876" lon="9.325971"><ele>1619</ele></trkpt><trkpt lat="62.751362" lon="9.326859"><ele>1628</ele></trkpt><trkpt lat="62.751848" lon="9.327747"><ele>1636</ele></trkpt><trkpt lat="62.752334" lon="9.328635"><ele>1645</ele></trkpt><trkpt lat="62.752820" lon="9.329523"><ele>1652</ele></trkpt><trkpt lat="62.753306" lon="9.330411"><ele>1657</ele></trkpt><trkpt lat="62.753792" lon="9.331299"><ele>1664</ele></trkpt><trkpt lat="62.754278" lon="9.332187"><ele>1671</ele></trkpt><trkpt lat="62.754278" lon="9.332187"><ele>1671</ele></trkpt></trkseg></trk><wpt lat="62.760974" lon="9.326381"><ele>1428</ele><name>Run end · Blåhøa 1671 m</name></wpt><trk><name>Down · Blåhøa 1671 m</name><desc>fall-line run: 317 m of 20–30°, 145 m drop, aspect 9°, max 32°, 2.6% ≥30°; ends 7.02 km from the car.</desc><trkseg><trkpt lat="62.754278" lon="9.332187"><ele>1671</ele></trkpt><trkpt lat="62.757564" lon="9.326645"><ele>1573</ele></trkpt><trkpt lat="62.757832" lon="9.326594"><ele>1560</ele></trkpt><trkpt lat="62.758100" lon="9.326542"><ele>1547</ele></trkpt><trkpt lat="62.758368" lon="9.326490"><ele>1535</ele></trkpt><trkpt lat="62.758636" lon="9.326439"><ele>1522</ele></trkpt><trkpt lat="62.758904" lon="9.326387"><ele>1510</ele></trkpt><trkpt lat="62.759180" lon="9.326530"><ele>1497</ele></trkpt><trkpt lat="62.759448" lon="9.326479"><ele>1485</ele></trkpt><trkpt lat="62.759716" lon="9.326427"><ele>1477</ele></trkpt><trkpt lat="62.759983" lon="9.326376"><ele>1469</ele></trkpt><trkpt lat="62.760251" lon="9.326324"><ele>1463</ele></trkpt><trkpt lat="62.760519" lon="9.326272"><ele>1453</ele></trkpt><trkpt lat="62.760795" lon="9.326415"><ele>1436</ele></trkpt><trkpt lat="62.760974" lon="9.326381"><ele>1428</ele></trkpt></trkseg></trk></gpx>