<?xml version="1.0" encoding="UTF-8"?>
<gpx version="1.1" creator="Rando toppturs" xmlns="http://www.topografix.com/GPX/1/1"><metadata><name>114 Lertjønnkollen 1673 m</name><desc>Generated 2026-09-13 17:42 from Kartverket 10 m terrain. Ascent lines are least-cost terrain paths under 35°, not verified routes. Not a snow-stability assessment.</desc></metadata><wpt lat="62.434603" lon="9.693765"><ele>1063</ele><name>Car · Lertjønnkollen 1673 m</name></wpt><wpt lat="62.454893" lon="9.737565"><ele>1673</ele><name>Lertjønnkollen 1673 m</name></wpt><trk><name>Up · Lertjønnkollen 1673 m</name><desc>least-cost ascent: +612 m over 3532 m, max 25°, 0.0% on 30–35°, ≈2.41 h at 4 km/h + 400 m/h. Terrain possibility, not a checked route.</desc><trkseg><trkpt lat="62.434603" lon="9.693765"><ele>1063</ele></trkpt><trkpt lat="62.434640" lon="9.694730"><ele>1075</ele></trkpt><trkpt lat="62.434677" lon="9.695694"><ele>1091</ele></trkpt><trkpt lat="62.434714" lon="9.696658"><ele>1105</ele></trkpt><trkpt lat="62.434750" lon="9.697623"><ele>1118</ele></trkpt><trkpt lat="62.434966" lon="9.698555"><ele>1138</ele></trkpt><trkpt lat="62.435092" lon="9.699504"><ele>1156</ele></trkpt><trkpt lat="62.435129" lon="9.700468"><ele>1168</ele></trkpt><trkpt lat="62.435165" lon="9.701432"><ele>1179</ele></trkpt><trkpt lat="62.435202" lon="9.702397"><ele>1189</ele></trkpt><trkpt lat="62.435239" lon="9.703361"><ele>1200</ele></trkpt><trkpt lat="62.435276" lon="9.704325"><ele>1216</ele></trkpt><trkpt lat="62.435312" lon="9.705290"><ele>1230</ele></trkpt><trkpt lat="62.435260" lon="9.706270"><ele>1238</ele></trkpt><trkpt lat="62.435654" lon="9.707171"><ele>1239</ele></trkpt><trkpt lat="62.436138" lon="9.708056"><ele>1247</ele></trkpt><trkpt lat="62.436621" lon="9.708941"><ele>1253</ele></trkpt><trkpt lat="62.437105" lon="9.709826"><ele>1257</ele></trkpt><trkpt lat="62.437588" lon="9.710711"><ele>1266</ele></trkpt><trkpt lat="62.438072" lon="9.711597"><ele>1283</ele></trkpt><trkpt lat="62.438555" lon="9.712482"><ele>1303</ele></trkpt><trkpt lat="62.439039" lon="9.713367"><ele>1310</ele></trkpt><trkpt lat="62.439522" lon="9.714253"><ele>1321</ele></trkpt><trkpt lat="62.440006" lon="9.715138"><ele>1334</ele></trkpt><trkpt lat="62.440490" lon="9.716023"><ele>1343</ele></trkpt><trkpt lat="62.440973" lon="9.716909"><ele>1352</ele></trkpt><trkpt lat="62.441457" lon="9.717794"><ele>1367</ele></trkpt><trkpt lat="62.441940" lon="9.718680"><ele>1382</ele></trkpt><trkpt lat="62.442424" lon="9.719565"><ele>1393</ele></trkpt><trkpt lat="62.442907" lon="9.720451"><ele>1407</ele></trkpt><trkpt lat="62.443391" lon="9.721337"><ele>1424</ele></trkpt><trkpt lat="62.443874" lon="9.722222"><ele>1431</ele></trkpt><trkpt lat="62.444358" lon="9.723108"><ele>1449</ele></trkpt><trkpt lat="62.444841" lon="9.723993"><ele>1460</ele></trkpt><trkpt lat="62.445325" lon="9.724879"><ele>1477</ele></trkpt><trkpt lat="62.445801" lon="9.725572"><ele>1492</ele></trkpt><trkpt lat="62.446284" lon="9.726458"><ele>1504</ele></trkpt><trkpt lat="62.446768" lon="9.727344"><ele>1512</ele></trkpt><trkpt lat="62.447251" lon="9.728229"><ele>1520</ele></trkpt><trkpt lat="62.447735" lon="9.729115"><ele>1528</ele></trkpt><trkpt lat="62.448218" lon="9.730001"><ele>1541</ele></trkpt><trkpt lat="62.448702" lon="9.730887"><ele>1553</ele></trkpt><trkpt lat="62.449185" lon="9.731773"><ele>1569</ele></trkpt><trkpt lat="62.449646" lon="9.732080"><ele>1586</ele></trkpt><trkpt lat="62.450108" lon="9.732387"><ele>1602</ele></trkpt><trkpt lat="62.450555" lon="9.732308"><ele>1613</ele></trkpt><trkpt lat="62.451002" lon="9.732229"><ele>1623</ele></trkpt><trkpt lat="62.451463" lon="9.732536"><ele>1631</ele></trkpt><trkpt lat="62.451910" lon="9.732457"><ele>1635</ele></trkpt><trkpt lat="62.452379" lon="9.732957"><ele>1643</ele></trkpt><trkpt lat="62.452862" lon="9.733844"><ele>1651</ele></trkpt><trkpt lat="62.453346" lon="9.734730"><ele>1658</ele></trkpt><trkpt lat="62.453829" lon="9.735616"><ele>1662</ele></trkpt><trkpt lat="62.454313" lon="9.736502"><ele>1667</ele></trkpt><trkpt lat="62.454796" lon="9.737388"><ele>1673</ele></trkpt><trkpt lat="62.454893" lon="9.737565"><ele>1673</ele></trkpt></trkseg></trk><wpt lat="62.453084" lon="9.754009"><ele>1486</ele><name>Run end · Lertjønnkollen 1673 m</name></wpt><trk><name>Down · Lertjønnkollen 1673 m</name><desc>fall-line run: 315 m of 20–30°, 126 m drop, aspect 54°, max 27°, 0.0% ≥30°; ends 3.73 km from the car.</desc><trkseg><trkpt lat="62.454893" lon="9.737565"><ele>1673</ele></trkpt><trkpt lat="62.451383" lon="9.749452"><ele>1612</ele></trkpt><trkpt lat="62.451673" lon="9.749983"><ele>1594</ele></trkpt><trkpt lat="62.451784" lon="9.750547"><ele>1581</ele></trkpt><trkpt lat="62.451806" lon="9.751126"><ele>1570</ele></trkpt><trkpt lat="62.452007" lon="9.751673"><ele>1558</ele></trkpt><trkpt lat="62.452297" lon="9.752205"><ele>1538</ele></trkpt><trkpt lat="62.452587" lon="9.752737"><ele>1522</ele></trkpt><trkpt lat="62.452698" lon="9.753300"><ele>1508</ele></trkpt><trkpt lat="62.452988" lon="9.753832"><ele>1490</ele></trkpt><trkpt lat="62.453084" lon="9.754009"><ele>1486</ele></trkpt></trkseg></trk></gpx>