<?xml version="1.0" encoding="UTF-8"?>
<gpx version="1.1" creator="Rando toppturs" xmlns="http://www.topografix.com/GPX/1/1"><metadata><name>117 Storhøa 1167 m</name><desc>Generated 2026-09-13 17:42 from Kartverket 10 m terrain. Ascent lines are least-cost terrain paths under 35°, not verified routes. Not a snow-stability assessment.</desc></metadata><wpt lat="62.700661" lon="9.791572"><ele>779</ele><name>Car · Storhøa 1167 m</name></wpt><wpt lat="62.685154" lon="9.778642"><ele>1167</ele><name>Storhøa 1167 m</name></wpt><trk><name>Up · Storhøa 1167 m</name><desc>least-cost ascent: +388 m over 2051 m, max 35°, 1.2% on 30–35°, ≈1.48 h at 4 km/h + 400 m/h. Terrain possibility, not a checked route.</desc><trkseg><trkpt lat="62.700661" lon="9.791572"><ele>779</ele></trkpt><trkpt lat="62.700214" lon="9.791651"><ele>788</ele></trkpt><trkpt lat="62.699767" lon="9.791730"><ele>794</ele></trkpt><trkpt lat="62.699320" lon="9.791809"><ele>800</ele></trkpt><trkpt lat="62.698873" lon="9.791887"><ele>808</ele></trkpt><trkpt lat="62.698426" lon="9.791966"><ele>816</ele></trkpt><trkpt lat="62.697979" lon="9.792045"><ele>823</ele></trkpt><trkpt lat="62.697533" lon="9.792124"><ele>833</ele></trkpt><trkpt lat="62.697086" lon="9.792203"><ele>844</ele></trkpt><trkpt lat="62.696639" lon="9.792281"><ele>854</ele></trkpt><trkpt lat="62.696192" lon="9.792360"><ele>865</ele></trkpt><trkpt lat="62.695709" lon="9.791466"><ele>874</ele></trkpt><trkpt lat="62.695225" lon="9.790572"><ele>882</ele></trkpt><trkpt lat="62.694742" lon="9.789678"><ele>888</ele></trkpt><trkpt lat="62.694259" lon="9.788784"><ele>896</ele></trkpt><trkpt lat="62.693776" lon="9.787890"><ele>904</ele></trkpt><trkpt lat="62.693293" lon="9.786996"><ele>916</ele></trkpt><trkpt lat="62.692810" lon="9.786102"><ele>932</ele></trkpt><trkpt lat="62.692327" lon="9.785208"><ele>948</ele></trkpt><trkpt lat="62.691843" lon="9.784314"><ele>964</ele></trkpt><trkpt lat="62.691360" lon="9.783420"><ele>977</ele></trkpt><trkpt lat="62.690877" lon="9.782526"><ele>986</ele></trkpt><trkpt lat="62.690430" lon="9.782605"><ele>1001</ele></trkpt><trkpt lat="62.689983" lon="9.782684"><ele>1013</ele></trkpt><trkpt lat="62.689536" lon="9.782763"><ele>1022</ele></trkpt><trkpt lat="62.689089" lon="9.782842"><ele>1034</ele></trkpt><trkpt lat="62.688642" lon="9.782921"><ele>1044</ele></trkpt><trkpt lat="62.688195" lon="9.783000"><ele>1050</ele></trkpt><trkpt lat="62.687734" lon="9.782690"><ele>1049</ele></trkpt><trkpt lat="62.687251" lon="9.781796"><ele>1063</ele></trkpt><trkpt lat="62.686775" lon="9.781097"><ele>1093</ele></trkpt><trkpt lat="62.686299" lon="9.780398"><ele>1132</ele></trkpt><trkpt lat="62.685830" lon="9.779893"><ele>1154</ele></trkpt><trkpt lat="62.685347" lon="9.778999"><ele>1164</ele></trkpt><trkpt lat="62.685154" lon="9.778642"><ele>1167</ele></trkpt></trkseg></trk><wpt lat="62.688492" lon="9.776485"><ele>1024</ele><name>Run end · Storhøa 1167 m</name></wpt><trk><name>Down · Storhøa 1167 m</name><desc>fall-line run: 301 m of 20–30°, 121 m drop, aspect 360°, max 29°, 0.0% ≥30°; ends 1.56 km from the car.</desc><trkseg><trkpt lat="62.685154" lon="9.778642"><ele>1167</ele></trkpt><trkpt lat="62.686161" lon="9.776702"><ele>1144</ele></trkpt><trkpt lat="62.686429" lon="9.776654"><ele>1130</ele></trkpt><trkpt lat="62.686697" lon="9.776607"><ele>1114</ele></trkpt><trkpt lat="62.686966" lon="9.776560"><ele>1099</ele></trkpt><trkpt lat="62.687234" lon="9.776512"><ele>1085</ele></trkpt><trkpt lat="62.687502" lon="9.776465"><ele>1070</ele></trkpt><trkpt lat="62.687770" lon="9.776417"><ele>1058</ele></trkpt><trkpt lat="62.688038" lon="9.776370"><ele>1046</ele></trkpt><trkpt lat="62.688314" lon="9.776517"><ele>1031</ele></trkpt><trkpt lat="62.688492" lon="9.776485"><ele>1024</ele></trkpt></trkseg></trk></gpx>