<?xml version="1.0" encoding="UTF-8"?>
<gpx version="1.1" creator="Rando toppturs" xmlns="http://www.topografix.com/GPX/1/1"><metadata><name>120 Pikfjellet 999 m</name><desc>Generated 2026-09-13 17:42 from Kartverket 10 m terrain. Ascent lines are least-cost terrain paths under 35°, not verified routes. Not a snow-stability assessment.</desc></metadata><wpt lat="62.839942" lon="9.612747"><ele>820</ele><name>Car · Pikfjellet 999 m</name></wpt><wpt lat="62.822199" lon="9.579604"><ele>999</ele><name>Pikfjellet 999 m</name></wpt><trk><name>Up · Pikfjellet 999 m</name><desc>least-cost ascent: +203 m over 2624 m, max 20°, 0.0% on 30–35°, ≈1.16 h at 4 km/h + 400 m/h. Terrain possibility, not a checked route.</desc><trkseg><trkpt lat="62.839942" lon="9.612747"><ele>820</ele></trkpt><trkpt lat="62.839547" lon="9.611835"><ele>826</ele></trkpt><trkpt lat="62.839063" lon="9.610940"><ele>820</ele></trkpt><trkpt lat="62.838579" lon="9.610044"><ele>817</ele></trkpt><trkpt lat="62.838095" lon="9.609149"><ele>814</ele></trkpt><trkpt lat="62.837610" lon="9.608254"><ele>817</ele></trkpt><trkpt lat="62.837126" lon="9.607359"><ele>817</ele></trkpt><trkpt lat="62.836642" lon="9.606463"><ele>817</ele></trkpt><trkpt lat="62.836157" lon="9.605568"><ele>820</ele></trkpt><trkpt lat="62.835673" lon="9.604673"><ele>823</ele></trkpt><trkpt lat="62.835189" lon="9.603778"><ele>825</ele></trkpt><trkpt lat="62.834704" lon="9.602883"><ele>827</ele></trkpt><trkpt lat="62.834220" lon="9.601988"><ele>829</ele></trkpt><trkpt lat="62.833736" lon="9.601093"><ele>832</ele></trkpt><trkpt lat="62.833251" lon="9.600198"><ele>827</ele></trkpt><trkpt lat="62.832767" lon="9.599303"><ele>830</ele></trkpt><trkpt lat="62.832283" lon="9.598408"><ele>836</ele></trkpt><trkpt lat="62.831798" lon="9.597513"><ele>842</ele></trkpt><trkpt lat="62.831314" lon="9.596618"><ele>851</ele></trkpt><trkpt lat="62.830829" lon="9.595723"><ele>854</ele></trkpt><trkpt lat="62.830345" lon="9.594828"><ele>857</ele></trkpt><trkpt lat="62.829861" lon="9.593934"><ele>858</ele></trkpt><trkpt lat="62.829376" lon="9.593039"><ele>861</ele></trkpt><trkpt lat="62.828892" lon="9.592144"><ele>871</ele></trkpt><trkpt lat="62.828407" lon="9.591249"><ele>881</ele></trkpt><trkpt lat="62.827923" lon="9.590355"><ele>890</ele></trkpt><trkpt lat="62.827439" lon="9.589460"><ele>892</ele></trkpt><trkpt lat="62.826954" lon="9.588565"><ele>900</ele></trkpt><trkpt lat="62.826559" lon="9.587654"><ele>912</ele></trkpt><trkpt lat="62.826075" lon="9.586760"><ele>919</ele></trkpt><trkpt lat="62.825590" lon="9.585865"><ele>927</ele></trkpt><trkpt lat="62.825106" lon="9.584971"><ele>935</ele></trkpt><trkpt lat="62.824621" lon="9.584076"><ele>942</ele></trkpt><trkpt lat="62.824137" lon="9.583182"><ele>953</ele></trkpt><trkpt lat="62.823652" lon="9.582287"><ele>963</ele></trkpt><trkpt lat="62.823168" lon="9.581393"><ele>977</ele></trkpt><trkpt lat="62.822684" lon="9.580499"><ele>992</ele></trkpt><trkpt lat="62.822199" lon="9.579604"><ele>999</ele></trkpt><trkpt lat="62.822199" lon="9.579604"><ele>999</ele></trkpt></trkseg></trk></gpx>