<?xml version="1.0" encoding="UTF-8"?>
<gpx version="1.1" creator="Rando toppturs" xmlns="http://www.topografix.com/GPX/1/1"><metadata><name>121 Grønlifjellet 1056 m</name><desc>Generated 2026-09-13 17:42 from Kartverket 10 m terrain. Ascent lines are least-cost terrain paths under 35°, not verified routes. Not a snow-stability assessment.</desc></metadata><wpt lat="62.796879" lon="9.578768"><ele>782</ele><name>Car · Grønlifjellet 1056 m</name></wpt><wpt lat="62.813194" lon="9.551566"><ele>1056</ele><name>Grønlifjellet 1056 m</name></wpt><trk><name>Up · Grønlifjellet 1056 m</name><desc>least-cost ascent: +287 m over 2471 m, max 23°, 0.0% on 30–35°, ≈1.33 h at 4 km/h + 400 m/h. Terrain possibility, not a checked route.</desc><trkseg><trkpt lat="62.796879" lon="9.578768"><ele>782</ele></trkpt><trkpt lat="62.797311" lon="9.578296"><ele>777</ele></trkpt><trkpt lat="62.797720" lon="9.577237"><ele>780</ele></trkpt><trkpt lat="62.798129" lon="9.576179"><ele>781</ele></trkpt><trkpt lat="62.798538" lon="9.575120"><ele>786</ele></trkpt><trkpt lat="62.798947" lon="9.574062"><ele>798</ele></trkpt><trkpt lat="62.799356" lon="9.573004"><ele>807</ele></trkpt><trkpt lat="62.799765" lon="9.571945"><ele>819</ele></trkpt><trkpt lat="62.800174" lon="9.570887"><ele>827</ele></trkpt><trkpt lat="62.800583" lon="9.569828"><ele>836</ele></trkpt><trkpt lat="62.800992" lon="9.568770"><ele>841</ele></trkpt><trkpt lat="62.801401" lon="9.567711"><ele>849</ele></trkpt><trkpt lat="62.801810" lon="9.566652"><ele>859</ele></trkpt><trkpt lat="62.802219" lon="9.565594"><ele>869</ele></trkpt><trkpt lat="62.802628" lon="9.564535"><ele>879</ele></trkpt><trkpt lat="62.803037" lon="9.563476"><ele>889</ele></trkpt><trkpt lat="62.803446" lon="9.562417"><ele>899</ele></trkpt><trkpt lat="62.803855" lon="9.561359"><ele>905</ele></trkpt><trkpt lat="62.804264" lon="9.560300"><ele>915</ele></trkpt><trkpt lat="62.804703" lon="9.560022"><ele>920</ele></trkpt><trkpt lat="62.805150" lon="9.559939"><ele>927</ele></trkpt><trkpt lat="62.805597" lon="9.559857"><ele>927</ele></trkpt><trkpt lat="62.806043" lon="9.559774"><ele>927</ele></trkpt><trkpt lat="62.806490" lon="9.559691"><ele>930</ele></trkpt><trkpt lat="62.806937" lon="9.559609"><ele>928</ele></trkpt><trkpt lat="62.807384" lon="9.559526"><ele>925</ele></trkpt><trkpt lat="62.807830" lon="9.559443"><ele>925</ele></trkpt><trkpt lat="62.808277" lon="9.559360"><ele>932</ele></trkpt><trkpt lat="62.808709" lon="9.558887"><ele>933</ele></trkpt><trkpt lat="62.809118" lon="9.557828"><ele>936</ele></trkpt><trkpt lat="62.809527" lon="9.556769"><ele>948</ele></trkpt><trkpt lat="62.809935" lon="9.555710"><ele>963</ele></trkpt><trkpt lat="62.810344" lon="9.554651"><ele>977</ele></trkpt><trkpt lat="62.810761" lon="9.553787"><ele>998</ele></trkpt><trkpt lat="62.811207" lon="9.553704"><ele>1012</ele></trkpt><trkpt lat="62.811654" lon="9.553621"><ele>1020</ele></trkpt><trkpt lat="62.812101" lon="9.553539"><ele>1031</ele></trkpt><trkpt lat="62.812540" lon="9.553261"><ele>1037</ele></trkpt><trkpt lat="62.812949" lon="9.552201"><ele>1043</ele></trkpt><trkpt lat="62.813194" lon="9.551566"><ele>1056</ele></trkpt></trkseg></trk></gpx>