<?xml version="1.0" encoding="UTF-8"?>
<gpx version="1.1" creator="Rando toppturs" xmlns="http://www.topografix.com/GPX/1/1"><metadata><name>123 Ramshøkallen 1251 m</name><desc>Generated 2026-09-13 17:42 from Kartverket 10 m terrain. Ascent lines are least-cost terrain paths under 35°, not verified routes. Not a snow-stability assessment.</desc></metadata><wpt lat="62.817035" lon="9.829169"><ele>714</ele><name>Car · Ramshøkallen 1251 m</name></wpt><wpt lat="62.785735" lon="9.809917"><ele>1251</ele><name>Ramshøkallen 1251 m</name></wpt><trk><name>Up · Ramshøkallen 1251 m</name><desc>least-cost ascent: +628 m over 4102 m, max 35°, 1.2% on 30–35°, ≈2.59 h at 4 km/h + 400 m/h. Terrain possibility, not a checked route.</desc><trkseg><trkpt lat="62.817035" lon="9.829169"><ele>714</ele></trkpt><trkpt lat="62.816588" lon="9.829248"><ele>715</ele></trkpt><trkpt lat="62.816127" lon="9.828936"><ele>717</ele></trkpt><trkpt lat="62.815673" lon="9.828819"><ele>720</ele></trkpt><trkpt lat="62.815226" lon="9.828898"><ele>724</ele></trkpt><trkpt lat="62.814779" lon="9.828977"><ele>726</ele></trkpt><trkpt lat="62.814325" lon="9.828860"><ele>727</ele></trkpt><trkpt lat="62.813842" lon="9.827962"><ele>718</ele></trkpt><trkpt lat="62.813366" lon="9.827259"><ele>707</ele></trkpt><trkpt lat="62.812890" lon="9.826556"><ele>691</ele></trkpt><trkpt lat="62.812408" lon="9.825658"><ele>689</ele></trkpt><trkpt lat="62.811925" lon="9.824760"><ele>689</ele></trkpt><trkpt lat="62.811442" lon="9.823861"><ele>695</ele></trkpt><trkpt lat="62.810959" lon="9.822963"><ele>692</ele></trkpt><trkpt lat="62.810497" lon="9.822651"><ele>689</ele></trkpt><trkpt lat="62.810022" lon="9.821949"><ele>689</ele></trkpt><trkpt lat="62.809539" lon="9.821051"><ele>689</ele></trkpt><trkpt lat="62.809145" lon="9.820137"><ele>702</ele></trkpt><trkpt lat="62.808684" lon="9.819825"><ele>712</ele></trkpt><trkpt lat="62.808208" lon="9.819123"><ele>729</ele></trkpt><trkpt lat="62.807725" lon="9.818225"><ele>722</ele></trkpt><trkpt lat="62.807242" lon="9.817327"><ele>719</ele></trkpt><trkpt lat="62.806759" lon="9.816429"><ele>717</ele></trkpt><trkpt lat="62.806276" lon="9.815531"><ele>728</ele></trkpt><trkpt lat="62.805793" lon="9.814633"><ele>735</ele></trkpt><trkpt lat="62.805310" lon="9.813736"><ele>754</ele></trkpt><trkpt lat="62.804848" lon="9.813424"><ele>769</ele></trkpt><trkpt lat="62.804394" lon="9.813307"><ele>778</ele></trkpt><trkpt lat="62.803918" lon="9.812605"><ele>792</ele></trkpt><trkpt lat="62.803464" lon="9.812488"><ele>808</ele></trkpt><trkpt lat="62.803017" lon="9.812567"><ele>822</ele></trkpt><trkpt lat="62.802570" lon="9.812646"><ele>830</ele></trkpt><trkpt lat="62.802123" lon="9.812725"><ele>837</ele></trkpt><trkpt lat="62.801677" lon="9.812804"><ele>845</ele></trkpt><trkpt lat="62.801230" lon="9.812883"><ele>855</ele></trkpt><trkpt lat="62.800783" lon="9.812962"><ele>861</ele></trkpt><trkpt lat="62.800336" lon="9.813040"><ele>863</ele></trkpt><trkpt lat="62.799964" lon="9.812713"><ele>882</ele></trkpt><trkpt lat="62.799510" lon="9.812596"><ele>897</ele></trkpt><trkpt lat="62.799070" lon="9.812871"><ele>897</ele></trkpt><trkpt lat="62.798623" lon="9.812949"><ele>908</ele></trkpt><trkpt lat="62.798169" lon="9.812833"><ele>928</ele></trkpt><trkpt lat="62.797686" lon="9.811935"><ele>955</ele></trkpt><trkpt lat="62.797232" lon="9.811819"><ele>967</ele></trkpt><trkpt lat="62.796777" lon="9.811703"><ele>984</ele></trkpt><trkpt lat="62.796331" lon="9.811781"><ele>994</ele></trkpt><trkpt lat="62.795884" lon="9.811860"><ele>1003</ele></trkpt><trkpt lat="62.795437" lon="9.811939"><ele>1012</ele></trkpt><trkpt lat="62.794997" lon="9.812213"><ele>1017</ele></trkpt><trkpt lat="62.794550" lon="9.812292"><ele>1026</ele></trkpt><trkpt lat="62.794103" lon="9.812371"><ele>1035</ele></trkpt><trkpt lat="62.793671" lon="9.812840"><ele>1045</ele></trkpt><trkpt lat="62.793209" lon="9.812529"><ele>1070</ele></trkpt><trkpt lat="62.792762" lon="9.812607"><ele>1079</ele></trkpt><trkpt lat="62.792315" lon="9.812686"><ele>1093</ele></trkpt><trkpt lat="62.791861" lon="9.812570"><ele>1106</ele></trkpt><trkpt lat="62.791414" lon="9.812649"><ele>1129</ele></trkpt><trkpt lat="62.790967" lon="9.812727"><ele>1145</ele></trkpt><trkpt lat="62.790520" lon="9.812806"><ele>1149</ele></trkpt><trkpt lat="62.790102" lon="9.813666"><ele>1143</ele></trkpt><trkpt lat="62.789655" lon="9.813745"><ele>1142</ele></trkpt><trkpt lat="62.789201" lon="9.813628"><ele>1154</ele></trkpt><trkpt lat="62.788754" lon="9.813707"><ele>1168</ele></trkpt><trkpt lat="62.788307" lon="9.813786"><ele>1189</ele></trkpt><trkpt lat="62.787853" lon="9.813669"><ele>1199</ele></trkpt><trkpt lat="62.787385" lon="9.813163"><ele>1209</ele></trkpt><trkpt lat="62.786991" lon="9.812250"><ele>1217</ele></trkpt><trkpt lat="62.786508" lon="9.811352"><ele>1226</ele></trkpt><trkpt lat="62.786025" lon="9.810455"><ele>1242</ele></trkpt><trkpt lat="62.785735" lon="9.809917"><ele>1251</ele></trkpt></trkseg></trk></gpx>