<?xml version="1.0" encoding="UTF-8"?>
<gpx version="1.1" creator="Rando toppturs" xmlns="http://www.topografix.com/GPX/1/1"><metadata><name>125 Grønhøa 1155 m</name><desc>Generated 2026-09-13 17:42 from Kartverket 10 m terrain. Ascent lines are least-cost terrain paths under 35°, not verified routes. Not a snow-stability assessment.</desc></metadata><wpt lat="62.745704" lon="9.521660"><ele>902</ele><name>Car · Grønhøa 1155 m</name></wpt><wpt lat="62.760740" lon="9.514936"><ele>1155</ele><name>Grønhøa 1155 m</name></wpt><trk><name>Up · Grønhøa 1155 m</name><desc>least-cost ascent: +263 m over 1846 m, max 25°, 0.0% on 30–35°, ≈1.12 h at 4 km/h + 400 m/h. Terrain possibility, not a checked route.</desc><trkseg><trkpt lat="62.745704" lon="9.521660"><ele>902</ele></trkpt><trkpt lat="62.746150" lon="9.521577"><ele>903</ele></trkpt><trkpt lat="62.746597" lon="9.521494"><ele>898</ele></trkpt><trkpt lat="62.747044" lon="9.521411"><ele>899</ele></trkpt><trkpt lat="62.747490" lon="9.521328"><ele>903</ele></trkpt><trkpt lat="62.747937" lon="9.521245"><ele>908</ele></trkpt><trkpt lat="62.748384" lon="9.521162"><ele>915</ele></trkpt><trkpt lat="62.748831" lon="9.521079"><ele>924</ele></trkpt><trkpt lat="62.749277" lon="9.520996"><ele>934</ele></trkpt><trkpt lat="62.749724" lon="9.520913"><ele>941</ele></trkpt><trkpt lat="62.750171" lon="9.520830"><ele>947</ele></trkpt><trkpt lat="62.750618" lon="9.520747"><ele>954</ele></trkpt><trkpt lat="62.751064" lon="9.520664"><ele>957</ele></trkpt><trkpt lat="62.751511" lon="9.520580"><ele>961</ele></trkpt><trkpt lat="62.751958" lon="9.520497"><ele>964</ele></trkpt><trkpt lat="62.752404" lon="9.520414"><ele>968</ele></trkpt><trkpt lat="62.752851" lon="9.520331"><ele>973</ele></trkpt><trkpt lat="62.753298" lon="9.520248"><ele>976</ele></trkpt><trkpt lat="62.753745" lon="9.520165"><ele>980</ele></trkpt><trkpt lat="62.754191" lon="9.520082"><ele>987</ele></trkpt><trkpt lat="62.754638" lon="9.519999"><ele>990</ele></trkpt><trkpt lat="62.755085" lon="9.519916"><ele>994</ele></trkpt><trkpt lat="62.755532" lon="9.519832"><ele>1005</ele></trkpt><trkpt lat="62.755978" lon="9.519749"><ele>1018</ele></trkpt><trkpt lat="62.756417" lon="9.519471"><ele>1032</ele></trkpt><trkpt lat="62.756872" lon="9.519583"><ele>1051</ele></trkpt><trkpt lat="62.757341" lon="9.520085"><ele>1075</ele></trkpt><trkpt lat="62.757788" lon="9.520002"><ele>1091</ele></trkpt><trkpt lat="62.758220" lon="9.519529"><ele>1105</ele></trkpt><trkpt lat="62.758636" lon="9.518666"><ele>1121</ele></trkpt><trkpt lat="62.759075" lon="9.518388"><ele>1125</ele></trkpt><trkpt lat="62.759499" lon="9.517720"><ele>1133</ele></trkpt><trkpt lat="62.759923" lon="9.517052"><ele>1139</ele></trkpt><trkpt lat="62.760331" lon="9.515994"><ele>1140</ele></trkpt><trkpt lat="62.760740" lon="9.514936"><ele>1155</ele></trkpt><trkpt lat="62.760740" lon="9.514936"><ele>1155</ele></trkpt></trkseg></trk></gpx>