<?xml version="1.0" encoding="UTF-8"?>
<gpx version="1.1" creator="Rando toppturs" xmlns="http://www.topografix.com/GPX/1/1"><metadata><name>132 Falkhøa 984 m</name><desc>Generated 2026-09-13 17:42 from Kartverket 10 m terrain. Ascent lines are least-cost terrain paths under 35°, not verified routes. Not a snow-stability assessment.</desc></metadata><wpt lat="62.723195" lon="9.836409"><ele>719</ele><name>Car · Falkhøa 984 m</name></wpt><wpt lat="62.738290" lon="9.826116"><ele>984</ele><name>Falkhøa 984 m</name></wpt><trk><name>Up · Falkhøa 984 m</name><desc>least-cost ascent: +267 m over 1922 m, max 23°, 0.0% on 30–35°, ≈1.15 h at 4 km/h + 400 m/h. Terrain possibility, not a checked route.</desc><trkseg><trkpt lat="62.723195" lon="9.836409"><ele>719</ele></trkpt><trkpt lat="62.723642" lon="9.836330"><ele>723</ele></trkpt><trkpt lat="62.724089" lon="9.836252"><ele>727</ele></trkpt><trkpt lat="62.724535" lon="9.836174"><ele>731</ele></trkpt><trkpt lat="62.724982" lon="9.836096"><ele>736</ele></trkpt><trkpt lat="62.725429" lon="9.836018"><ele>740</ele></trkpt><trkpt lat="62.725876" lon="9.835939"><ele>744</ele></trkpt><trkpt lat="62.726323" lon="9.835861"><ele>748</ele></trkpt><trkpt lat="62.726770" lon="9.835783"><ele>752</ele></trkpt><trkpt lat="62.727217" lon="9.835705"><ele>756</ele></trkpt><trkpt lat="62.727664" lon="9.835626"><ele>759</ele></trkpt><trkpt lat="62.728111" lon="9.835548"><ele>764</ele></trkpt><trkpt lat="62.728558" lon="9.835470"><ele>769</ele></trkpt><trkpt lat="62.729005" lon="9.835392"><ele>773</ele></trkpt><trkpt lat="62.729452" lon="9.835313"><ele>775</ele></trkpt><trkpt lat="62.729899" lon="9.835235"><ele>782</ele></trkpt><trkpt lat="62.730346" lon="9.835157"><ele>792</ele></trkpt><trkpt lat="62.730786" lon="9.834884"><ele>800</ele></trkpt><trkpt lat="62.731197" lon="9.833831"><ele>813</ele></trkpt><trkpt lat="62.731608" lon="9.832779"><ele>824</ele></trkpt><trkpt lat="62.732019" lon="9.831726"><ele>838</ele></trkpt><trkpt lat="62.732430" lon="9.830674"><ele>849</ele></trkpt><trkpt lat="62.732841" lon="9.829621"><ele>859</ele></trkpt><trkpt lat="62.733252" lon="9.828569"><ele>873</ele></trkpt><trkpt lat="62.733699" lon="9.828490"><ele>882</ele></trkpt><trkpt lat="62.734146" lon="9.828412"><ele>890</ele></trkpt><trkpt lat="62.734593" lon="9.828334"><ele>897</ele></trkpt><trkpt lat="62.735040" lon="9.828255"><ele>899</ele></trkpt><trkpt lat="62.735487" lon="9.828177"><ele>906</ele></trkpt><trkpt lat="62.735934" lon="9.828098"><ele>916</ele></trkpt><trkpt lat="62.736381" lon="9.828020"><ele>924</ele></trkpt><trkpt lat="62.736828" lon="9.827942"><ele>936</ele></trkpt><trkpt lat="62.737274" lon="9.827863"><ele>944</ele></trkpt><trkpt lat="62.737721" lon="9.827785"><ele>957</ele></trkpt><trkpt lat="62.738147" lon="9.827122"><ele>970</ele></trkpt><trkpt lat="62.738290" lon="9.826116"><ele>984</ele></trkpt><trkpt lat="62.738290" lon="9.826116"><ele>984</ele></trkpt></trkseg></trk></gpx>