<?xml version="1.0" encoding="UTF-8"?>
<gpx version="1.1" creator="Rando toppturs" xmlns="http://www.topografix.com/GPX/1/1"><metadata><name>138 Brattskarven 1569 m</name><desc>Generated 2026-09-13 17:42 from Kartverket 10 m terrain. Ascent lines are least-cost terrain paths under 35°, not verified routes. Not a snow-stability assessment.</desc></metadata><wpt lat="62.541228" lon="9.352390"><ele>829</ele><name>Car · Brattskarven 1569 m</name></wpt><wpt lat="62.504612" lon="9.395159"><ele>1569</ele><name>Brattskarven 1569 m</name></wpt><trk><name>Up · Brattskarven 1569 m</name><desc>least-cost ascent: +764 m over 5100 m, max 20°, 0.0% on 30–35°, ≈3.18 h at 4 km/h + 400 m/h. Terrain possibility, not a checked route.</desc><trkseg><trkpt lat="62.541228" lon="9.352390"><ele>829</ele></trkpt><trkpt lat="62.540782" lon="9.352474"><ele>818</ele></trkpt><trkpt lat="62.540359" lon="9.353140"><ele>829</ele></trkpt><trkpt lat="62.539920" lon="9.353418"><ele>841</ele></trkpt><trkpt lat="62.539497" lon="9.354083"><ele>840</ele></trkpt><trkpt lat="62.539081" lon="9.354942"><ele>848</ele></trkpt><trkpt lat="62.538674" lon="9.355993"><ele>862</ele></trkpt><trkpt lat="62.538266" lon="9.357045"><ele>866</ele></trkpt><trkpt lat="62.537859" lon="9.358097"><ele>872</ele></trkpt><trkpt lat="62.537452" lon="9.359149"><ele>881</ele></trkpt><trkpt lat="62.537044" lon="9.360201"><ele>888</ele></trkpt><trkpt lat="62.536637" lon="9.361253"><ele>897</ele></trkpt><trkpt lat="62.536229" lon="9.362304"><ele>908</ele></trkpt><trkpt lat="62.535822" lon="9.363356"><ele>916</ele></trkpt><trkpt lat="62.535414" lon="9.364408"><ele>925</ele></trkpt><trkpt lat="62.535006" lon="9.365459"><ele>935</ele></trkpt><trkpt lat="62.534599" lon="9.366511"><ele>943</ele></trkpt><trkpt lat="62.534191" lon="9.367563"><ele>955</ele></trkpt><trkpt lat="62.533784" lon="9.368614"><ele>969</ele></trkpt><trkpt lat="62.533376" lon="9.369666"><ele>984</ele></trkpt><trkpt lat="62.532930" lon="9.369750"><ele>989</ele></trkpt><trkpt lat="62.532483" lon="9.369835"><ele>996</ele></trkpt><trkpt lat="62.532036" lon="9.369920"><ele>1003</ele></trkpt><trkpt lat="62.531590" lon="9.370004"><ele>1017</ele></trkpt><trkpt lat="62.531143" lon="9.370089"><ele>1032</ele></trkpt><trkpt lat="62.530697" lon="9.370173"><ele>1045</ele></trkpt><trkpt lat="62.530250" lon="9.370258"><ele>1054</ele></trkpt><trkpt lat="62.529803" lon="9.370342"><ele>1064</ele></trkpt><trkpt lat="62.529357" lon="9.370427"><ele>1073</ele></trkpt><trkpt lat="62.528910" lon="9.370512"><ele>1084</ele></trkpt><trkpt lat="62.528463" lon="9.370596"><ele>1091</ele></trkpt><trkpt lat="62.528017" lon="9.370681"><ele>1096</ele></trkpt><trkpt lat="62.527570" lon="9.370765"><ele>1106</ele></trkpt><trkpt lat="62.527124" lon="9.370850"><ele>1115</ele></trkpt><trkpt lat="62.526677" lon="9.370934"><ele>1127</ele></trkpt><trkpt lat="62.526230" lon="9.371019"><ele>1135</ele></trkpt><trkpt lat="62.525784" lon="9.371103"><ele>1140</ele></trkpt><trkpt lat="62.525337" lon="9.371188"><ele>1143</ele></trkpt><trkpt lat="62.524890" lon="9.371272"><ele>1148</ele></trkpt><trkpt lat="62.524467" lon="9.371937"><ele>1164</ele></trkpt><trkpt lat="62.524021" lon="9.372021"><ele>1173</ele></trkpt><trkpt lat="62.523574" lon="9.372106"><ele>1174</ele></trkpt><trkpt lat="62.523127" lon="9.372190"><ele>1175</ele></trkpt><trkpt lat="62.522681" lon="9.372275"><ele>1177</ele></trkpt><trkpt lat="62.522234" lon="9.372359"><ele>1179</ele></trkpt><trkpt lat="62.521787" lon="9.372444"><ele>1185</ele></trkpt><trkpt lat="62.521341" lon="9.372528"><ele>1192</ele></trkpt><trkpt lat="62.520910" lon="9.373000"><ele>1204</ele></trkpt><trkpt lat="62.520502" lon="9.374051"><ele>1220</ele></trkpt><trkpt lat="62.520071" lon="9.374522"><ele>1235</ele></trkpt><trkpt lat="62.519624" lon="9.374606"><ele>1248</ele></trkpt><trkpt lat="62.519193" lon="9.375077"><ele>1263</ele></trkpt><trkpt lat="62.518747" lon="9.375162"><ele>1273</ele></trkpt><trkpt lat="62.518300" lon="9.375246"><ele>1281</ele></trkpt><trkpt lat="62.517854" lon="9.375331"><ele>1289</ele></trkpt><trkpt lat="62.517407" lon="9.375415"><ele>1296</ele></trkpt><trkpt lat="62.516960" lon="9.375499"><ele>1300</ele></trkpt><trkpt lat="62.516514" lon="9.375584"><ele>1304</ele></trkpt><trkpt lat="62.516067" lon="9.375668"><ele>1310</ele></trkpt><trkpt lat="62.515652" lon="9.376526"><ele>1318</ele></trkpt><trkpt lat="62.515244" lon="9.377577"><ele>1323</ele></trkpt><trkpt lat="62.514836" lon="9.378627"><ele>1339</ele></trkpt><trkpt lat="62.514429" lon="9.379678"><ele>1353</ele></trkpt><trkpt lat="62.514021" lon="9.380729"><ele>1357</ele></trkpt><trkpt lat="62.513613" lon="9.381779"><ele>1356</ele></trkpt><trkpt lat="62.513206" lon="9.382830"><ele>1356</ele></trkpt><trkpt lat="62.512798" lon="9.383881"><ele>1359</ele></trkpt><trkpt lat="62.512390" lon="9.384931"><ele>1366</ele></trkpt><trkpt lat="62.511983" lon="9.385982"><ele>1379</ele></trkpt><trkpt lat="62.511575" lon="9.387032"><ele>1387</ele></trkpt><trkpt lat="62.511167" lon="9.388083"><ele>1399</ele></trkpt><trkpt lat="62.510760" lon="9.389133"><ele>1409</ele></trkpt><trkpt lat="62.510352" lon="9.390184"><ele>1419</ele></trkpt><trkpt lat="62.509944" lon="9.391234"><ele>1436</ele></trkpt><trkpt lat="62.509497" lon="9.391318"><ele>1452</ele></trkpt><trkpt lat="62.509051" lon="9.391403"><ele>1464</ele></trkpt><trkpt lat="62.508604" lon="9.391487"><ele>1475</ele></trkpt><trkpt lat="62.508158" lon="9.391571"><ele>1488</ele></trkpt><trkpt lat="62.507711" lon="9.391655"><ele>1501</ele></trkpt><trkpt lat="62.507264" lon="9.391739"><ele>1512</ele></trkpt><trkpt lat="62.506818" lon="9.391823"><ele>1524</ele></trkpt><trkpt lat="62.506371" lon="9.391908"><ele>1537</ele></trkpt><trkpt lat="62.505924" lon="9.391992"><ele>1547</ele></trkpt><trkpt lat="62.505509" lon="9.392849"><ele>1558</ele></trkpt><trkpt lat="62.505101" lon="9.393899"><ele>1567</ele></trkpt><trkpt lat="62.504693" lon="9.394949"><ele>1568</ele></trkpt><trkpt lat="62.504612" lon="9.395159"><ele>1569</ele></trkpt></trkseg></trk></gpx>