<?xml version="1.0" encoding="UTF-8"?>
<gpx version="1.1" creator="Rando toppturs" xmlns="http://www.topografix.com/GPX/1/1"><metadata><name>139 Slettfjellet 1602 m</name><desc>Generated 2026-09-13 17:42 from Kartverket 10 m terrain. Ascent lines are least-cost terrain paths under 35°, not verified routes. Not a snow-stability assessment.</desc></metadata><wpt lat="62.499600" lon="9.095332"><ele>745</ele><name>Car · Slettfjellet 1602 m</name></wpt><wpt lat="62.478188" lon="9.138294"><ele>1602</ele><name>Slettfjellet 1602 m</name></wpt><trk><name>Up · Slettfjellet 1602 m</name><desc>least-cost ascent: +864 m over 4023 m, max 30°, 0.3% on 30–35°, ≈3.17 h at 4 km/h + 400 m/h. Terrain possibility, not a checked route.</desc><trkseg><trkpt lat="62.499600" lon="9.095332"><ele>745</ele></trkpt><trkpt lat="62.499170" lon="9.095807"><ele>752</ele></trkpt><trkpt lat="62.498748" lon="9.096475"><ele>758</ele></trkpt><trkpt lat="62.498343" lon="9.097529"><ele>767</ele></trkpt><trkpt lat="62.497897" lon="9.097617"><ele>777</ele></trkpt><trkpt lat="62.497450" lon="9.097706"><ele>792</ele></trkpt><trkpt lat="62.497004" lon="9.097794"><ele>812</ele></trkpt><trkpt lat="62.496557" lon="9.097883"><ele>827</ele></trkpt><trkpt lat="62.496111" lon="9.097971"><ele>840</ele></trkpt><trkpt lat="62.495665" lon="9.098060"><ele>850</ele></trkpt><trkpt lat="62.495218" lon="9.098148"><ele>847</ele></trkpt><trkpt lat="62.494772" lon="9.098237"><ele>849</ele></trkpt><trkpt lat="62.494325" lon="9.098325"><ele>853</ele></trkpt><trkpt lat="62.493879" lon="9.098414"><ele>856</ele></trkpt><trkpt lat="62.493432" lon="9.098502"><ele>861</ele></trkpt><trkpt lat="62.492986" lon="9.098591"><ele>867</ele></trkpt><trkpt lat="62.492540" lon="9.098679"><ele>872</ele></trkpt><trkpt lat="62.492093" lon="9.098768"><ele>881</ele></trkpt><trkpt lat="62.491647" lon="9.098856"><ele>891</ele></trkpt><trkpt lat="62.491200" lon="9.098945"><ele>903</ele></trkpt><trkpt lat="62.490754" lon="9.099033"><ele>915</ele></trkpt><trkpt lat="62.490316" lon="9.099315"><ele>929</ele></trkpt><trkpt lat="62.489886" lon="9.099789"><ele>945</ele></trkpt><trkpt lat="62.489447" lon="9.100071"><ele>961</ele></trkpt><trkpt lat="62.489026" lon="9.100738"><ele>981</ele></trkpt><trkpt lat="62.488587" lon="9.101020"><ele>999</ele></trkpt><trkpt lat="62.488141" lon="9.101108"><ele>1013</ele></trkpt><trkpt lat="62.487727" lon="9.101969"><ele>1033</ele></trkpt><trkpt lat="62.487305" lon="9.102636"><ele>1053</ele></trkpt><trkpt lat="62.486900" lon="9.103689"><ele>1075</ele></trkpt><trkpt lat="62.486478" lon="9.104357"><ele>1096</ele></trkpt><trkpt lat="62.486048" lon="9.104831"><ele>1121</ele></trkpt><trkpt lat="62.485610" lon="9.105113"><ele>1143</ele></trkpt><trkpt lat="62.485171" lon="9.105394"><ele>1170</ele></trkpt><trkpt lat="62.484733" lon="9.105675"><ele>1197</ele></trkpt><trkpt lat="62.484319" lon="9.106536"><ele>1230</ele></trkpt><trkpt lat="62.483873" lon="9.106624"><ele>1258</ele></trkpt><trkpt lat="62.483435" lon="9.106905"><ele>1284</ele></trkpt><trkpt lat="62.483118" lon="9.107941"><ele>1305</ele></trkpt><trkpt lat="62.482891" lon="9.108959"><ele>1316</ele></trkpt><trkpt lat="62.482486" lon="9.110012"><ele>1334</ele></trkpt><trkpt lat="62.482348" lon="9.111012"><ele>1345</ele></trkpt><trkpt lat="62.482389" lon="9.111977"><ele>1350</ele></trkpt><trkpt lat="62.482430" lon="9.112942"><ele>1355</ele></trkpt><trkpt lat="62.482471" lon="9.113906"><ele>1362</ele></trkpt><trkpt lat="62.482511" lon="9.114871"><ele>1368</ele></trkpt><trkpt lat="62.482552" lon="9.115836"><ele>1375</ele></trkpt><trkpt lat="62.482593" lon="9.116801"><ele>1384</ele></trkpt><trkpt lat="62.482634" lon="9.117766"><ele>1393</ele></trkpt><trkpt lat="62.482675" lon="9.118731"><ele>1405</ele></trkpt><trkpt lat="62.482715" lon="9.119696"><ele>1413</ele></trkpt><trkpt lat="62.482756" lon="9.120661"><ele>1423</ele></trkpt><trkpt lat="62.482797" lon="9.121626"><ele>1434</ele></trkpt><trkpt lat="62.482838" lon="9.122590"><ele>1444</ele></trkpt><trkpt lat="62.482878" lon="9.123555"><ele>1450</ele></trkpt><trkpt lat="62.482919" lon="9.124520"><ele>1460</ele></trkpt><trkpt lat="62.482960" lon="9.125485"><ele>1470</ele></trkpt><trkpt lat="62.482733" lon="9.126503"><ele>1484</ele></trkpt><trkpt lat="62.482327" lon="9.127556"><ele>1499</ele></trkpt><trkpt lat="62.481921" lon="9.128609"><ele>1517</ele></trkpt><trkpt lat="62.481516" lon="9.129662"><ele>1536</ele></trkpt><trkpt lat="62.481110" lon="9.130714"><ele>1550</ele></trkpt><trkpt lat="62.480704" lon="9.131767"><ele>1560</ele></trkpt><trkpt lat="62.480298" lon="9.132820"><ele>1567</ele></trkpt><trkpt lat="62.479893" lon="9.133873"><ele>1569</ele></trkpt><trkpt lat="62.479487" lon="9.134925"><ele>1568</ele></trkpt><trkpt lat="62.479081" lon="9.135978"><ele>1581</ele></trkpt><trkpt lat="62.478675" lon="9.137031"><ele>1594</ele></trkpt><trkpt lat="62.478269" lon="9.138083"><ele>1602</ele></trkpt><trkpt lat="62.478188" lon="9.138294"><ele>1602</ele></trkpt></trkseg></trk></gpx>