<?xml version="1.0" encoding="UTF-8"?>
<gpx version="1.1" creator="Rando toppturs" xmlns="http://www.topografix.com/GPX/1/1"><metadata><name>140 Lågtangan 1512 m</name><desc>Generated 2026-09-13 17:42 from Kartverket 10 m terrain. Ascent lines are least-cost terrain paths under 35°, not verified routes. Not a snow-stability assessment.</desc></metadata><wpt lat="62.498907" lon="9.087487"><ele>751</ele><name>Car · Lågtangan 1512 m</name></wpt><wpt lat="62.462824" lon="9.054196"><ele>1512</ele><name>Lågtangan 1512 m</name></wpt><trk><name>Up · Lågtangan 1512 m</name><desc>least-cost ascent: +896 m over 4990 m, max 34°, 1.7% on 30–35°, ≈3.49 h at 4 km/h + 400 m/h. Terrain possibility, not a checked route.</desc><trkseg><trkpt lat="62.498907" lon="9.087487"><ele>751</ele></trkpt><trkpt lat="62.498428" lon="9.086804"><ele>752</ele></trkpt><trkpt lat="62.497965" lon="9.086506"><ele>762</ele></trkpt><trkpt lat="62.497519" lon="9.086595"><ele>763</ele></trkpt><trkpt lat="62.497072" lon="9.086684"><ele>763</ele></trkpt><trkpt lat="62.496593" lon="9.086000"><ele>763</ele></trkpt><trkpt lat="62.496147" lon="9.086089"><ele>775</ele></trkpt><trkpt lat="62.495659" lon="9.085212"><ele>774</ele></trkpt><trkpt lat="62.495172" lon="9.084336"><ele>773</ele></trkpt><trkpt lat="62.494684" lon="9.083459"><ele>773</ele></trkpt><trkpt lat="62.494197" lon="9.082583"><ele>772</ele></trkpt><trkpt lat="62.493710" lon="9.081706"><ele>771</ele></trkpt><trkpt lat="62.493222" lon="9.080830"><ele>771</ele></trkpt><trkpt lat="62.492735" lon="9.079953"><ele>777</ele></trkpt><trkpt lat="62.492247" lon="9.079077"><ele>773</ele></trkpt><trkpt lat="62.491760" lon="9.078201"><ele>771</ele></trkpt><trkpt lat="62.491289" lon="9.077710"><ele>756</ele></trkpt><trkpt lat="62.490826" lon="9.077413"><ele>738</ele></trkpt><trkpt lat="62.490606" lon="9.076484"><ele>722</ele></trkpt><trkpt lat="62.490565" lon="9.075519"><ele>708</ele></trkpt><trkpt lat="62.490345" lon="9.074589"><ele>694</ele></trkpt><trkpt lat="62.489858" lon="9.073713"><ele>690</ele></trkpt><trkpt lat="62.489371" lon="9.072837"><ele>690</ele></trkpt><trkpt lat="62.488883" lon="9.071961"><ele>684</ele></trkpt><trkpt lat="62.488395" lon="9.071084"><ele>683</ele></trkpt><trkpt lat="62.487924" lon="9.070594"><ele>689</ele></trkpt><trkpt lat="62.487478" lon="9.070683"><ele>698</ele></trkpt><trkpt lat="62.486991" lon="9.069807"><ele>693</ele></trkpt><trkpt lat="62.486511" lon="9.069124"><ele>692</ele></trkpt><trkpt lat="62.486024" lon="9.068248"><ele>692</ele></trkpt><trkpt lat="62.485544" lon="9.067565"><ele>693</ele></trkpt><trkpt lat="62.485065" lon="9.066882"><ele>693</ele></trkpt><trkpt lat="62.484602" lon="9.066585"><ele>696</ele></trkpt><trkpt lat="62.484131" lon="9.066095"><ele>698</ele></trkpt><trkpt lat="62.483685" lon="9.066184"><ele>708</ele></trkpt><trkpt lat="62.483238" lon="9.066273"><ele>714</ele></trkpt><trkpt lat="62.482792" lon="9.066362"><ele>729</ele></trkpt><trkpt lat="62.482321" lon="9.065872"><ele>750</ele></trkpt><trkpt lat="62.481858" lon="9.065575"><ele>769</ele></trkpt><trkpt lat="62.481403" lon="9.065471"><ele>792</ele></trkpt><trkpt lat="62.480957" lon="9.065560"><ele>795</ele></trkpt><trkpt lat="62.480511" lon="9.065649"><ele>802</ele></trkpt><trkpt lat="62.480064" lon="9.065738"><ele>816</ele></trkpt><trkpt lat="62.479618" lon="9.065827"><ele>833</ele></trkpt><trkpt lat="62.479155" lon="9.065530"><ele>850</ele></trkpt><trkpt lat="62.478709" lon="9.065619"><ele>851</ele></trkpt><trkpt lat="62.478262" lon="9.065708"><ele>864</ele></trkpt><trkpt lat="62.477816" lon="9.065797"><ele>880</ele></trkpt><trkpt lat="62.477369" lon="9.065886"><ele>896</ele></trkpt><trkpt lat="62.476907" lon="9.065589"><ele>917</ele></trkpt><trkpt lat="62.476460" lon="9.065678"><ele>931</ele></trkpt><trkpt lat="62.476014" lon="9.065766"><ele>945</ele></trkpt><trkpt lat="62.475559" lon="9.065662"><ele>960</ele></trkpt><trkpt lat="62.475072" lon="9.064787"><ele>982</ele></trkpt><trkpt lat="62.474617" lon="9.064683"><ele>1004</ele></trkpt><trkpt lat="62.474171" lon="9.064772"><ele>1018</ele></trkpt><trkpt lat="62.473700" lon="9.064282"><ele>1045</ele></trkpt><trkpt lat="62.473253" lon="9.064371"><ele>1065</ele></trkpt><trkpt lat="62.472782" lon="9.063881"><ele>1091</ele></trkpt><trkpt lat="62.472303" lon="9.063199"><ele>1126</ele></trkpt><trkpt lat="62.472172" lon="9.062252"><ele>1140</ele></trkpt><trkpt lat="62.471685" lon="9.061376"><ele>1168</ele></trkpt><trkpt lat="62.471214" lon="9.060887"><ele>1190</ele></trkpt><trkpt lat="62.470767" lon="9.060976"><ele>1210</ele></trkpt><trkpt lat="62.470346" lon="9.061643"><ele>1229</ele></trkpt><trkpt lat="62.469899" lon="9.061732"><ele>1255</ele></trkpt><trkpt lat="62.469436" lon="9.061435"><ele>1285</ele></trkpt><trkpt lat="62.468957" lon="9.060753"><ele>1313</ele></trkpt><trkpt lat="62.468486" lon="9.060263"><ele>1349</ele></trkpt><trkpt lat="62.468007" lon="9.059581"><ele>1366</ele></trkpt><trkpt lat="62.467519" lon="9.058705"><ele>1379</ele></trkpt><trkpt lat="62.467031" lon="9.057830"><ele>1387</ele></trkpt><trkpt lat="62.466544" lon="9.056955"><ele>1406</ele></trkpt><trkpt lat="62.466089" lon="9.056851"><ele>1423</ele></trkpt><trkpt lat="62.465635" lon="9.056747"><ele>1442</ele></trkpt><trkpt lat="62.465180" lon="9.056643"><ele>1458</ele></trkpt><trkpt lat="62.464709" lon="9.056154"><ele>1477</ele></trkpt><trkpt lat="62.464262" lon="9.056243"><ele>1484</ele></trkpt><trkpt lat="62.463800" lon="9.055946"><ele>1497</ele></trkpt><trkpt lat="62.463312" lon="9.055071"><ele>1504</ele></trkpt><trkpt lat="62.462824" lon="9.054196"><ele>1512</ele></trkpt><trkpt lat="62.462824" lon="9.054196"><ele>1512</ele></trkpt></trkseg></trk></gpx>