<?xml version="1.0" encoding="UTF-8"?>
<gpx version="1.1" creator="Rando toppturs" xmlns="http://www.topografix.com/GPX/1/1"><metadata><name>143 Unnamed 1647 m</name><desc>Generated 2026-09-13 17:42 from Kartverket 10 m terrain. Ascent lines are least-cost terrain paths under 35°, not verified routes. Not a snow-stability assessment.</desc></metadata><wpt lat="62.499600" lon="9.095332"><ele>745</ele><name>Car · Unnamed summit 1647 m</name></wpt><wpt lat="62.408119" lon="9.150491"><ele>1647</ele><name>Unnamed summit 1647 m</name></wpt><trk><name>Up · Unnamed summit 1647 m</name><desc>least-cost ascent: +1382 m over 12527 m, max 34°, 0.7% on 30–35°, ≈6.59 h at 4 km/h + 400 m/h. Terrain possibility, not a checked route.</desc><trkseg><trkpt lat="62.499600" lon="9.095332"><ele>745</ele></trkpt><trkpt lat="62.499170" lon="9.095807"><ele>752</ele></trkpt><trkpt lat="62.498748" lon="9.096475"><ele>758</ele></trkpt><trkpt lat="62.498310" lon="9.096757"><ele>773</ele></trkpt><trkpt lat="62.497864" lon="9.096845"><ele>783</ele></trkpt><trkpt lat="62.497417" lon="9.096934"><ele>790</ele></trkpt><trkpt lat="62.496963" lon="9.096829"><ele>803</ele></trkpt><trkpt lat="62.496500" lon="9.096532"><ele>815</ele></trkpt><trkpt lat="62.496045" lon="9.096427"><ele>826</ele></trkpt><trkpt lat="62.495599" lon="9.096516"><ele>839</ele></trkpt><trkpt lat="62.495153" lon="9.096604"><ele>840</ele></trkpt><trkpt lat="62.494706" lon="9.096693"><ele>843</ele></trkpt><trkpt lat="62.494260" lon="9.096781"><ele>848</ele></trkpt><trkpt lat="62.493813" lon="9.096870"><ele>853</ele></trkpt><trkpt lat="62.493367" lon="9.096958"><ele>859</ele></trkpt><trkpt lat="62.492921" lon="9.097047"><ele>863</ele></trkpt><trkpt lat="62.492474" lon="9.097135"><ele>869</ele></trkpt><trkpt lat="62.492028" lon="9.097224"><ele>879</ele></trkpt><trkpt lat="62.491581" lon="9.097312"><ele>889</ele></trkpt><trkpt lat="62.491135" lon="9.097401"><ele>894</ele></trkpt><trkpt lat="62.490697" lon="9.097682"><ele>912</ele></trkpt><trkpt lat="62.490250" lon="9.097771"><ele>927</ele></trkpt><trkpt lat="62.489804" lon="9.097859"><ele>941</ele></trkpt><trkpt lat="62.489357" lon="9.097948"><ele>955</ele></trkpt><trkpt lat="62.488919" lon="9.098229"><ele>972</ele></trkpt><trkpt lat="62.488473" lon="9.098318"><ele>984</ele></trkpt><trkpt lat="62.488026" lon="9.098406"><ele>996</ele></trkpt><trkpt lat="62.487580" lon="9.098495"><ele>1017</ele></trkpt><trkpt lat="62.487133" lon="9.098583"><ele>1033</ele></trkpt><trkpt lat="62.486687" lon="9.098672"><ele>1051</ele></trkpt><trkpt lat="62.486216" lon="9.098181"><ele>1072</ele></trkpt><trkpt lat="62.485761" lon="9.098076"><ele>1089</ele></trkpt><trkpt lat="62.485299" lon="9.097779"><ele>1110</ele></trkpt><trkpt lat="62.484852" lon="9.097867"><ele>1128</ele></trkpt><trkpt lat="62.484406" lon="9.097956"><ele>1148</ele></trkpt><trkpt lat="62.483992" lon="9.098816"><ele>1182</ele></trkpt><trkpt lat="62.483578" lon="9.099677"><ele>1206</ele></trkpt><trkpt lat="62.483173" lon="9.100730"><ele>1235</ele></trkpt><trkpt lat="62.482759" lon="9.101590"><ele>1269</ele></trkpt><trkpt lat="62.482354" lon="9.102643"><ele>1291</ele></trkpt><trkpt lat="62.481948" lon="9.103697"><ele>1317</ele></trkpt><trkpt lat="62.481502" lon="9.103785"><ele>1330</ele></trkpt><trkpt lat="62.481055" lon="9.103873"><ele>1340</ele></trkpt><trkpt lat="62.480642" lon="9.104734"><ele>1351</ele></trkpt><trkpt lat="62.480236" lon="9.105787"><ele>1360</ele></trkpt><trkpt lat="62.479831" lon="9.106840"><ele>1367</ele></trkpt><trkpt lat="62.479425" lon="9.107893"><ele>1375</ele></trkpt><trkpt lat="62.479019" lon="9.108946"><ele>1385</ele></trkpt><trkpt lat="62.478614" lon="9.109999"><ele>1396</ele></trkpt><trkpt lat="62.478208" lon="9.111052"><ele>1404</ele></trkpt><trkpt lat="62.477803" lon="9.112105"><ele>1422</ele></trkpt><trkpt lat="62.477397" lon="9.113158"><ele>1437</ele></trkpt><trkpt lat="62.476991" lon="9.114211"><ele>1449</ele></trkpt><trkpt lat="62.476586" lon="9.115264"><ele>1458</ele></trkpt><trkpt lat="62.476180" lon="9.116317"><ele>1464</ele></trkpt><trkpt lat="62.475775" lon="9.117369"><ele>1472</ele></trkpt><trkpt lat="62.475369" lon="9.118422"><ele>1473</ele></trkpt><trkpt lat="62.474963" lon="9.119475"><ele>1475</ele></trkpt><trkpt lat="62.474558" lon="9.120528"><ele>1477</ele></trkpt><trkpt lat="62.474152" lon="9.121580"><ele>1480</ele></trkpt><trkpt lat="62.473746" lon="9.122633"><ele>1480</ele></trkpt><trkpt lat="62.473341" lon="9.123686"><ele>1481</ele></trkpt><trkpt lat="62.472935" lon="9.124738"><ele>1477</ele></trkpt><trkpt lat="62.472529" lon="9.125791"><ele>1476</ele></trkpt><trkpt lat="62.472123" lon="9.126843"><ele>1468</ele></trkpt><trkpt lat="62.471718" lon="9.127896"><ele>1467</ele></trkpt><trkpt lat="62.471304" lon="9.128756"><ele>1464</ele></trkpt><trkpt lat="62.470898" lon="9.129808"><ele>1462</ele></trkpt><trkpt lat="62.470492" lon="9.130860"><ele>1458</ele></trkpt><trkpt lat="62.470087" lon="9.131913"><ele>1453</ele></trkpt><trkpt lat="62.469681" lon="9.132965"><ele>1451</ele></trkpt><trkpt lat="62.469275" lon="9.134018"><ele>1448</ele></trkpt><trkpt lat="62.468869" lon="9.135070"><ele>1447</ele></trkpt><trkpt lat="62.468464" lon="9.136122"><ele>1450</ele></trkpt><trkpt lat="62.468058" lon="9.137175"><ele>1445</ele></trkpt><trkpt lat="62.467652" lon="9.138227"><ele>1434</ele></trkpt><trkpt lat="62.467214" lon="9.138507"><ele>1421</ele></trkpt><trkpt lat="62.466767" lon="9.138595"><ele>1410</ele></trkpt><trkpt lat="62.466329" lon="9.138876"><ele>1397</ele></trkpt><trkpt lat="62.465923" lon="9.139928"><ele>1396</ele></trkpt><trkpt lat="62.465517" lon="9.140980"><ele>1399</ele></trkpt><trkpt lat="62.465087" lon="9.141454"><ele>1395</ele></trkpt><trkpt lat="62.464641" lon="9.141541"><ele>1395</ele></trkpt><trkpt lat="62.464194" lon="9.141629"><ele>1395</ele></trkpt><trkpt lat="62.463748" lon="9.141717"><ele>1393</ele></trkpt><trkpt lat="62.463301" lon="9.141805"><ele>1385</ele></trkpt><trkpt lat="62.462863" lon="9.142085"><ele>1380</ele></trkpt><trkpt lat="62.462416" lon="9.142173"><ele>1385</ele></trkpt><trkpt lat="62.461970" lon="9.142261"><ele>1379</ele></trkpt><trkpt lat="62.461523" lon="9.142348"><ele>1370</ele></trkpt><trkpt lat="62.461077" lon="9.142436"><ele>1358</ele></trkpt><trkpt lat="62.460631" lon="9.142524"><ele>1350</ele></trkpt><trkpt lat="62.460184" lon="9.142612"><ele>1341</ele></trkpt><trkpt lat="62.459738" lon="9.142699"><ele>1339</ele></trkpt><trkpt lat="62.459291" lon="9.142787"><ele>1334</ele></trkpt><trkpt lat="62.458845" lon="9.142875"><ele>1328</ele></trkpt><trkpt lat="62.458398" lon="9.142962"><ele>1330</ele></trkpt><trkpt lat="62.457952" lon="9.143050"><ele>1328</ele></trkpt><trkpt lat="62.457505" lon="9.143138"><ele>1327</ele></trkpt><trkpt lat="62.457059" lon="9.143225"><ele>1326</ele></trkpt><trkpt lat="62.456612" lon="9.143313"><ele>1324</ele></trkpt><trkpt lat="62.456166" lon="9.143401"><ele>1323</ele></trkpt><trkpt lat="62.455720" lon="9.143489"><ele>1333</ele></trkpt><trkpt lat="62.455273" lon="9.143576"><ele>1338</ele></trkpt><trkpt lat="62.454827" lon="9.143664"><ele>1338</ele></trkpt><trkpt lat="62.454380" lon="9.143752"><ele>1344</ele></trkpt><trkpt lat="62.453934" lon="9.143839"><ele>1348</ele></trkpt><trkpt lat="62.453512" lon="9.144505"><ele>1365</ele></trkpt><trkpt lat="62.453090" lon="9.145171"><ele>1387</ele></trkpt><trkpt lat="62.452659" lon="9.145645"><ele>1405</ele></trkpt><trkpt lat="62.452213" lon="9.145732"><ele>1415</ele></trkpt><trkpt lat="62.451783" lon="9.146205"><ele>1427</ele></trkpt><trkpt lat="62.451344" lon="9.146486"><ele>1443</ele></trkpt><trkpt lat="62.450898" lon="9.146573"><ele>1453</ele></trkpt><trkpt lat="62.450451" lon="9.146661"><ele>1456</ele></trkpt><trkpt lat="62.450005" lon="9.146749"><ele>1458</ele></trkpt><trkpt lat="62.449558" lon="9.146836"><ele>1458</ele></trkpt><trkpt lat="62.449112" lon="9.146924"><ele>1451</ele></trkpt><trkpt lat="62.448666" lon="9.147011"><ele>1442</ele></trkpt><trkpt lat="62.448219" lon="9.147099"><ele>1429</ele></trkpt><trkpt lat="62.447773" lon="9.147187"><ele>1420</ele></trkpt><trkpt lat="62.447326" lon="9.147274"><ele>1410</ele></trkpt><trkpt lat="62.446880" lon="9.147362"><ele>1399</ele></trkpt><trkpt lat="62.446433" lon="9.147449"><ele>1384</ele></trkpt><trkpt lat="62.445987" lon="9.147537"><ele>1373</ele></trkpt><trkpt lat="62.445540" lon="9.147625"><ele>1364</ele></trkpt><trkpt lat="62.445094" lon="9.147712"><ele>1355</ele></trkpt><trkpt lat="62.444647" lon="9.147800"><ele>1344</ele></trkpt><trkpt lat="62.444201" lon="9.147887"><ele>1335</ele></trkpt><trkpt lat="62.443754" lon="9.147975"><ele>1330</ele></trkpt><trkpt lat="62.443308" lon="9.148062"><ele>1330</ele></trkpt><trkpt lat="62.442862" lon="9.148150"><ele>1330</ele></trkpt><trkpt lat="62.442415" lon="9.148238"><ele>1330</ele></trkpt><trkpt lat="62.441969" lon="9.148325"><ele>1330</ele></trkpt><trkpt lat="62.441522" lon="9.148413"><ele>1330</ele></trkpt><trkpt lat="62.441076" lon="9.148500"><ele>1330</ele></trkpt><trkpt lat="62.440629" lon="9.148588"><ele>1331</ele></trkpt><trkpt lat="62.440183" lon="9.148675"><ele>1331</ele></trkpt><trkpt lat="62.439736" lon="9.148763"><ele>1331</ele></trkpt><trkpt lat="62.439290" lon="9.148850"><ele>1331</ele></trkpt><trkpt lat="62.438843" lon="9.148938"><ele>1330</ele></trkpt><trkpt lat="62.438397" lon="9.149025"><ele>1330</ele></trkpt><trkpt lat="62.437950" lon="9.149113"><ele>1330</ele></trkpt><trkpt lat="62.437504" lon="9.149200"><ele>1330</ele></trkpt><trkpt lat="62.437058" lon="9.149288"><ele>1330</ele></trkpt><trkpt lat="62.436611" lon="9.149376"><ele>1330</ele></trkpt><trkpt lat="62.436165" lon="9.149463"><ele>1330</ele></trkpt><trkpt lat="62.435718" lon="9.149551"><ele>1330</ele></trkpt><trkpt lat="62.435288" lon="9.150023"><ele>1330</ele></trkpt><trkpt lat="62.434882" lon="9.151074"><ele>1330</ele></trkpt><trkpt lat="62.434476" lon="9.152125"><ele>1330</ele></trkpt><trkpt lat="62.434070" lon="9.153176"><ele>1330</ele></trkpt><trkpt lat="62.433664" lon="9.154227"><ele>1330</ele></trkpt><trkpt lat="62.433258" lon="9.155278"><ele>1330</ele></trkpt><trkpt lat="62.432852" lon="9.156328"><ele>1330</ele></trkpt><trkpt lat="62.432446" lon="9.157379"><ele>1333</ele></trkpt><trkpt lat="62.432040" lon="9.158430"><ele>1341</ele></trkpt><trkpt lat="62.431634" lon="9.159481"><ele>1345</ele></trkpt><trkpt lat="62.431228" lon="9.160531"><ele>1349</ele></trkpt><trkpt lat="62.430806" lon="9.161196"><ele>1360</ele></trkpt><trkpt lat="62.430392" lon="9.162054"><ele>1383</ele></trkpt><trkpt lat="62.430254" lon="9.163053"><ele>1399</ele></trkpt><trkpt lat="62.430027" lon="9.164068"><ele>1408</ele></trkpt><trkpt lat="62.429621" lon="9.165119"><ele>1437</ele></trkpt><trkpt lat="62.429296" lon="9.165959"><ele>1462</ele></trkpt><trkpt lat="62.428841" lon="9.165854"><ele>1493</ele></trkpt><trkpt lat="62.428403" lon="9.166134"><ele>1515</ele></trkpt><trkpt lat="62.427956" lon="9.166221"><ele>1527</ele></trkpt><trkpt lat="62.427510" lon="9.166308"><ele>1539</ele></trkpt><trkpt lat="62.427063" lon="9.166395"><ele>1547</ele></trkpt><trkpt lat="62.426617" lon="9.166483"><ele>1552</ele></trkpt><trkpt lat="62.426170" lon="9.166570"><ele>1555</ele></trkpt><trkpt lat="62.425724" lon="9.166657"><ele>1557</ele></trkpt><trkpt lat="62.425277" lon="9.166744"><ele>1559</ele></trkpt><trkpt lat="62.424831" lon="9.166831"><ele>1561</ele></trkpt><trkpt lat="62.424384" lon="9.166919"><ele>1563</ele></trkpt><trkpt lat="62.423938" lon="9.167006"><ele>1554</ele></trkpt><trkpt lat="62.423492" lon="9.167093"><ele>1547</ele></trkpt><trkpt lat="62.423045" lon="9.167180"><ele>1541</ele></trkpt><trkpt lat="62.422599" lon="9.167268"><ele>1533</ele></trkpt><trkpt lat="62.422152" lon="9.167355"><ele>1522</ele></trkpt><trkpt lat="62.421706" lon="9.167442"><ele>1515</ele></trkpt><trkpt lat="62.421243" lon="9.167144"><ele>1513</ele></trkpt><trkpt lat="62.420756" lon="9.166268"><ele>1524</ele></trkpt><trkpt lat="62.420293" lon="9.165970"><ele>1536</ele></trkpt><trkpt lat="62.419847" lon="9.166057"><ele>1533</ele></trkpt><trkpt lat="62.419400" lon="9.166145"><ele>1522</ele></trkpt><trkpt lat="62.418938" lon="9.165847"><ele>1514</ele></trkpt><trkpt lat="62.418475" lon="9.165549"><ele>1508</ele></trkpt><trkpt lat="62.418012" lon="9.165251"><ele>1492</ele></trkpt><trkpt lat="62.417566" lon="9.165338"><ele>1480</ele></trkpt><trkpt lat="62.417120" lon="9.165425"><ele>1470</ele></trkpt><trkpt lat="62.416673" lon="9.165512"><ele>1460</ele></trkpt><trkpt lat="62.416227" lon="9.165600"><ele>1453</ele></trkpt><trkpt lat="62.415780" lon="9.165687"><ele>1448</ele></trkpt><trkpt lat="62.415317" lon="9.165389"><ele>1449</ele></trkpt><trkpt lat="62.414831" lon="9.164513"><ele>1448</ele></trkpt><trkpt lat="62.414344" lon="9.163638"><ele>1450</ele></trkpt><trkpt lat="62.413857" lon="9.162762"><ele>1459</ele></trkpt><trkpt lat="62.413370" lon="9.161887"><ele>1469</ele></trkpt><trkpt lat="62.412883" lon="9.161011"><ele>1483</ele></trkpt><trkpt lat="62.412412" lon="9.160521"><ele>1501</ele></trkpt><trkpt lat="62.411958" lon="9.160416"><ele>1520</ele></trkpt><trkpt lat="62.411487" lon="9.159925"><ele>1553</ele></trkpt><trkpt lat="62.411268" lon="9.158997"><ele>1568</ele></trkpt><trkpt lat="62.410959" lon="9.158087"><ele>1578</ele></trkpt><trkpt lat="62.410472" lon="9.157212"><ele>1593</ele></trkpt><trkpt lat="62.410075" lon="9.156319"><ele>1608</ele></trkpt><trkpt lat="62.409945" lon="9.155374"><ele>1618</ele></trkpt><trkpt lat="62.409904" lon="9.154411"><ele>1620</ele></trkpt><trkpt lat="62.409775" lon="9.153466"><ele>1621</ele></trkpt><trkpt lat="62.409288" lon="9.152591"><ele>1629</ele></trkpt><trkpt lat="62.408801" lon="9.151716"><ele>1638</ele></trkpt><trkpt lat="62.408314" lon="9.150841"><ele>1643</ele></trkpt><trkpt lat="62.408119" lon="9.150491"><ele>1647</ele></trkpt></trkseg></trk></gpx>