<?xml version="1.0" encoding="UTF-8"?>
<gpx version="1.1" creator="Rando toppturs" xmlns="http://www.topografix.com/GPX/1/1"><metadata><name>146 Tjønnglupegga 1578 m</name><desc>Generated 2026-09-13 17:42 from Kartverket 10 m terrain. Ascent lines are least-cost terrain paths under 35°, not verified routes. Not a snow-stability assessment.</desc></metadata><wpt lat="62.451926" lon="9.530006"><ele>1267</ele><name>Car · Tjønnglupegga 1578 m</name></wpt><wpt lat="62.411574" lon="9.358080"><ele>1578</ele><name>Tjønnglupegga 1578 m</name></wpt><trk><name>Up · Tjønnglupegga 1578 m</name><desc>least-cost ascent: +653 m over 10852 m, max 20°, 0.0% on 30–35°, ≈4.34 h at 4 km/h + 400 m/h. Terrain possibility, not a checked route.</desc><trkseg><trkpt lat="62.451926" lon="9.530006"><ele>1267</ele></trkpt><trkpt lat="62.451709" lon="9.529074"><ele>1272</ele></trkpt><trkpt lat="62.451582" lon="9.528126"><ele>1277</ele></trkpt><trkpt lat="62.451097" lon="9.527243"><ele>1282</ele></trkpt><trkpt lat="62.450613" lon="9.526361"><ele>1285</ele></trkpt><trkpt lat="62.450128" lon="9.525478"><ele>1288</ele></trkpt><trkpt lat="62.449643" lon="9.524596"><ele>1292</ele></trkpt><trkpt lat="62.449159" lon="9.523713"><ele>1297</ele></trkpt><trkpt lat="62.448674" lon="9.522831"><ele>1302</ele></trkpt><trkpt lat="62.448189" lon="9.521948"><ele>1309</ele></trkpt><trkpt lat="62.447704" lon="9.521066"><ele>1319</ele></trkpt><trkpt lat="62.447220" lon="9.520183"><ele>1323</ele></trkpt><trkpt lat="62.446735" lon="9.519301"><ele>1329</ele></trkpt><trkpt lat="62.446250" lon="9.518419"><ele>1333</ele></trkpt><trkpt lat="62.445765" lon="9.517536"><ele>1343</ele></trkpt><trkpt lat="62.445281" lon="9.516654"><ele>1351</ele></trkpt><trkpt lat="62.444796" lon="9.515772"><ele>1359</ele></trkpt><trkpt lat="62.444311" lon="9.514890"><ele>1367</ele></trkpt><trkpt lat="62.443826" lon="9.514007"><ele>1378</ele></trkpt><trkpt lat="62.443520" lon="9.513092"><ele>1384</ele></trkpt><trkpt lat="62.443482" lon="9.512128"><ele>1388</ele></trkpt><trkpt lat="62.443444" lon="9.511164"><ele>1390</ele></trkpt><trkpt lat="62.443406" lon="9.510200"><ele>1394</ele></trkpt><trkpt lat="62.443368" lon="9.509235"><ele>1398</ele></trkpt><trkpt lat="62.443330" lon="9.508271"><ele>1403</ele></trkpt><trkpt lat="62.443292" lon="9.507307"><ele>1399</ele></trkpt><trkpt lat="62.443254" lon="9.506343"><ele>1398</ele></trkpt><trkpt lat="62.443216" lon="9.505378"><ele>1396</ele></trkpt><trkpt lat="62.443178" lon="9.504414"><ele>1399</ele></trkpt><trkpt lat="62.443139" lon="9.503450"><ele>1402</ele></trkpt><trkpt lat="62.443101" lon="9.502485"><ele>1402</ele></trkpt><trkpt lat="62.443063" lon="9.501521"><ele>1403</ele></trkpt><trkpt lat="62.443025" lon="9.500557"><ele>1402</ele></trkpt><trkpt lat="62.442987" lon="9.499593"><ele>1403</ele></trkpt><trkpt lat="62.442949" lon="9.498628"><ele>1401</ele></trkpt><trkpt lat="62.442911" lon="9.497664"><ele>1402</ele></trkpt><trkpt lat="62.442872" lon="9.496700"><ele>1404</ele></trkpt><trkpt lat="62.442834" lon="9.495736"><ele>1403</ele></trkpt><trkpt lat="62.442796" lon="9.494772"><ele>1402</ele></trkpt><trkpt lat="62.442758" lon="9.493807"><ele>1403</ele></trkpt><trkpt lat="62.442720" lon="9.492843"><ele>1404</ele></trkpt><trkpt lat="62.442682" lon="9.491879"><ele>1406</ele></trkpt><trkpt lat="62.442643" lon="9.490915"><ele>1404</ele></trkpt><trkpt lat="62.442605" lon="9.489950"><ele>1400</ele></trkpt><trkpt lat="62.442567" lon="9.488986"><ele>1394</ele></trkpt><trkpt lat="62.442439" lon="9.488038"><ele>1388</ele></trkpt><trkpt lat="62.442401" lon="9.487074"><ele>1383</ele></trkpt><trkpt lat="62.442363" lon="9.486110"><ele>1375</ele></trkpt><trkpt lat="62.442325" lon="9.485146"><ele>1370</ele></trkpt><trkpt lat="62.442286" lon="9.484182"><ele>1365</ele></trkpt><trkpt lat="62.442248" lon="9.483217"><ele>1356</ele></trkpt><trkpt lat="62.442210" lon="9.482253"><ele>1349</ele></trkpt><trkpt lat="62.442172" lon="9.481289"><ele>1342</ele></trkpt><trkpt lat="62.442133" lon="9.480325"><ele>1336</ele></trkpt><trkpt lat="62.442095" lon="9.479361"><ele>1330</ele></trkpt><trkpt lat="62.442057" lon="9.478397"><ele>1328</ele></trkpt><trkpt lat="62.441840" lon="9.477465"><ele>1316</ele></trkpt><trkpt lat="62.441802" lon="9.476501"><ele>1310</ele></trkpt><trkpt lat="62.441763" lon="9.475537"><ele>1307</ele></trkpt><trkpt lat="62.441725" lon="9.474573"><ele>1308</ele></trkpt><trkpt lat="62.441687" lon="9.473609"><ele>1307</ele></trkpt><trkpt lat="62.441648" lon="9.472645"><ele>1301</ele></trkpt><trkpt lat="62.441610" lon="9.471680"><ele>1303</ele></trkpt><trkpt lat="62.441572" lon="9.470716"><ele>1307</ele></trkpt><trkpt lat="62.441533" lon="9.469752"><ele>1307</ele></trkpt><trkpt lat="62.441495" lon="9.468788"><ele>1308</ele></trkpt><trkpt lat="62.441457" lon="9.467824"><ele>1307</ele></trkpt><trkpt lat="62.441418" lon="9.466860"><ele>1308</ele></trkpt><trkpt lat="62.441380" lon="9.465896"><ele>1310</ele></trkpt><trkpt lat="62.441342" lon="9.464931"><ele>1312</ele></trkpt><trkpt lat="62.441303" lon="9.463967"><ele>1314</ele></trkpt><trkpt lat="62.441265" lon="9.463003"><ele>1314</ele></trkpt><trkpt lat="62.441226" lon="9.462039"><ele>1314</ele></trkpt><trkpt lat="62.441188" lon="9.461075"><ele>1315</ele></trkpt><trkpt lat="62.441150" lon="9.460111"><ele>1313</ele></trkpt><trkpt lat="62.441111" lon="9.459147"><ele>1308</ele></trkpt><trkpt lat="62.441073" lon="9.458183"><ele>1305</ele></trkpt><trkpt lat="62.441034" lon="9.457218"><ele>1308</ele></trkpt><trkpt lat="62.440996" lon="9.456254"><ele>1317</ele></trkpt><trkpt lat="62.440957" lon="9.455290"><ele>1322</ele></trkpt><trkpt lat="62.440919" lon="9.454326"><ele>1326</ele></trkpt><trkpt lat="62.440881" lon="9.453362"><ele>1331</ele></trkpt><trkpt lat="62.440842" lon="9.452398"><ele>1336</ele></trkpt><trkpt lat="62.440804" lon="9.451434"><ele>1341</ele></trkpt><trkpt lat="62.440765" lon="9.450470"><ele>1347</ele></trkpt><trkpt lat="62.440727" lon="9.449506"><ele>1350</ele></trkpt><trkpt lat="62.440688" lon="9.448542"><ele>1353</ele></trkpt><trkpt lat="62.440650" lon="9.447577"><ele>1355</ele></trkpt><trkpt lat="62.440611" lon="9.446613"><ele>1356</ele></trkpt><trkpt lat="62.440573" lon="9.445649"><ele>1357</ele></trkpt><trkpt lat="62.440534" lon="9.444685"><ele>1358</ele></trkpt><trkpt lat="62.440496" lon="9.443721"><ele>1360</ele></trkpt><trkpt lat="62.440457" lon="9.442757"><ele>1362</ele></trkpt><trkpt lat="62.440419" lon="9.441793"><ele>1362</ele></trkpt><trkpt lat="62.440380" lon="9.440829"><ele>1364</ele></trkpt><trkpt lat="62.440342" lon="9.439865"><ele>1365</ele></trkpt><trkpt lat="62.440214" lon="9.438917"><ele>1363</ele></trkpt><trkpt lat="62.440175" lon="9.437953"><ele>1361</ele></trkpt><trkpt lat="62.440137" lon="9.436989"><ele>1358</ele></trkpt><trkpt lat="62.440098" lon="9.436025"><ele>1354</ele></trkpt><trkpt lat="62.440059" lon="9.435061"><ele>1351</ele></trkpt><trkpt lat="62.440021" lon="9.434097"><ele>1345</ele></trkpt><trkpt lat="62.439982" lon="9.433133"><ele>1339</ele></trkpt><trkpt lat="62.439944" lon="9.432169"><ele>1336</ele></trkpt><trkpt lat="62.439905" lon="9.431205"><ele>1333</ele></trkpt><trkpt lat="62.439866" lon="9.430241"><ele>1332</ele></trkpt><trkpt lat="62.439828" lon="9.429277"><ele>1331</ele></trkpt><trkpt lat="62.439789" lon="9.428313"><ele>1332</ele></trkpt><trkpt lat="62.439750" lon="9.427349"><ele>1334</ele></trkpt><trkpt lat="62.439712" lon="9.426385"><ele>1334</ele></trkpt><trkpt lat="62.439673" lon="9.425421"><ele>1334</ele></trkpt><trkpt lat="62.439635" lon="9.424457"><ele>1332</ele></trkpt><trkpt lat="62.439507" lon="9.423510"><ele>1334</ele></trkpt><trkpt lat="62.439021" lon="9.422629"><ele>1346</ele></trkpt><trkpt lat="62.438536" lon="9.421749"><ele>1358</ele></trkpt><trkpt lat="62.438140" lon="9.420851"><ele>1371</ele></trkpt><trkpt lat="62.438101" lon="9.419887"><ele>1375</ele></trkpt><trkpt lat="62.437794" lon="9.418974"><ele>1384</ele></trkpt><trkpt lat="62.437488" lon="9.418060"><ele>1401</ele></trkpt><trkpt lat="62.437449" lon="9.417096"><ele>1412</ele></trkpt><trkpt lat="62.437410" lon="9.416132"><ele>1421</ele></trkpt><trkpt lat="62.437372" lon="9.415168"><ele>1430</ele></trkpt><trkpt lat="62.437333" lon="9.414204"><ele>1437</ele></trkpt><trkpt lat="62.437294" lon="9.413240"><ele>1447</ele></trkpt><trkpt lat="62.437255" lon="9.412276"><ele>1457</ele></trkpt><trkpt lat="62.437217" lon="9.411312"><ele>1465</ele></trkpt><trkpt lat="62.437178" lon="9.410348"><ele>1470</ele></trkpt><trkpt lat="62.437139" lon="9.409384"><ele>1467</ele></trkpt><trkpt lat="62.436832" lon="9.408471"><ele>1460</ele></trkpt><trkpt lat="62.436347" lon="9.407590"><ele>1448</ele></trkpt><trkpt lat="62.435862" lon="9.406710"><ele>1438</ele></trkpt><trkpt lat="62.435376" lon="9.405830"><ele>1424</ele></trkpt><trkpt lat="62.434891" lon="9.404950"><ele>1411</ele></trkpt><trkpt lat="62.434405" lon="9.404070"><ele>1402</ele></trkpt><trkpt lat="62.433920" lon="9.403190"><ele>1397</ele></trkpt><trkpt lat="62.433434" lon="9.402310"><ele>1391</ele></trkpt><trkpt lat="62.432949" lon="9.401430"><ele>1386</ele></trkpt><trkpt lat="62.432463" lon="9.400550"><ele>1380</ele></trkpt><trkpt lat="62.431978" lon="9.399670"><ele>1373</ele></trkpt><trkpt lat="62.431492" lon="9.398790"><ele>1366</ele></trkpt><trkpt lat="62.431007" lon="9.397910"><ele>1361</ele></trkpt><trkpt lat="62.430521" lon="9.397030"><ele>1354</ele></trkpt><trkpt lat="62.430036" lon="9.396150"><ele>1351</ele></trkpt><trkpt lat="62.429550" lon="9.395270"><ele>1345</ele></trkpt><trkpt lat="62.429065" lon="9.394390"><ele>1338</ele></trkpt><trkpt lat="62.428579" lon="9.393511"><ele>1331</ele></trkpt><trkpt lat="62.428094" lon="9.392631"><ele>1334</ele></trkpt><trkpt lat="62.427608" lon="9.391751"><ele>1338</ele></trkpt><trkpt lat="62.427123" lon="9.390872"><ele>1340</ele></trkpt><trkpt lat="62.426637" lon="9.389992"><ele>1342</ele></trkpt><trkpt lat="62.426152" lon="9.389112"><ele>1349</ele></trkpt><trkpt lat="62.425666" lon="9.388233"><ele>1355</ele></trkpt><trkpt lat="62.425181" lon="9.387353"><ele>1359</ele></trkpt><trkpt lat="62.424695" lon="9.386474"><ele>1361</ele></trkpt><trkpt lat="62.424209" lon="9.385594"><ele>1358</ele></trkpt><trkpt lat="62.423724" lon="9.384715"><ele>1354</ele></trkpt><trkpt lat="62.423238" lon="9.383835"><ele>1350</ele></trkpt><trkpt lat="62.422753" lon="9.382956"><ele>1348</ele></trkpt><trkpt lat="62.422267" lon="9.382076"><ele>1340</ele></trkpt><trkpt lat="62.421782" lon="9.381197"><ele>1340</ele></trkpt><trkpt lat="62.421296" lon="9.380318"><ele>1343</ele></trkpt><trkpt lat="62.420810" lon="9.379438"><ele>1347</ele></trkpt><trkpt lat="62.420414" lon="9.378542"><ele>1358</ele></trkpt><trkpt lat="62.419928" lon="9.377663"><ele>1364</ele></trkpt><trkpt lat="62.419443" lon="9.376784"><ele>1368</ele></trkpt><trkpt lat="62.418957" lon="9.375904"><ele>1374</ele></trkpt><trkpt lat="62.418472" lon="9.375025"><ele>1388</ele></trkpt><trkpt lat="62.417986" lon="9.374146"><ele>1399</ele></trkpt><trkpt lat="62.417500" lon="9.373267"><ele>1410</ele></trkpt><trkpt lat="62.417015" lon="9.372388"><ele>1420</ele></trkpt><trkpt lat="62.416529" lon="9.371509"><ele>1434</ele></trkpt><trkpt lat="62.416043" lon="9.370630"><ele>1446</ele></trkpt><trkpt lat="62.415558" lon="9.369751"><ele>1459</ele></trkpt><trkpt lat="62.415072" lon="9.368872"><ele>1475</ele></trkpt><trkpt lat="62.414586" lon="9.367993"><ele>1491</ele></trkpt><trkpt lat="62.414101" lon="9.367114"><ele>1503</ele></trkpt><trkpt lat="62.413704" lon="9.366218"><ele>1519</ele></trkpt><trkpt lat="62.413487" lon="9.365289"><ele>1534</ele></trkpt><trkpt lat="62.413448" lon="9.364326"><ele>1543</ele></trkpt><trkpt lat="62.413409" lon="9.363363"><ele>1551</ele></trkpt><trkpt lat="62.413369" lon="9.362400"><ele>1562</ele></trkpt><trkpt lat="62.413330" lon="9.361437"><ele>1569</ele></trkpt><trkpt lat="62.412845" lon="9.360558"><ele>1570</ele></trkpt><trkpt lat="62.412359" lon="9.359679"><ele>1574</ele></trkpt><trkpt lat="62.411963" lon="9.358783"><ele>1571</ele></trkpt><trkpt lat="62.411574" lon="9.358080"><ele>1578</ele></trkpt></trkseg></trk></gpx>