<?xml version="1.0" encoding="UTF-8"?>
<gpx version="1.1" creator="Rando toppturs" xmlns="http://www.topografix.com/GPX/1/1"><metadata><name>157 Fluren 1168 m</name><desc>Generated 2026-09-13 17:42 from Kartverket 10 m terrain. Ascent lines are least-cost terrain paths under 35°, not verified routes. Not a snow-stability assessment.</desc></metadata><wpt lat="62.693514" lon="9.101260"><ele>651</ele><name>Car · Fluren 1168 m</name></wpt><wpt lat="62.712911" lon="9.115031"><ele>1168</ele><name>Fluren 1168 m</name></wpt><trk><name>Up · Fluren 1168 m</name><desc>least-cost ascent: +524 m over 2535 m, max 29°, 0.0% on 30–35°, ≈1.94 h at 4 km/h + 400 m/h. Terrain possibility, not a checked route.</desc><trkseg><trkpt lat="62.693514" lon="9.101260"><ele>651</ele></trkpt><trkpt lat="62.693961" lon="9.101171"><ele>648</ele></trkpt><trkpt lat="62.694407" lon="9.101082"><ele>657</ele></trkpt><trkpt lat="62.694854" lon="9.100993"><ele>666</ele></trkpt><trkpt lat="62.695300" lon="9.100903"><ele>691</ele></trkpt><trkpt lat="62.695746" lon="9.100814"><ele>706</ele></trkpt><trkpt lat="62.696193" lon="9.100725"><ele>718</ele></trkpt><trkpt lat="62.696672" lon="9.101413"><ele>734</ele></trkpt><trkpt lat="62.697135" lon="9.101713"><ele>752</ele></trkpt><trkpt lat="62.697614" lon="9.102401"><ele>771</ele></trkpt><trkpt lat="62.698085" lon="9.102895"><ele>783</ele></trkpt><trkpt lat="62.698572" lon="9.103777"><ele>805</ele></trkpt><trkpt lat="62.699027" lon="9.103883"><ele>828</ele></trkpt><trkpt lat="62.699473" lon="9.103793"><ele>843</ele></trkpt><trkpt lat="62.699920" lon="9.103704"><ele>857</ele></trkpt><trkpt lat="62.700391" lon="9.104198"><ele>874</ele></trkpt><trkpt lat="62.700845" lon="9.104303"><ele>892</ele></trkpt><trkpt lat="62.701300" lon="9.104409"><ele>903</ele></trkpt><trkpt lat="62.701763" lon="9.104708"><ele>918</ele></trkpt><trkpt lat="62.702242" lon="9.105397"><ele>937</ele></trkpt><trkpt lat="62.702721" lon="9.106085"><ele>956</ele></trkpt><trkpt lat="62.703192" lon="9.106579"><ele>970</ele></trkpt><trkpt lat="62.703647" lon="9.106684"><ele>981</ele></trkpt><trkpt lat="62.704110" lon="9.106984"><ele>993</ele></trkpt><trkpt lat="62.704597" lon="9.107867"><ele>1015</ele></trkpt><trkpt lat="62.705084" lon="9.108750"><ele>1024</ele></trkpt><trkpt lat="62.705555" lon="9.109244"><ele>1039</ele></trkpt><trkpt lat="62.706002" lon="9.109155"><ele>1052</ele></trkpt><trkpt lat="62.706448" lon="9.109066"><ele>1059</ele></trkpt><trkpt lat="62.706894" lon="9.108977"><ele>1065</ele></trkpt><trkpt lat="62.707341" lon="9.108887"><ele>1068</ele></trkpt><trkpt lat="62.707787" lon="9.108798"><ele>1073</ele></trkpt><trkpt lat="62.708250" lon="9.109098"><ele>1071</ele></trkpt><trkpt lat="62.708737" lon="9.109981"><ele>1072</ele></trkpt><trkpt lat="62.709225" lon="9.110864"><ele>1075</ele></trkpt><trkpt lat="62.709712" lon="9.111747"><ele>1078</ele></trkpt><trkpt lat="62.710199" lon="9.112631"><ele>1089</ele></trkpt><trkpt lat="62.710687" lon="9.113514"><ele>1109</ele></trkpt><trkpt lat="62.711174" lon="9.114397"><ele>1128</ele></trkpt><trkpt lat="62.711653" lon="9.115086"><ele>1146</ele></trkpt><trkpt lat="62.712100" lon="9.114997"><ele>1157</ele></trkpt><trkpt lat="62.712546" lon="9.114908"><ele>1164</ele></trkpt><trkpt lat="62.712911" lon="9.115031"><ele>1168</ele></trkpt></trkseg></trk></gpx>