<?xml version="1.0" encoding="UTF-8"?>
<gpx version="1.1" creator="Rando toppturs" xmlns="http://www.topografix.com/GPX/1/1"><metadata><name>159 Snydda 1581 m</name><desc>Generated 2026-09-13 17:42 from Kartverket 10 m terrain. Ascent lines are least-cost terrain paths under 35°, not verified routes. Not a snow-stability assessment.</desc></metadata><wpt lat="62.659299" lon="9.278770"><ele>598</ele><name>Car · Snydda 1581 m</name></wpt><wpt lat="62.689502" lon="9.262339"><ele>1581</ele><name>Snydda 1581 m</name></wpt><trk><name>Up · Snydda 1581 m</name><desc>least-cost ascent: +990 m over 4522 m, max 30°, 0.0% on 30–35°, ≈3.61 h at 4 km/h + 400 m/h. Terrain possibility, not a checked route.</desc><trkseg><trkpt lat="62.659299" lon="9.278770"><ele>598</ele></trkpt><trkpt lat="62.659745" lon="9.278683"><ele>604</ele></trkpt><trkpt lat="62.660192" lon="9.278597"><ele>610</ele></trkpt><trkpt lat="62.660638" lon="9.278511"><ele>616</ele></trkpt><trkpt lat="62.661085" lon="9.278424"><ele>624</ele></trkpt><trkpt lat="62.661532" lon="9.278338"><ele>631</ele></trkpt><trkpt lat="62.661978" lon="9.278251"><ele>635</ele></trkpt><trkpt lat="62.662464" lon="9.279136"><ele>652</ele></trkpt><trkpt lat="62.662951" lon="9.280021"><ele>672</ele></trkpt><trkpt lat="62.663258" lon="9.280940"><ele>691</ele></trkpt><trkpt lat="62.663745" lon="9.281824"><ele>717</ele></trkpt><trkpt lat="62.664231" lon="9.282709"><ele>746</ele></trkpt><trkpt lat="62.664717" lon="9.283594"><ele>770</ele></trkpt><trkpt lat="62.665114" lon="9.284496"><ele>792</ele></trkpt><trkpt lat="62.665422" lon="9.285415"><ele>814</ele></trkpt><trkpt lat="62.665908" lon="9.286300"><ele>842</ele></trkpt><trkpt lat="62.666386" lon="9.286990"><ele>868</ele></trkpt><trkpt lat="62.666873" lon="9.287875"><ele>893</ele></trkpt><trkpt lat="62.667335" lon="9.288178"><ele>916</ele></trkpt><trkpt lat="62.667789" lon="9.288285"><ele>940</ele></trkpt><trkpt lat="62.668220" lon="9.287811"><ele>968</ele></trkpt><trkpt lat="62.668659" lon="9.287530"><ele>997</ele></trkpt><trkpt lat="62.669097" lon="9.287250"><ele>1025</ele></trkpt><trkpt lat="62.669520" lon="9.286581"><ele>1050</ele></trkpt><trkpt lat="62.669959" lon="9.286300"><ele>1075</ele></trkpt><trkpt lat="62.670397" lon="9.286019"><ele>1097</ele></trkpt><trkpt lat="62.670820" lon="9.285350"><ele>1119</ele></trkpt><trkpt lat="62.671267" lon="9.285264"><ele>1140</ele></trkpt><trkpt lat="62.671697" lon="9.284789"><ele>1161</ele></trkpt><trkpt lat="62.672112" lon="9.283926"><ele>1183</ele></trkpt><trkpt lat="62.672543" lon="9.283451"><ele>1201</ele></trkpt><trkpt lat="62.672989" lon="9.283364"><ele>1217</ele></trkpt><trkpt lat="62.673436" lon="9.283278"><ele>1229</ele></trkpt><trkpt lat="62.673882" lon="9.283191"><ele>1241</ele></trkpt><trkpt lat="62.674297" lon="9.282328"><ele>1250</ele></trkpt><trkpt lat="62.674704" lon="9.281270"><ele>1257</ele></trkpt><trkpt lat="62.675111" lon="9.280212"><ele>1266</ele></trkpt><trkpt lat="62.675518" lon="9.279154"><ele>1275</ele></trkpt><trkpt lat="62.675924" lon="9.278097"><ele>1285</ele></trkpt><trkpt lat="62.676331" lon="9.277039"><ele>1296</ele></trkpt><trkpt lat="62.676738" lon="9.275981"><ele>1305</ele></trkpt><trkpt lat="62.677145" lon="9.274923"><ele>1317</ele></trkpt><trkpt lat="62.677552" lon="9.273865"><ele>1327</ele></trkpt><trkpt lat="62.677958" lon="9.272807"><ele>1339</ele></trkpt><trkpt lat="62.678365" lon="9.271748"><ele>1351</ele></trkpt><trkpt lat="62.678772" lon="9.270690"><ele>1367</ele></trkpt><trkpt lat="62.679089" lon="9.269650"><ele>1383</ele></trkpt><trkpt lat="62.679407" lon="9.268609"><ele>1399</ele></trkpt><trkpt lat="62.679813" lon="9.267551"><ele>1412</ele></trkpt><trkpt lat="62.680220" lon="9.266492"><ele>1420</ele></trkpt><trkpt lat="62.680627" lon="9.265434"><ele>1426</ele></trkpt><trkpt lat="62.681034" lon="9.264376"><ele>1435</ele></trkpt><trkpt lat="62.681440" lon="9.263317"><ele>1445</ele></trkpt><trkpt lat="62.681847" lon="9.262259"><ele>1453</ele></trkpt><trkpt lat="62.682254" lon="9.261201"><ele>1451</ele></trkpt><trkpt lat="62.682684" lon="9.260725"><ele>1449</ele></trkpt><trkpt lat="62.683123" lon="9.260444"><ele>1451</ele></trkpt><trkpt lat="62.683529" lon="9.259386"><ele>1464</ele></trkpt><trkpt lat="62.683968" lon="9.259105"><ele>1472</ele></trkpt><trkpt lat="62.684390" lon="9.258435"><ele>1486</ele></trkpt><trkpt lat="62.684837" lon="9.258348"><ele>1503</ele></trkpt><trkpt lat="62.685284" lon="9.258261"><ele>1515</ele></trkpt><trkpt lat="62.685730" lon="9.258174"><ele>1527</ele></trkpt><trkpt lat="62.686177" lon="9.258088"><ele>1536</ele></trkpt><trkpt lat="62.686623" lon="9.258001"><ele>1543</ele></trkpt><trkpt lat="62.687070" lon="9.257914"><ele>1553</ele></trkpt><trkpt lat="62.687556" lon="9.258799"><ele>1558</ele></trkpt><trkpt lat="62.688043" lon="9.259684"><ele>1562</ele></trkpt><trkpt lat="62.688529" lon="9.260569"><ele>1571</ele></trkpt><trkpt lat="62.689015" lon="9.261454"><ele>1578</ele></trkpt><trkpt lat="62.689502" lon="9.262339"><ele>1581</ele></trkpt><trkpt lat="62.689502" lon="9.262339"><ele>1581</ele></trkpt></trkseg></trk></gpx>