<?xml version="1.0" encoding="UTF-8"?>
<gpx version="1.1" creator="Rando toppturs" xmlns="http://www.topografix.com/GPX/1/1"><metadata><name>161 Unnamed 1414 m</name><desc>Generated 2026-09-13 17:42 from Kartverket 10 m terrain. Ascent lines are least-cost terrain paths under 35°, not verified routes. Not a snow-stability assessment.</desc></metadata><wpt lat="62.689059" lon="9.104502"><ele>616</ele><name>Car · Unnamed summit 1414 m</name></wpt><wpt lat="62.643659" lon="9.069921"><ele>1414</ele><name>Unnamed summit 1414 m</name></wpt><trk><name>Up · Unnamed summit 1414 m</name><desc>least-cost ascent: +888 m over 5937 m, max 34°, 0.6% on 30–35°, ≈3.71 h at 4 km/h + 400 m/h. Terrain possibility, not a checked route.</desc><trkseg><trkpt lat="62.689059" lon="9.104502"><ele>616</ele></trkpt><trkpt lat="62.688572" lon="9.103619"><ele>616</ele></trkpt><trkpt lat="62.688085" lon="9.102737"><ele>610</ele></trkpt><trkpt lat="62.687597" lon="9.101855"><ele>602</ele></trkpt><trkpt lat="62.687110" lon="9.100972"><ele>596</ele></trkpt><trkpt lat="62.686622" lon="9.100090"><ele>598</ele></trkpt><trkpt lat="62.686135" lon="9.099208"><ele>592</ele></trkpt><trkpt lat="62.685648" lon="9.098325"><ele>591</ele></trkpt><trkpt lat="62.685160" lon="9.097443"><ele>591</ele></trkpt><trkpt lat="62.684673" lon="9.096561"><ele>602</ele></trkpt><trkpt lat="62.684185" lon="9.095679"><ele>612</ele></trkpt><trkpt lat="62.683698" lon="9.094797"><ele>615</ele></trkpt><trkpt lat="62.683211" lon="9.093915"><ele>619</ele></trkpt><trkpt lat="62.682723" lon="9.093033"><ele>628</ele></trkpt><trkpt lat="62.682236" lon="9.092150"><ele>639</ele></trkpt><trkpt lat="62.681748" lon="9.091268"><ele>646</ele></trkpt><trkpt lat="62.681261" lon="9.090386"><ele>654</ele></trkpt><trkpt lat="62.680773" lon="9.089505"><ele>667</ele></trkpt><trkpt lat="62.680286" lon="9.088623"><ele>682</ele></trkpt><trkpt lat="62.679798" lon="9.087741"><ele>694</ele></trkpt><trkpt lat="62.679311" lon="9.086859"><ele>705</ele></trkpt><trkpt lat="62.678823" lon="9.085977"><ele>720</ele></trkpt><trkpt lat="62.678336" lon="9.085095"><ele>736</ele></trkpt><trkpt lat="62.677849" lon="9.084213"><ele>750</ele></trkpt><trkpt lat="62.677361" lon="9.083332"><ele>767</ele></trkpt><trkpt lat="62.676874" lon="9.082450"><ele>788</ele></trkpt><trkpt lat="62.676386" lon="9.081568"><ele>806</ele></trkpt><trkpt lat="62.675915" lon="9.081075"><ele>824</ele></trkpt><trkpt lat="62.675427" lon="9.080193"><ele>840</ele></trkpt><trkpt lat="62.674956" lon="9.079700"><ele>859</ele></trkpt><trkpt lat="62.674469" lon="9.078819"><ele>876</ele></trkpt><trkpt lat="62.673981" lon="9.077937"><ele>894</ele></trkpt><trkpt lat="62.673502" lon="9.077250"><ele>911</ele></trkpt><trkpt lat="62.673056" lon="9.077339"><ele>926</ele></trkpt><trkpt lat="62.672585" lon="9.076846"><ele>942</ele></trkpt><trkpt lat="62.672138" lon="9.076936"><ele>956</ele></trkpt><trkpt lat="62.671684" lon="9.076831"><ele>972</ele></trkpt><trkpt lat="62.671221" lon="9.076532"><ele>987</ele></trkpt><trkpt lat="62.670758" lon="9.076233"><ele>1006</ele></trkpt><trkpt lat="62.670279" lon="9.075546"><ele>1020</ele></trkpt><trkpt lat="62.669799" lon="9.074859"><ele>1034</ele></trkpt><trkpt lat="62.669336" lon="9.074560"><ele>1048</ele></trkpt><trkpt lat="62.668865" lon="9.074067"><ele>1056</ele></trkpt><trkpt lat="62.668419" lon="9.074156"><ele>1074</ele></trkpt><trkpt lat="62.667964" lon="9.074052"><ele>1091</ele></trkpt><trkpt lat="62.667485" lon="9.073365"><ele>1110</ele></trkpt><trkpt lat="62.667039" lon="9.073454"><ele>1119</ele></trkpt><trkpt lat="62.666592" lon="9.073544"><ele>1125</ele></trkpt><trkpt lat="62.666146" lon="9.073633"><ele>1134</ele></trkpt><trkpt lat="62.665699" lon="9.073723"><ele>1145</ele></trkpt><trkpt lat="62.665253" lon="9.073812"><ele>1155</ele></trkpt><trkpt lat="62.664807" lon="9.073902"><ele>1165</ele></trkpt><trkpt lat="62.664360" lon="9.073991"><ele>1168</ele></trkpt><trkpt lat="62.663914" lon="9.074081"><ele>1171</ele></trkpt><trkpt lat="62.663468" lon="9.074170"><ele>1178</ele></trkpt><trkpt lat="62.663021" lon="9.074260"><ele>1177</ele></trkpt><trkpt lat="62.662575" lon="9.074349"><ele>1181</ele></trkpt><trkpt lat="62.662128" lon="9.074439"><ele>1186</ele></trkpt><trkpt lat="62.661682" lon="9.074528"><ele>1192</ele></trkpt><trkpt lat="62.661236" lon="9.074618"><ele>1194</ele></trkpt><trkpt lat="62.660789" lon="9.074707"><ele>1194</ele></trkpt><trkpt lat="62.660343" lon="9.074797"><ele>1188</ele></trkpt><trkpt lat="62.659896" lon="9.074886"><ele>1192</ele></trkpt><trkpt lat="62.659450" lon="9.074976"><ele>1192</ele></trkpt><trkpt lat="62.658987" lon="9.074677"><ele>1204</ele></trkpt><trkpt lat="62.658541" lon="9.074766"><ele>1205</ele></trkpt><trkpt lat="62.658053" lon="9.073885"><ele>1219</ele></trkpt><trkpt lat="62.657599" lon="9.073781"><ele>1232</ele></trkpt><trkpt lat="62.657152" lon="9.073870"><ele>1232</ele></trkpt><trkpt lat="62.656706" lon="9.073960"><ele>1233</ele></trkpt><trkpt lat="62.656259" lon="9.074049"><ele>1237</ele></trkpt><trkpt lat="62.655813" lon="9.074139"><ele>1240</ele></trkpt><trkpt lat="62.655367" lon="9.074228"><ele>1240</ele></trkpt><trkpt lat="62.654920" lon="9.074318"><ele>1243</ele></trkpt><trkpt lat="62.654474" lon="9.074407"><ele>1243</ele></trkpt><trkpt lat="62.654028" lon="9.074496"><ele>1239</ele></trkpt><trkpt lat="62.653581" lon="9.074586"><ele>1229</ele></trkpt><trkpt lat="62.653135" lon="9.074675"><ele>1221</ele></trkpt><trkpt lat="62.652688" lon="9.074765"><ele>1214</ele></trkpt><trkpt lat="62.652242" lon="9.074854"><ele>1209</ele></trkpt><trkpt lat="62.651796" lon="9.074944"><ele>1204</ele></trkpt><trkpt lat="62.651349" lon="9.075033"><ele>1203</ele></trkpt><trkpt lat="62.650903" lon="9.075123"><ele>1204</ele></trkpt><trkpt lat="62.650456" lon="9.075212"><ele>1205</ele></trkpt><trkpt lat="62.650010" lon="9.075301"><ele>1212</ele></trkpt><trkpt lat="62.649564" lon="9.075391"><ele>1220</ele></trkpt><trkpt lat="62.649117" lon="9.075480"><ele>1227</ele></trkpt><trkpt lat="62.648663" lon="9.075376"><ele>1233</ele></trkpt><trkpt lat="62.648216" lon="9.075465"><ele>1239</ele></trkpt><trkpt lat="62.647762" lon="9.075361"><ele>1248</ele></trkpt><trkpt lat="62.647282" lon="9.074674"><ele>1267</ele></trkpt><trkpt lat="62.646811" lon="9.074181"><ele>1290</ele></trkpt><trkpt lat="62.646365" lon="9.074271"><ele>1311</ele></trkpt><trkpt lat="62.645886" lon="9.073584"><ele>1331</ele></trkpt><trkpt lat="62.645398" lon="9.072703"><ele>1346</ele></trkpt><trkpt lat="62.644910" lon="9.071823"><ele>1362</ele></trkpt><trkpt lat="62.644456" lon="9.071718"><ele>1388</ele></trkpt><trkpt lat="62.644155" lon="9.070996"><ele>1403</ele></trkpt><trkpt lat="62.643757" lon="9.070097"><ele>1413</ele></trkpt><trkpt lat="62.643659" lon="9.069921"><ele>1414</ele></trkpt></trkseg></trk></gpx>