<?xml version="1.0" encoding="UTF-8"?>
<gpx version="1.1" creator="Rando toppturs" xmlns="http://www.topografix.com/GPX/1/1"><metadata><name>164 Svorundfjellet 1646 m</name><desc>Generated 2026-09-13 17:42 from Kartverket 10 m terrain. Ascent lines are least-cost terrain paths under 35°, not verified routes. Not a snow-stability assessment.</desc></metadata><wpt lat="62.583716" lon="9.196716"><ele>606</ele><name>Car · Svorundfjellet 1646 m</name></wpt><wpt lat="62.619184" lon="9.183707"><ele>1646</ele><name>Svorundfjellet 1646 m</name></wpt><trk><name>Up · Svorundfjellet 1646 m</name><desc>least-cost ascent: +1049 m over 4634 m, max 35°, 0.7% on 30–35°, ≈3.78 h at 4 km/h + 400 m/h. Terrain possibility, not a checked route.</desc><trkseg><trkpt lat="62.583716" lon="9.196716"><ele>606</ele></trkpt><trkpt lat="62.584170" lon="9.196822"><ele>623</ele></trkpt><trkpt lat="62.584601" lon="9.196348"><ele>640</ele></trkpt><trkpt lat="62.585047" lon="9.196260"><ele>659</ele></trkpt><trkpt lat="62.585494" lon="9.196173"><ele>671</ele></trkpt><trkpt lat="62.585940" lon="9.196085"><ele>689</ele></trkpt><trkpt lat="62.586387" lon="9.195998"><ele>706</ele></trkpt><trkpt lat="62.586817" lon="9.195523"><ele>724</ele></trkpt><trkpt lat="62.587264" lon="9.195436"><ele>737</ele></trkpt><trkpt lat="62.587710" lon="9.195348"><ele>756</ele></trkpt><trkpt lat="62.588157" lon="9.195261"><ele>778</ele></trkpt><trkpt lat="62.588603" lon="9.195174"><ele>799</ele></trkpt><trkpt lat="62.589050" lon="9.195086"><ele>818</ele></trkpt><trkpt lat="62.589496" lon="9.194999"><ele>833</ele></trkpt><trkpt lat="62.589967" lon="9.195493"><ele>850</ele></trkpt><trkpt lat="62.590413" lon="9.195405"><ele>870</ele></trkpt><trkpt lat="62.590860" lon="9.195318"><ele>891</ele></trkpt><trkpt lat="62.591306" lon="9.195230"><ele>912</ele></trkpt><trkpt lat="62.591777" lon="9.195724"><ele>933</ele></trkpt><trkpt lat="62.592174" lon="9.196623"><ele>953</ele></trkpt><trkpt lat="62.592661" lon="9.197504"><ele>976</ele></trkpt><trkpt lat="62.593148" lon="9.198385"><ele>999</ele></trkpt><trkpt lat="62.593635" lon="9.199266"><ele>1018</ele></trkpt><trkpt lat="62.594121" lon="9.200148"><ele>1033</ele></trkpt><trkpt lat="62.594608" lon="9.201029"><ele>1053</ele></trkpt><trkpt lat="62.595087" lon="9.201717"><ele>1066</ele></trkpt><trkpt lat="62.595533" lon="9.201629"><ele>1075</ele></trkpt><trkpt lat="62.595980" lon="9.201542"><ele>1086</ele></trkpt><trkpt lat="62.596426" lon="9.201455"><ele>1094</ele></trkpt><trkpt lat="62.596873" lon="9.201367"><ele>1102</ele></trkpt><trkpt lat="62.597319" lon="9.201280"><ele>1106</ele></trkpt><trkpt lat="62.597766" lon="9.201193"><ele>1111</ele></trkpt><trkpt lat="62.598212" lon="9.201105"><ele>1113</ele></trkpt><trkpt lat="62.598659" lon="9.201018"><ele>1115</ele></trkpt><trkpt lat="62.599105" lon="9.200931"><ele>1114</ele></trkpt><trkpt lat="62.599552" lon="9.200843"><ele>1114</ele></trkpt><trkpt lat="62.599998" lon="9.200756"><ele>1124</ele></trkpt><trkpt lat="62.600445" lon="9.200668"><ele>1133</ele></trkpt><trkpt lat="62.600891" lon="9.200581"><ele>1142</ele></trkpt><trkpt lat="62.601338" lon="9.200494"><ele>1151</ele></trkpt><trkpt lat="62.601784" lon="9.200406"><ele>1160</ele></trkpt><trkpt lat="62.602231" lon="9.200319"><ele>1170</ele></trkpt><trkpt lat="62.602677" lon="9.200232"><ele>1174</ele></trkpt><trkpt lat="62.603124" lon="9.200144"><ele>1173</ele></trkpt><trkpt lat="62.603570" lon="9.200057"><ele>1174</ele></trkpt><trkpt lat="62.604017" lon="9.199969"><ele>1184</ele></trkpt><trkpt lat="62.604463" lon="9.199882"><ele>1189</ele></trkpt><trkpt lat="62.604910" lon="9.199795"><ele>1199</ele></trkpt><trkpt lat="62.605356" lon="9.199707"><ele>1203</ele></trkpt><trkpt lat="62.605803" lon="9.199620"><ele>1207</ele></trkpt><trkpt lat="62.606249" lon="9.199532"><ele>1211</ele></trkpt><trkpt lat="62.606696" lon="9.199445"><ele>1215</ele></trkpt><trkpt lat="62.607142" lon="9.199358"><ele>1221</ele></trkpt><trkpt lat="62.607589" lon="9.199270"><ele>1230</ele></trkpt><trkpt lat="62.608035" lon="9.199183"><ele>1239</ele></trkpt><trkpt lat="62.608482" lon="9.199095"><ele>1248</ele></trkpt><trkpt lat="62.608928" lon="9.199008"><ele>1255</ele></trkpt><trkpt lat="62.609375" lon="9.198921"><ele>1261</ele></trkpt><trkpt lat="62.609821" lon="9.198833"><ele>1272</ele></trkpt><trkpt lat="62.610267" lon="9.198746"><ele>1281</ele></trkpt><trkpt lat="62.610682" lon="9.197883"><ele>1289</ele></trkpt><trkpt lat="62.611088" lon="9.196826"><ele>1313</ele></trkpt><trkpt lat="62.611502" lon="9.195964"><ele>1338</ele></trkpt><trkpt lat="62.611941" lon="9.195682"><ele>1361</ele></trkpt><trkpt lat="62.612387" lon="9.195595"><ele>1379</ele></trkpt><trkpt lat="62.612801" lon="9.194732"><ele>1407</ele></trkpt><trkpt lat="62.613224" lon="9.194063"><ele>1425</ele></trkpt><trkpt lat="62.613646" lon="9.193394"><ele>1440</ele></trkpt><trkpt lat="62.614076" lon="9.192919"><ele>1454</ele></trkpt><trkpt lat="62.614499" lon="9.192249"><ele>1475</ele></trkpt><trkpt lat="62.614913" lon="9.191386"><ele>1494</ele></trkpt><trkpt lat="62.615319" lon="9.190330"><ele>1506</ele></trkpt><trkpt lat="62.615636" lon="9.189290"><ele>1519</ele></trkpt><trkpt lat="62.616042" lon="9.188233"><ele>1532</ele></trkpt><trkpt lat="62.616448" lon="9.187176"><ele>1558</ele></trkpt><trkpt lat="62.616862" lon="9.186313"><ele>1577</ele></trkpt><trkpt lat="62.617285" lon="9.185644"><ele>1602</ele></trkpt><trkpt lat="62.617715" lon="9.185169"><ele>1620</ele></trkpt><trkpt lat="62.618145" lon="9.184693"><ele>1633</ele></trkpt><trkpt lat="62.618592" lon="9.184605"><ele>1641</ele></trkpt><trkpt lat="62.619022" lon="9.184130"><ele>1645</ele></trkpt><trkpt lat="62.619184" lon="9.183707"><ele>1646</ele></trkpt></trkseg></trk></gpx>