<?xml version="1.0" encoding="UTF-8"?>
<gpx version="1.1" creator="Rando toppturs" xmlns="http://www.topografix.com/GPX/1/1"><metadata><name>167 Kolfatberga 1309 m</name><desc>Generated 2026-09-13 17:42 from Kartverket 10 m terrain. Ascent lines are least-cost terrain paths under 35°, not verified routes. Not a snow-stability assessment.</desc></metadata><wpt lat="62.474898" lon="9.651015"><ele>875</ele><name>Car · Kolfatberga 1309 m</name></wpt><wpt lat="62.457552" lon="9.602628"><ele>1309</ele><name>Kolfatberga 1309 m</name></wpt><trk><name>Up · Kolfatberga 1309 m</name><desc>least-cost ascent: +478 m over 3441 m, max 26°, 0.0% on 30–35°, ≈2.06 h at 4 km/h + 400 m/h. Terrain possibility, not a checked route.</desc><trkseg><trkpt lat="62.474898" lon="9.651015"><ele>875</ele></trkpt><trkpt lat="62.474422" lon="9.650322"><ele>880</ele></trkpt><trkpt lat="62.473938" lon="9.649437"><ele>893</ele></trkpt><trkpt lat="62.473543" lon="9.648536"><ele>908</ele></trkpt><trkpt lat="62.473238" lon="9.647618"><ele>923</ele></trkpt><trkpt lat="62.472754" lon="9.646733"><ele>943</ele></trkpt><trkpt lat="62.472359" lon="9.645832"><ele>962</ele></trkpt><trkpt lat="62.472144" lon="9.644899"><ele>979</ele></trkpt><trkpt lat="62.471838" lon="9.643981"><ele>998</ele></trkpt><trkpt lat="62.471444" lon="9.643080"><ele>1021</ele></trkpt><trkpt lat="62.470960" lon="9.642195"><ele>1042</ele></trkpt><trkpt lat="62.470476" lon="9.641310"><ele>1066</ele></trkpt><trkpt lat="62.469992" lon="9.640425"><ele>1091</ele></trkpt><trkpt lat="62.469515" lon="9.639733"><ele>1107</ele></trkpt><trkpt lat="62.469031" lon="9.638848"><ele>1127</ele></trkpt><trkpt lat="62.468547" lon="9.637963"><ele>1147</ele></trkpt><trkpt lat="62.468242" lon="9.637046"><ele>1170</ele></trkpt><trkpt lat="62.467758" lon="9.636161"><ele>1196</ele></trkpt><trkpt lat="62.467542" lon="9.635228"><ele>1211</ele></trkpt><trkpt lat="62.467505" lon="9.634263"><ele>1216</ele></trkpt><trkpt lat="62.467199" lon="9.633346"><ele>1225</ele></trkpt><trkpt lat="62.467162" lon="9.632380"><ele>1237</ele></trkpt><trkpt lat="62.467125" lon="9.631415"><ele>1248</ele></trkpt><trkpt lat="62.467088" lon="9.630450"><ele>1262</ele></trkpt><trkpt lat="62.467050" lon="9.629485"><ele>1274</ele></trkpt><trkpt lat="62.467013" lon="9.628519"><ele>1279</ele></trkpt><trkpt lat="62.466976" lon="9.627554"><ele>1276</ele></trkpt><trkpt lat="62.466939" lon="9.626589"><ele>1274</ele></trkpt><trkpt lat="62.466901" lon="9.625624"><ele>1275</ele></trkpt><trkpt lat="62.466864" lon="9.624659"><ele>1281</ele></trkpt><trkpt lat="62.466827" lon="9.623693"><ele>1285</ele></trkpt><trkpt lat="62.466789" lon="9.622728"><ele>1286</ele></trkpt><trkpt lat="62.466752" lon="9.621763"><ele>1285</ele></trkpt><trkpt lat="62.466715" lon="9.620798"><ele>1286</ele></trkpt><trkpt lat="62.466677" lon="9.619833"><ele>1290</ele></trkpt><trkpt lat="62.466461" lon="9.618900"><ele>1287</ele></trkpt><trkpt lat="62.465977" lon="9.618015"><ele>1277</ele></trkpt><trkpt lat="62.465493" lon="9.617130"><ele>1265</ele></trkpt><trkpt lat="62.465009" lon="9.616246"><ele>1262</ele></trkpt><trkpt lat="62.464525" lon="9.615362"><ele>1257</ele></trkpt><trkpt lat="62.464041" lon="9.614477"><ele>1256</ele></trkpt><trkpt lat="62.463556" lon="9.613593"><ele>1255</ele></trkpt><trkpt lat="62.463072" lon="9.612708"><ele>1255</ele></trkpt><trkpt lat="62.462588" lon="9.611824"><ele>1255</ele></trkpt><trkpt lat="62.462104" lon="9.610940"><ele>1255</ele></trkpt><trkpt lat="62.461620" lon="9.610055"><ele>1255</ele></trkpt><trkpt lat="62.461136" lon="9.609171"><ele>1255</ele></trkpt><trkpt lat="62.460651" lon="9.608287"><ele>1263</ele></trkpt><trkpt lat="62.460167" lon="9.607403"><ele>1269</ele></trkpt><trkpt lat="62.459683" lon="9.606518"><ele>1276</ele></trkpt><trkpt lat="62.459199" lon="9.605634"><ele>1278</ele></trkpt><trkpt lat="62.458714" lon="9.604750"><ele>1289</ele></trkpt><trkpt lat="62.458230" lon="9.603866"><ele>1296</ele></trkpt><trkpt lat="62.457746" lon="9.602982"><ele>1308</ele></trkpt><trkpt lat="62.457552" lon="9.602628"><ele>1309</ele></trkpt></trkseg></trk></gpx>