<?xml version="1.0" encoding="UTF-8"?>
<gpx version="1.1" creator="Rando toppturs" xmlns="http://www.topografix.com/GPX/1/1"><metadata><name>169 Unnamed 1683 m</name><desc>Generated 2026-09-13 17:42 from Kartverket 10 m terrain. Ascent lines are least-cost terrain paths under 35°, not verified routes. Not a snow-stability assessment.</desc></metadata><wpt lat="62.374184" lon="9.638785"><ele>731</ele><name>Car · Unnamed summit 1683 m</name></wpt><wpt lat="62.362685" lon="9.579049"><ele>1683</ele><name>Unnamed summit 1683 m</name></wpt><trk><name>Up · Unnamed summit 1683 m</name><desc>least-cost ascent: +978 m over 3990 m, max 35°, 4.1% on 30–35°, ≈3.44 h at 4 km/h + 400 m/h. Terrain possibility, not a checked route.</desc><trkseg><trkpt lat="62.374184" lon="9.638785"><ele>731</ele></trkpt><trkpt lat="62.374325" lon="9.637791"><ele>726</ele></trkpt><trkpt lat="62.374467" lon="9.636796"><ele>743</ele></trkpt><trkpt lat="62.374429" lon="9.635834"><ele>759</ele></trkpt><trkpt lat="62.374392" lon="9.634872"><ele>768</ele></trkpt><trkpt lat="62.373908" lon="9.633990"><ele>780</ele></trkpt><trkpt lat="62.373603" lon="9.633076"><ele>797</ele></trkpt><trkpt lat="62.373387" lon="9.632145"><ele>821</ele></trkpt><trkpt lat="62.373261" lon="9.631199"><ele>842</ele></trkpt><trkpt lat="62.372776" lon="9.630317"><ele>873</ele></trkpt><trkpt lat="62.372739" lon="9.629355"><ele>900</ele></trkpt><trkpt lat="62.372702" lon="9.628393"><ele>923</ele></trkpt><trkpt lat="62.372575" lon="9.627447"><ele>945</ele></trkpt><trkpt lat="62.372270" lon="9.626533"><ele>970</ele></trkpt><trkpt lat="62.372054" lon="9.625602"><ele>1002</ele></trkpt><trkpt lat="62.371749" lon="9.624688"><ele>1033</ele></trkpt><trkpt lat="62.371533" lon="9.623758"><ele>1066</ele></trkpt><trkpt lat="62.371406" lon="9.622812"><ele>1096</ele></trkpt><trkpt lat="62.371280" lon="9.621866"><ele>1122</ele></trkpt><trkpt lat="62.371510" lon="9.620856"><ele>1139</ele></trkpt><trkpt lat="62.371473" lon="9.619894"><ele>1154</ele></trkpt><trkpt lat="62.371436" lon="9.618932"><ele>1173</ele></trkpt><trkpt lat="62.371667" lon="9.617921"><ele>1188</ele></trkpt><trkpt lat="62.371629" lon="9.616959"><ele>1204</ele></trkpt><trkpt lat="62.371592" lon="9.615997"><ele>1216</ele></trkpt><trkpt lat="62.371555" lon="9.615035"><ele>1230</ele></trkpt><trkpt lat="62.371517" lon="9.614073"><ele>1247</ele></trkpt><trkpt lat="62.371480" lon="9.613111"><ele>1263</ele></trkpt><trkpt lat="62.371711" lon="9.612100"><ele>1278</ele></trkpt><trkpt lat="62.372031" lon="9.611074"><ele>1303</ele></trkpt><trkpt lat="62.372172" lon="9.610079"><ele>1327</ele></trkpt><trkpt lat="62.372135" lon="9.609117"><ele>1351</ele></trkpt><trkpt lat="62.372187" lon="9.608139"><ele>1374</ele></trkpt><trkpt lat="62.372150" lon="9.607177"><ele>1402</ele></trkpt><trkpt lat="62.372380" lon="9.606166"><ele>1433</ele></trkpt><trkpt lat="62.372432" lon="9.605188"><ele>1463</ele></trkpt><trkpt lat="62.372216" lon="9.604258"><ele>1484</ele></trkpt><trkpt lat="62.371732" lon="9.603377"><ele>1494</ele></trkpt><trkpt lat="62.371248" lon="9.602495"><ele>1507</ele></trkpt><trkpt lat="62.370764" lon="9.601614"><ele>1524</ele></trkpt><trkpt lat="62.370279" lon="9.600732"><ele>1533</ele></trkpt><trkpt lat="62.369795" lon="9.599850"><ele>1542</ele></trkpt><trkpt lat="62.369311" lon="9.598969"><ele>1548</ele></trkpt><trkpt lat="62.368827" lon="9.598088"><ele>1553</ele></trkpt><trkpt lat="62.368342" lon="9.597206"><ele>1568</ele></trkpt><trkpt lat="62.368126" lon="9.596276"><ele>1573</ele></trkpt><trkpt lat="62.368089" lon="9.595314"><ele>1568</ele></trkpt><trkpt lat="62.367962" lon="9.594369"><ele>1564</ele></trkpt><trkpt lat="62.367924" lon="9.593407"><ele>1560</ele></trkpt><trkpt lat="62.367887" lon="9.592445"><ele>1559</ele></trkpt><trkpt lat="62.367850" lon="9.591483"><ele>1556</ele></trkpt><trkpt lat="62.367812" lon="9.590521"><ele>1557</ele></trkpt><trkpt lat="62.367775" lon="9.589559"><ele>1559</ele></trkpt><trkpt lat="62.367737" lon="9.588597"><ele>1562</ele></trkpt><trkpt lat="62.367431" lon="9.587683"><ele>1573</ele></trkpt><trkpt lat="62.366947" lon="9.586802"><ele>1587</ele></trkpt><trkpt lat="62.366463" lon="9.585921"><ele>1598</ele></trkpt><trkpt lat="62.365979" lon="9.585040"><ele>1603</ele></trkpt><trkpt lat="62.365494" lon="9.584159"><ele>1612</ele></trkpt><trkpt lat="62.365010" lon="9.583277"><ele>1627</ele></trkpt><trkpt lat="62.364526" lon="9.582396"><ele>1644</ele></trkpt><trkpt lat="62.364041" lon="9.581515"><ele>1659</ele></trkpt><trkpt lat="62.363557" lon="9.580634"><ele>1673</ele></trkpt><trkpt lat="62.363072" lon="9.579753"><ele>1680</ele></trkpt><trkpt lat="62.362685" lon="9.579049"><ele>1683</ele></trkpt></trkseg></trk></gpx>